# 2000 12 13 15 10 0.97 35.6482 -117.4459 2.94 1 0 0 0 100
ST0    3.41   1.00   P
ST1    7.75   1.00   S
ST2    11.45   1.00   P
ST3    14.22   1.00   S
ST4    5.17   1.00   P
ST5    13.17   1.00   S
ST6    5.43   1.00   P
ST6    9.18   1.00   S
ST8    6.64   1.00   P
ST10   8.57   1.00   P
ST10   14.55   1.00   S
ST12   6.74   1.00   P
ST12   11.37   1.00   S
ST13   1.59   1.00   S
ST14   4.15   1.00   P
ST14   7.05   1.00   S
ST15   2.36   1.00   P
ST15   3.87   1.00   S
ST16   4.18   1.00   P
ST17   3.67   1.00   P
ST18   1.56   1.00   P
ST19   1.45   1.00   S
ST20   11.19   1.00   S
ST22   6.71   1.00   P
ST22   11.46   1.00   S
ST23   2.99   1.00   P
ST23   5.00   1.00   S
ST24   1.80   1.00   P
ST24   3.05   1.00   S
ST25   3.22   1.00   P
ST25   5.45   1.00   S
ST26   1.90   1.00   P
# 2000 12 13 15 10 0.96 36.0203 -117.8410 3.89 1 0 0 0 101
ST0    19.28   1.00   S
ST2    10.95   1.00   S
ST3    1.35   1.00   P
ST3    2.44   1.00   S
ST4    9.84   1.00   P
ST4    16.70   1.00   S
ST6    8.68   1.00   P
ST7    6.64   1.00   P
ST7    11.45   1.00   S
ST9    13.56   1.00   S
ST10   2.93   1.00   S
ST11   2.35   1.00   P
ST12   3.75   1.00   P
ST12   6.17   1.00   S
ST13   8.84   1.00   P
ST14   8.09   1.00   P
ST14   13.81   1.00   S
ST15   14.12   1.00   S
ST16   10.48   1.00   P
ST16   17.97   1.00   S
ST17   19.22   1.00   S
ST18   9.11   1.00   P
ST18   15.60   1.00   S
ST19   8.68   1.00   P
ST19   14.79   1.00   S
ST20   6.56   1.00   S
ST21   6.16   1.00   P
ST21   10.69   1.00   S
ST22   3.67   1.00   P
ST22   6.11   1.00   S
ST23   11.94   1.00   S
ST24   10.20   1.00   P
ST24   17.32   1.00   S
ST25   7.09   1.00   P
ST26   10.24   1.00   P
ST26   17.33   1.00   S
# 2000 12 13 15 10 0.95 35.7773 -117.5517 5.73 1 0 0 0 102
ST0    5.88   1.00   P
ST0    9.82   1.00   S
ST1    1.76   1.00   P
ST1    2.95   1.00   S
ST2    8.91   1.00   P
ST3    5.48   1.00   P
ST4    5.85   1.00   P
ST5    5.58   1.00   P
ST7    3.85   1.00   P
ST7    6.80   1.00   S
ST8    4.10   1.00   P
ST9    6.19   1.00   P
ST10   5.65   1.00   P
ST10   9.67   1.00   S
ST11   7.56   1.00   P
ST11   13.07   1.00   S
ST12   3.81   1.00   P
ST12   6.40   1.00   S
ST13   3.27   1.00   P
ST14   3.51   1.00   P
ST15   3.18   1.00   P
ST16   5.67   1.00   P
ST16   9.76   1.00   S
ST17   5.73   1.00   P
ST17   9.61   1.00   S
ST18   3.79   1.00   P
ST19   3.14   1.00   P
ST19   5.26   1.00   S
ST20   3.71   1.00   P
ST21   1.54   1.00   P
ST22   3.83   1.00   P
ST22   6.54   1.00   S
ST23   1.70   1.00   P
ST23   2.69   1.00   S
ST24   4.70   1.00   P
ST24   7.82   1.00   S
ST25   2.20   1.00   P
ST25   3.75   1.00   S
# 2000 12 13 15 10 1.0 35.8992 -117.7081 5.83 1 0 0 0 103
ST0    8.61   1.00   P
ST1    4.86   1.00   S
ST2    7.17   1.00   P
ST3    4.51   1.00   S
ST4    7.42   1.00   P
ST5    4.90   1.00   P
ST6    6.45   1.00   P
ST6    10.82   1.00   S
ST7    4.32   1.00   P
ST7    7.46   1.00   S
ST8    2.70   1.00   P
ST8    4.48   1.00   S
ST9    10.23   1.00   S
ST10   3.01   1.00   P
ST11   4.84   1.00   P
ST12   2.01   1.00   P
ST13   6.13   1.00   P
ST13   10.44   1.00   S
ST15   5.56   1.00   P
ST17   8.50   1.00   P
ST18   6.38   1.00   P
ST19   5.89   1.00   P
ST19   10.07   1.00   S
ST20   1.07   1.00   P
ST21   3.40   1.00   P
ST22   1.20   1.00   P
ST23   4.18   1.00   P
ST23   7.16   1.00   S
ST24   12.59   1.00   S
ST26   7.45   1.00   P
ST26   12.65   1.00   S
# 2000 12 13 15 10 1.1 35.9720 -117.6667 2.03 1 0 0 0 104
ST0    9.80   1.00   P
ST1    6.60   1.00   S
ST2    10.66   1.00   S
ST3    2.65   1.00   P
ST3    4.81   1.00   S
ST4    15.46   1.00   S
ST5    4.10   1.00   P
ST6    10.89   1.00   S
ST7    6.05   1.00   P
ST7    10.35   1.00   S
ST8    4.46   1.00   P
ST8    7.26   1.00   S
ST9    7.74   1.00   P
ST11   7.92   1.00   S
ST12   0.78   1.00   P
ST12   1.24   1.00   S
ST13   12.12   1.00   S
ST14   9.94   1.00   S
ST15   6.99   1.00   P
ST15   12.03   1.00   S
ST17   9.50   1.00   P
ST17   16.07   1.00   S
ST18   13.04   1.00   S
ST19   12.16   1.00   S
ST21   4.70   1.00   P
ST22   1.83   1.00   P
ST23   5.48   1.00   P
ST23   9.36   1.00   S
ST24   8.53   1.00   P
ST25   5.85   1.00   P
ST25   9.96   1.00   S
# 2000 12 13 15 10 1.08 35.6845 -117.5413 6.55 1 0 0 0 105
ST0    4.44   1.00   P
ST0    7.47   1.00   S
ST1    3.16   1.00   P
ST2    10.36   1.00   P
ST2    17.58   1.00   S
ST3    6.66   1.00   P
ST4    4.37   1.00   P
ST5    6.95   1.00   P
ST5    11.75   1.00   S
ST6    9.22   1.00   S
ST7    3.61   1.00   P
ST8    4.72   1.00   P
ST9    5.58   1.00   P
ST11   8.78   1.00   P
ST11   15.21   1.00   S
ST12   5.27   1.00   P
ST12   8.74   1.00   S
ST13   2.37   1.00   P
ST13   4.09   1.00   S
ST14   4.15   1.00   P
ST14   7.04   1.00   S
ST15   3.03   1.00   S
ST17   4.71   1.00   P
ST19   1.86   1.00   P
ST19   3.24   1.00   S
ST20   4.91   1.00   P
ST20   8.23   1.00   S
ST21   4.21   1.00   S
ST22   5.06   1.00   P
ST23   1.69   1.00   P
ST24   5.82   1.00   S
ST25   1.68   1.00   P
ST26   3.31   1.00   P
# 2000 12 13 15 10 0.97 35.8988 -117.6731 5.94 1 0 0 0 106
ST0    8.38   1.00   P
ST0    14.04   1.00   S
ST2    7.08   1.00   P
ST3    2.99   1.00   P
ST5    4.60   1.00   P
ST6    10.01   1.00   S
ST7    4.39   1.00   P
ST8    2.95   1.00   P
ST8    4.81   1.00   S
ST9    6.29   1.00   P
ST9    10.62   1.00   S
ST10   3.24   1.00   P
ST10   5.30   1.00   S
ST11   5.15   1.00   P
ST11   8.81   1.00   S
ST13   5.79   1.00   P
ST14   5.14   1.00   P
ST14   8.68   1.00   S
ST16   13.28   1.00   S
ST17   8.14   1.00   P
ST18   6.16   1.00   P
ST18   10.50   1.00   S
ST19   5.59   1.00   P
ST19   9.60   1.00   S
ST20   2.16   1.00   S
ST23   6.64   1.00   S
ST24   7.13   1.00   P
ST24   12.00   1.00   S
ST25   4.15   1.00   P
ST25   7.20   1.00   S
ST26   7.17   1.00   P
ST26   12.19   1.00   S
# 2000 12 13 15 10 0.96 35.9249 -117.7200 5.04 1 0 0 0 107
ST1    3.40   1.00   P
ST1    5.65   1.00   S
ST3    2.29   1.00   P
ST3    3.83   1.00   S
ST4    7.95   1.00   P
ST6    6.74   1.00   P
ST6    11.18   1.00   S
ST7    4.85   1.00   P
ST10   4.29   1.00   S
ST12   3.04   1.00   S
ST13   11.39   1.00   S
ST14   9.85   1.00   S
ST15   6.08   1.00   P
ST16   8.40   1.00   P
ST16   14.40   1.00   S
ST17   9.06   1.00   P
ST17   15.27   1.00   S
ST19   10.89   1.00   S
ST20   1.45   1.00   P
ST20   2.19   1.00   S
ST21   4.00   1.00   P
ST22   1.20   1.00   P
ST22   1.89   1.00   S
ST23   4.74   1.00   P
ST23   8.06   1.00   S
ST24   7.95   1.00   P
ST25   4.92   1.00   P
ST25   8.52   1.00   S
ST26   8.00   1.00   P
ST26   13.52   1.00   S
# 2000 12 13 15 10 1.0 35.6456 -117.4652 6.13 1 0 0 0 108
ST1    4.20   1.00   P
ST2    11.20   1.00   P
ST3    7.90   1.00   P
ST4    4.59   1.00   P
ST5    7.60   1.00   P
ST5    12.58   1.00   S
ST6    5.32   1.00   P
ST6    9.00   1.00   S
ST9    6.67   1.00   P
ST10   8.11   1.00   P
ST11   10.06   1.00   P
ST11   17.19   1.00   S
ST12   6.27   1.00   P
ST12   10.70   1.00   S
ST13   1.51   1.00   P
ST13   2.55   1.00   S
ST14   4.02   1.00   P
ST14   6.80   1.00   S
ST16   6.33   1.00   S
ST17   3.60   1.00   P
ST17   6.02   1.00   S
ST18   1.57   1.00   P
ST18   2.68   1.00   S
ST19   1.15   1.00   P
ST20   6.07   1.00   P
ST20   10.29   1.00   S
ST21   3.54   1.00   P
ST22   6.22   1.00   P
ST23   2.67   1.00   P
ST24   2.22   1.00   P
ST25   2.80   1.00   P
ST25   4.71   1.00   S
ST26   2.12   1.00   P
# 2000 12 13 15 10 0.86 35.7338 -117.5108 4.31 1 0 0 0 109
ST1    2.71   1.00   P
ST1    4.30   1.00   S
ST2    9.82   1.00   P
ST3    6.51   1.00   P
ST5    6.38   1.00   P
ST5    10.53   1.00   S
ST6    4.90   1.00   P
ST6    8.26   1.00   S
ST7    7.17   1.00   S
ST8    4.89   1.00   P
ST8    8.32   1.00   S
ST9    6.35   1.00   P
ST9    10.85   1.00   S
ST10   6.64   1.00   P
ST11   8.56   1.00   P
ST12   4.85   1.00   P
ST12   8.14   1.00   S
ST13   3.89   1.00   S
ST14   3.59   1.00   P
ST15   2.63   1.00   P
ST17   5.07   1.00   P
ST17   8.35   1.00   S
ST18   3.00   1.00   P
ST19   2.26   1.00   P
ST19   3.72   1.00   S
ST20   4.63   1.00   P
ST20   7.80   1.00   S
ST21   2.12   1.00   P
ST21   3.56   1.00   S
ST22   4.82   1.00   P
ST22   8.06   1.00   S
ST23   1.54   1.00   P
ST24   3.85   1.00   P
ST24   6.40   1.00   S
ST25   2.04   1.00   P
ST25   3.37   1.00   S
ST26   3.92   1.00   P
# 2000 12 13 15 10 1.1 35.5923 -117.4259 5.25 1 0 0 0 110
ST0    3.64   1.00   S
ST1    8.93   1.00   S
ST4    4.68   1.00   P
ST5    8.41   1.00   P
ST6    5.73   1.00   P
ST9    7.32   1.00   P
ST9    12.65   1.00   S
ST10   9.06   1.00   P
ST11   11.01   1.00   P
ST11   18.97   1.00   S
ST13   1.90   1.00   P
ST13   3.31   1.00   S
ST15   2.72   1.00   P
ST15   4.61   1.00   S
ST16   3.34   1.00   P
ST16   5.69   1.00   S
ST17   2.81   1.00   P
ST17   4.83   1.00   S
ST18   1.62   1.00   P
ST18   2.89   1.00   S
ST19   1.85   1.00   P
ST19   3.00   1.00   S
ST20   7.10   1.00   P
ST20   12.16   1.00   S
ST21   4.67   1.00   P
ST21   7.79   1.00   S
ST23   3.73   1.00   P
ST23   6.31   1.00   S
ST25   3.81   1.00   P
ST25   6.53   1.00   S
ST26   1.09   1.00   P
ST26   1.91   1.00   S
# 2000 12 13 15 10 0.93 35.9341 -117.7029 5.17 1 0 0 0 111
ST0    9.15   1.00   P
ST1    3.26   1.00   P
ST1    5.48   1.00   S
ST3    2.36   1.00   P
ST5    4.53   1.00   P
ST5    7.50   1.00   S
ST6    6.48   1.00   P
ST7    5.05   1.00   P
ST7    8.46   1.00   S
ST9    11.36   1.00   S
ST10   2.47   1.00   P
ST11   4.43   1.00   P
ST11   7.82   1.00   S
ST13   6.58   1.00   P
ST13   11.11   1.00   S
ST14   5.71   1.00   P
ST15   6.20   1.00   P
ST15   10.47   1.00   S
ST16   8.50   1.00   P
ST18   6.99   1.00   P
ST19   6.41   1.00   P
ST20   1.61   1.00   P
ST20   2.57   1.00   S
ST21   4.01   1.00   P
ST21   6.65   1.00   S
ST22   1.28   1.00   P
ST22   2.03   1.00   S
ST23   4.78   1.00   P
ST24   7.90   1.00   P
ST25   4.98   1.00   P
ST25   8.37   1.00   S
ST26   7.98   1.00   P
ST26   13.64   1.00   S
# 2000 12 13 15 10 1.06 35.7040 -117.5855 7.23 1 0 0 0 112
ST0    5.12   1.00   P
ST0    8.65   1.00   S
ST1    2.70   1.00   P
ST1    4.58   1.00   S
ST2    9.94   1.00   P
ST3    5.96   1.00   P
ST4    7.77   1.00   S
ST5    11.37   1.00   S
ST6    5.65   1.00   P
ST8    7.10   1.00   S
ST9    8.71   1.00   S
ST10   6.32   1.00   P
ST10   10.91   1.00   S
ST11   8.14   1.00   P
ST11   14.27   1.00   S
ST12   4.77   1.00   P
ST13   5.14   1.00   S
ST14   4.34   1.00   P
ST14   7.58   1.00   S
ST15   2.01   1.00   P
ST16   4.42   1.00   P
ST16   7.57   1.00   S
ST17   5.43   1.00   P
ST19   2.41   1.00   P
ST19   4.17   1.00   S
ST21   2.02   1.00   P
ST21   3.43   1.00   S
ST22   7.70   1.00   S
ST23   1.44   1.00   P
ST23   2.45   1.00   S
ST24   4.14   1.00   P
ST24   6.96   1.00   S
ST25   2.35   1.00   S
ST26   3.94   1.00   P
ST26   6.63   1.00   S
# 2000 12 13 15 10 0.96 35.7254 -117.5233 5.02 1 0 0 0 113
ST0    8.30   1.00   S
ST1    4.54   1.00   S
ST2    16.57   1.00   S
ST5    6.42   1.00   P
ST5    10.71   1.00   S
ST6    5.03   1.00   P
ST7    3.92   1.00   P
ST8    4.67   1.00   P
ST8    8.00   1.00   S
ST9    6.04   1.00   P
ST10   6.56   1.00   P
ST11   8.50   1.00   P
ST12   4.81   1.00   P
ST12   8.09   1.00   S
ST13   2.51   1.00   P
ST14   6.26   1.00   S
ST15   2.29   1.00   P
ST17   5.04   1.00   P
ST17   8.45   1.00   S
ST18   4.73   1.00   S
ST19   3.77   1.00   S
ST20   4.52   1.00   P
ST20   7.65   1.00   S
ST21   2.07   1.00   P
ST21   3.52   1.00   S
ST22   8.08   1.00   S
ST23   1.46   1.00   P
ST24   3.79   1.00   P
ST24   6.33   1.00   S
# 2000 12 13 15 10 0.9 35.9202 -117.6959 5.37 1 0 0 0 114
ST0    8.90   1.00   P
ST0    14.98   1.00   S
ST1    3.03   1.00   P
ST2    6.82   1.00   P
ST3    4.41   1.00   S
ST4    7.80   1.00   P
ST5    7.48   1.00   S
ST7    8.17   1.00   S
ST12   1.65   1.00   P
ST12   2.51   1.00   S
ST13   6.30   1.00   P
ST14   5.53   1.00   P
ST14   9.19   1.00   S
ST15   5.90   1.00   P
ST16   8.25   1.00   P
ST17   8.72   1.00   P
ST17   14.67   1.00   S
ST18   6.70   1.00   P
ST18   11.41   1.00   S
ST19   10.37   1.00   S
ST21   3.70   1.00   P
ST21   6.21   1.00   S
ST22   1.81   1.00   S
ST24   7.62   1.00   P
ST24   12.88   1.00   S
ST25   4.73   1.00   P
ST25   7.88   1.00   S
ST26   7.70   1.00   P
ST26   13.03   1.00   S
# 2000 12 13 15 10 1.05 35.5936 -117.4213 5.17 1 0 0 0 115
ST3    8.95   1.00   P
ST4    4.79   1.00   P
ST4    8.00   1.00   S
ST5    8.46   1.00   P
ST6    9.81   1.00   S
ST8    12.08   1.00   S
ST9    12.67   1.00   S
ST10   9.16   1.00   P
ST11   11.08   1.00   P
ST13   1.91   1.00   P
ST15   4.68   1.00   S
ST16   3.44   1.00   P
ST17   4.78   1.00   S
ST18   2.78   1.00   S
ST19   1.82   1.00   P
ST20   7.12   1.00   P
ST21   4.67   1.00   P
ST21   7.92   1.00   S
ST23   3.74   1.00   P
ST24   2.27   1.00   S
ST25   3.86   1.00   P
ST26   1.12   1.00   P
# 2000 12 13 15 10 1.06 35.8897 -117.6781 6.88 1 0 0 0 116
ST0    13.90   1.00   S
ST2    7.04   1.00   P
ST4    7.18   1.00   P
ST4    12.44   1.00   S
ST5    4.63   1.00   P
ST6    10.07   1.00   S
ST7    7.20   1.00   S
ST8    4.63   1.00   S
ST11   8.76   1.00   S
ST12   1.88   1.00   P
ST12   3.12   1.00   S
ST13   5.67   1.00   P
ST13   9.77   1.00   S
ST15   5.20   1.00   P
ST15   8.99   1.00   S
ST16   7.55   1.00   P
ST17   13.70   1.00   S
ST19   9.33   1.00   S
ST21   3.06   1.00   P
ST22   2.43   1.00   S
ST24   6.96   1.00   P
ST24   11.84   1.00   S
ST26   7.00   1.00   P
# 2000 12 13 15 10 1.12 35.8304 -117.6312 5.76 1 0 0 0 117
ST1    1.30   1.00   P
ST1    2.26   1.00   S
ST2    8.04   1.00   P
ST2    13.71   1.00   S
ST3    4.12   1.00   P
ST4    11.15   1.00   S
ST5    5.19   1.00   P
ST5    8.69   1.00   S
ST6    9.42   1.00   S
ST7    3.61   1.00   P
ST7    6.32   1.00   S
ST8    2.80   1.00   P
ST8    4.80   1.00   S
ST9    5.74   1.00   P
ST9    9.92   1.00   S
ST10   7.43   1.00   S
ST11   6.26   1.00   P
ST11   10.96   1.00   S
ST12   2.69   1.00   P
ST12   4.62   1.00   S
ST13   4.67   1.00   P
ST13   7.96   1.00   S
ST14   7.68   1.00   S
ST15   4.17   1.00   P
ST16   6.55   1.00   P
ST18   4.99   1.00   P
ST19   7.69   1.00   S
ST20   2.12   1.00   P
ST20   3.69   1.00   S
ST21   3.01   1.00   S
ST22   3.87   1.00   S
ST23   2.67   1.00   P
ST23   4.53   1.00   S
ST24   5.98   1.00   P
ST24   10.28   1.00   S
ST25   5.05   1.00   S
ST26   6.01   1.00   P
ST26   10.32   1.00   S
# 2000 12 13 15 10 1.08 35.6823 -117.5199 7.66 1 0 0 0 118
ST1    3.19   1.00   P
ST1    5.52   1.00   S
ST2    10.26   1.00   P
ST4    4.62   1.00   P
ST4    7.85   1.00   S
ST5    6.85   1.00   P
ST5    11.51   1.00   S
ST8    5.02   1.00   P
ST9    5.88   1.00   P
ST9    10.10   1.00   S
ST11   8.92   1.00   P
ST12   5.35   1.00   P
ST13   2.21   1.00   P
ST16   4.10   1.00   P
ST17   4.43   1.00   P
ST19   1.71   1.00   P
ST19   3.05   1.00   S
ST20   8.59   1.00   S
ST21   2.59   1.00   P
ST22   5.17   1.00   P
ST23   3.19   1.00   S
ST24   3.16   1.00   P
ST25   2.01   1.00   P
ST25   3.34   1.00   S
ST26   3.11   1.00   P
# 2000 12 13 15 10 0.92 35.5653 -117.6174 3.33 1 0 0 0 119
ST1    5.21   1.00   P
ST2    12.38   1.00   P
ST3    8.10   1.00   P
ST4    2.31   1.00   P
ST7    3.84   1.00   P
ST7    6.70   1.00   S
ST8    5.93   1.00   P
ST9    4.85   1.00   P
ST9    8.25   1.00   S
ST10   8.53   1.00   P
ST10   14.62   1.00   S
ST12   7.20   1.00   P
ST13   3.98   1.00   P
ST14   6.39   1.00   P
ST16   2.40   1.00   P
ST16   4.08   1.00   S
ST18   2.57   1.00   P
ST20   6.52   1.00   P
ST21   4.39   1.00   P
ST22   6.83   1.00   P
ST22   11.49   1.00   S
ST23   3.57   1.00   P
ST23   6.14   1.00   S
ST24   4.38   1.00   P
ST24   7.37   1.00   S
ST25   3.17   1.00   P
ST25   5.36   1.00   S
ST26   3.76   1.00   P
ST26   6.47   1.00   S
# 2000 12 13 15 10 0.88 35.7145 -117.4917 5.15 1 0 0 0 120
ST1    5.05   1.00   S
ST2    10.05   1.00   P
ST2    16.77   1.00   S
ST3    11.60   1.00   S
ST4    5.29   1.00   P
ST4    9.01   1.00   S
ST5    6.58   1.00   P
ST6    8.17   1.00   S
ST7    4.47   1.00   P
ST8    9.02   1.00   S
ST9    11.20   1.00   S
ST10   7.03   1.00   P
ST10   11.92   1.00   S
ST12   5.23   1.00   P
ST13   3.47   1.00   S
ST14   5.86   1.00   S
ST15   2.53   1.00   P
ST16   4.78   1.00   P
ST17   4.63   1.00   P
ST18   2.67   1.00   P
ST19   1.90   1.00   P
ST19   3.15   1.00   S
ST20   5.02   1.00   P
ST20   8.35   1.00   S
ST22   5.23   1.00   P
ST24   3.37   1.00   P
ST25   2.21   1.00   P
ST26   3.47   1.00   P
ST26   5.57   1.00   S
# 2000 12 13 15 10 1.11 35.7261 -117.5538 7.60 1 0 0 0 121
ST0    5.07   1.00   P
ST1    2.49   1.00   P
ST2    9.65   1.00   P
ST2    16.35   1.00   S
ST3    5.91   1.00   P
ST3    10.09   1.00   S
ST7    3.40   1.00   P
ST7    6.10   1.00   S
ST8    4.19   1.00   P
ST8    7.17   1.00   S
ST9    9.46   1.00   S
ST11   8.05   1.00   P
ST12   4.50   1.00   P
ST12   7.62   1.00   S
ST13   2.80   1.00   P
ST14   3.91   1.00   P
ST14   6.69   1.00   S
ST16   7.97   1.00   S
ST17   5.19   1.00   P
ST18   5.01   1.00   S
ST19   2.40   1.00   P
ST19   4.22   1.00   S
ST20   7.05   1.00   S
ST21   1.88   1.00   P
ST21   3.28   1.00   S
ST22   4.31   1.00   P
ST22   7.35   1.00   S
ST23   1.46   1.00   P
ST24   3.97   1.00   P
ST25   1.64   1.00   P
ST25   2.95   1.00   S
ST26   6.63   1.00   S
# 2000 12 13 15 10 0.95 35.6770 -117.4791 4.11 1 0 0 0 122
ST0    4.01   1.00   P
ST1    3.77   1.00   P
ST3    7.52   1.00   P
ST5    7.23   1.00   P
ST5    12.04   1.00   S
ST6    8.70   1.00   S
ST7    4.68   1.00   P
ST8    9.90   1.00   S
ST9    6.68   1.00   P
ST9    11.42   1.00   S
ST10   7.70   1.00   P
ST10   13.15   1.00   S
ST11   9.63   1.00   P
ST12   5.89   1.00   P
ST12   9.94   1.00   S
ST13   1.46   1.00   P
ST13   2.51   1.00   S
ST14   6.53   1.00   S
ST15   2.05   1.00   P
ST15   3.45   1.00   S
ST16   4.31   1.00   P
ST17   4.12   1.00   P
ST17   6.84   1.00   S
ST18   1.89   1.00   P
ST18   3.06   1.00   S
ST19   1.25   1.00   P
ST19   1.87   1.00   S
ST20   5.70   1.00   P
ST20   9.66   1.00   S
ST21   5.41   1.00   S
ST22   5.86   1.00   P
ST22   9.94   1.00   S
ST23   2.19   1.00   P
ST23   3.61   1.00   S
ST24   2.71   1.00   P
ST25   2.37   1.00   P
ST25   4.11   1.00   S
# 2000 12 13 15 10 1.05 35.7111 -117.5190 5.65 1 0 0 0 123
ST0    4.61   1.00   P
ST0    7.80   1.00   S
ST1    5.01   1.00   S
ST2    16.98   1.00   S
ST3    11.11   1.00   S
ST5    6.56   1.00   P
ST6    8.53   1.00   S
ST7    3.98   1.00   P
ST7    7.01   1.00   S
ST8    4.87   1.00   P
ST9    6.03   1.00   P
ST9    10.31   1.00   S
ST10   6.72   1.00   P
ST11   8.67   1.00   P
ST11   14.90   1.00   S
ST13   2.27   1.00   P
ST13   3.94   1.00   S
ST14   3.72   1.00   P
ST15   3.81   1.00   S
ST16   4.51   1.00   P
ST17   4.63   1.00   P
ST17   7.88   1.00   S
ST18   2.53   1.00   P
ST19   3.52   1.00   S
ST20   4.74   1.00   P
ST20   8.06   1.00   S
ST22   4.90   1.00   P
ST24   3.44   1.00   P
ST24   5.92   1.00   S
ST26   3.45   1.00   P
# 2000 12 13 15 10 1.04 35.7221 -117.5393 6.67 1 0 0 0 124
ST0    4.94   1.00   P
ST1    2.64   1.00   P
ST2    16.59   1.00   S
ST3    6.20   1.00   P
ST3    10.62   1.00   S
ST4    5.00   1.00   P
ST4    8.61   1.00   S
ST5    6.37   1.00   P
ST6    8.57   1.00   S
ST7    3.72   1.00   P
ST7    6.45   1.00   S
ST8    4.50   1.00   P
ST9    5.80   1.00   P
ST9    9.95   1.00   S
ST10   6.33   1.00   P
ST10   10.78   1.00   S
ST11   8.28   1.00   P
ST11   14.39   1.00   S
ST12   4.72   1.00   P
ST12   7.78   1.00   S
ST13   4.41   1.00   S
ST15   2.32   1.00   P
ST16   4.71   1.00   P
ST16   7.91   1.00   S
ST17   5.02   1.00   P
ST19   3.81   1.00   S
ST20   4.43   1.00   P
ST20   7.54   1.00   S
ST22   4.57   1.00   P
ST24   3.83   1.00   P
ST24   6.38   1.00   S
ST25   1.82   1.00   P
ST26   6.31   1.00   S
