# 2000 12 13 15 10 1.0 35.9071 -117.6811 5.68 1 0 0 0 150
ST0    8.56   1.00   P
ST0    14.45   1.00   S
ST1    2.66   1.00   P
ST1    4.49   1.00   S
ST2    6.93   1.00   P
ST2    12.00   1.00   S
ST3    4.82   1.00   S
ST4    7.57   1.00   P
ST5    4.55   1.00   P
ST5    7.49   1.00   S
ST6    10.33   1.00   S
ST7    4.55   1.00   P
ST8    3.00   1.00   P
ST8    5.10   1.00   S
ST10   3.02   1.00   P
ST11   4.91   1.00   P
ST12   1.61   1.00   P
ST12   2.61   1.00   S
ST14   8.80   1.00   S
ST15   5.51   1.00   P
ST16   7.96   1.00   P
ST17   8.35   1.00   P
ST17   14.28   1.00   S
ST18   6.36   1.00   P
ST18   10.93   1.00   S
ST19   5.87   1.00   P
ST19   9.87   1.00   S
ST20   1.20   1.00   P
ST23   4.13   1.00   P
ST24   7.25   1.00   P
ST24   12.33   1.00   S
# 2000 12 13 15 10 0.94 35.9042 -117.6666 5.63 1 0 0 0 151
ST0    8.46   1.00   P
ST0    14.24   1.00   S
ST1    2.55   1.00   P
ST2    11.91   1.00   S
ST3    3.13   1.00   P
ST3    5.19   1.00   S
ST7    4.54   1.00   P
ST8    3.04   1.00   P
ST8    5.13   1.00   S
ST9    6.42   1.00   P
ST10   3.20   1.00   P
ST10   5.23   1.00   S
ST11   5.11   1.00   P
ST11   9.09   1.00   S
ST12   1.65   1.00   P
ST13   5.88   1.00   P
ST14   5.13   1.00   P
ST14   8.47   1.00   S
ST15   5.46   1.00   P
ST16   7.85   1.00   P
ST17   8.28   1.00   P
ST18   6.28   1.00   P
ST19   5.68   1.00   P
ST19   9.78   1.00   S
ST21   5.48   1.00   S
ST22   1.20   1.00   P
ST23   6.71   1.00   S
ST24   7.23   1.00   P
ST25   4.30   1.00   P
# 2000 12 13 15 10 0.91 35.9495 -117.6875 5.18 1 0 0 0 152
ST0    9.24   1.00   P
ST1    3.41   1.00   P
ST3    2.42   1.00   P
ST6    10.61   1.00   S
ST7    5.27   1.00   P
ST7    8.97   1.00   S
ST8    3.60   1.00   P
ST9    6.99   1.00   P
ST10   2.45   1.00   P
ST10   3.99   1.00   S
ST13   11.15   1.00   S
ST15   6.30   1.00   P
ST15   10.80   1.00   S
ST17   9.02   1.00   P
ST17   15.22   1.00   S
ST18   11.98   1.00   S
ST19   11.02   1.00   S
ST20   1.77   1.00   P
ST21   4.03   1.00   P
ST23   8.16   1.00   S
ST24   8.00   1.00   P
ST24   13.55   1.00   S
ST25   5.12   1.00   P
# 2000 12 13 15 10 0.97 35.8944 -117.6727 6.47 1 0 0 0 153
ST1    4.00   1.00   S
ST2    12.09   1.00   S
ST4    7.36   1.00   P
ST4    12.66   1.00   S
ST5    4.61   1.00   P
ST6    9.95   1.00   S
ST7    4.34   1.00   P
ST8    2.92   1.00   P
ST9    6.24   1.00   P
ST10   5.38   1.00   S
ST11   5.11   1.00   P
ST11   8.86   1.00   S
ST12   2.94   1.00   S
ST13   5.74   1.00   P
ST13   9.75   1.00   S
ST14   5.09   1.00   P
ST14   8.60   1.00   S
ST15   5.34   1.00   P
ST16   7.68   1.00   P
ST17   13.88   1.00   S
ST18   6.15   1.00   P
ST18   10.49   1.00   S
ST19   5.63   1.00   P
ST20   1.36   1.00   P
ST21   3.17   1.00   P
ST22   1.37   1.00   P
ST24   7.09   1.00   P
ST25   7.13   1.00   S
ST26   7.11   1.00   P
# 2000 12 13 15 10 1.01 35.9336 -117.7079 5.15 1 0 0 0 154
ST0    15.38   1.00   S
ST3    2.34   1.00   P
ST3    3.80   1.00   S
ST5    4.54   1.00   P
ST5    7.55   1.00   S
ST6    10.93   1.00   S
ST7    4.93   1.00   P
ST8    3.25   1.00   P
ST9    6.64   1.00   P
ST10   4.18   1.00   S
ST11   7.79   1.00   S
ST12   1.53   1.00   P
ST12   2.59   1.00   S
ST13   11.21   1.00   S
ST14   5.75   1.00   P
ST15   10.54   1.00   S
ST16   8.49   1.00   P
ST17   8.96   1.00   P
ST17   15.19   1.00   S
ST18   6.96   1.00   P
ST19   6.44   1.00   P
ST20   1.40   1.00   P
ST24   7.93   1.00   P
ST25   4.92   1.00   P
ST25   8.48   1.00   S
ST26   7.98   1.00   P
# 2000 12 13 15 10 0.97 35.9275 -117.7209 6.40 1 0 0 0 155
ST0    15.35   1.00   S
ST1    3.31   1.00   P
ST2    6.65   1.00   P
ST2    11.48   1.00   S
ST5    4.61   1.00   P
ST5    7.71   1.00   S
ST6    6.58   1.00   P
ST6    10.94   1.00   S
ST9    6.44   1.00   P
ST9    10.92   1.00   S
ST10   2.41   1.00   P
ST11   4.34   1.00   P
ST11   7.56   1.00   S
ST12   1.84   1.00   P
ST13   6.50   1.00   P
ST16   14.25   1.00   S
ST17   8.92   1.00   P
ST18   6.82   1.00   P
ST19   6.33   1.00   P
ST20   1.65   1.00   P
ST22   2.38   1.00   S
ST24   7.83   1.00   P
ST25   4.83   1.00   P
ST25   8.22   1.00   S
ST26   13.37   1.00   S
# 2000 12 13 15 10 1.07 35.5798 -117.6181 4.58 1 0 0 0 156
ST0    4.59   1.00   P
ST0    7.91   1.00   S
ST1    4.80   1.00   P
ST2    12.01   1.00   P
ST2    20.59   1.00   S
ST3    7.74   1.00   P
ST5    15.18   1.00   S
ST6    7.44   1.00   P
ST7    3.50   1.00   P
ST7    6.18   1.00   S
ST8    5.53   1.00   P
ST9    4.57   1.00   P
ST9    8.07   1.00   S
ST10   14.15   1.00   S
ST11   9.98   1.00   P
ST12   11.61   1.00   S
ST13   3.76   1.00   P
ST13   6.50   1.00   S
ST14   6.10   1.00   P
ST14   10.48   1.00   S
ST15   1.65   1.00   P
ST16   2.46   1.00   P
ST17   5.60   1.00   P
ST18   2.43   1.00   P
ST18   4.29   1.00   S
ST19   2.93   1.00   P
ST20   6.17   1.00   P
ST20   10.73   1.00   S
ST21   4.04   1.00   P
ST21   7.16   1.00   S
ST22   6.39   1.00   P
ST23   3.17   1.00   P
ST23   5.78   1.00   S
ST24   4.25   1.00   P
ST24   7.29   1.00   S
ST25   2.77   1.00   P
ST25   4.85   1.00   S
ST26   3.68   1.00   P
ST26   6.39   1.00   S
# 2000 12 13 15 10 1.06 35.5984 -117.4260 5.08 1 0 0 0 157
ST0    2.32   1.00   P
ST0    3.90   1.00   S
ST2    12.07   1.00   P
ST2    20.27   1.00   S
ST3    8.92   1.00   P
ST3    15.17   1.00   S
ST4    4.72   1.00   P
ST4    8.06   1.00   S
ST5    8.48   1.00   P
ST6    5.79   1.00   P
ST6    9.83   1.00   S
ST8    7.12   1.00   P
ST9    7.31   1.00   P
ST10   9.13   1.00   P
ST10   15.46   1.00   S
ST11   11.00   1.00   P
ST11   19.03   1.00   S
ST12   7.29   1.00   P
ST12   12.41   1.00   S
ST13   1.75   1.00   P
ST14   4.62   1.00   P
ST14   7.90   1.00   S
ST15   2.70   1.00   P
ST15   4.53   1.00   S
ST16   5.72   1.00   S
ST17   4.86   1.00   S
ST18   1.58   1.00   P
ST19   1.75   1.00   P
ST19   2.94   1.00   S
ST20   12.08   1.00   S
ST21   7.88   1.00   S
ST22   7.29   1.00   P
ST23   6.26   1.00   S
ST25   3.82   1.00   P
ST26   1.10   1.00   P
ST26   1.77   1.00   S
# 2000 12 13 15 10 1.08 35.6349 -117.4317 4.25 1 0 0 0 158
ST0    2.97   1.00   P
ST0    5.02   1.00   S
ST1    4.73   1.00   P
ST1    8.04   1.00   S
ST2    11.41   1.00   P
ST2    19.38   1.00   S
ST3    14.50   1.00   S
ST4    5.03   1.00   P
ST4    8.54   1.00   S
ST5    7.92   1.00   P
ST5    13.00   1.00   S
ST6    9.12   1.00   S
ST7    5.52   1.00   P
ST8    11.62   1.00   S
ST9    7.28   1.00   P
ST10   8.67   1.00   P
ST10   14.76   1.00   S
ST11   18.42   1.00   S
ST12   6.84   1.00   P
ST12   11.58   1.00   S
ST13   1.11   1.00   P
ST13   1.94   1.00   S
ST14   4.17   1.00   P
ST15   2.55   1.00   P
ST16   6.56   1.00   S
ST17   3.10   1.00   P
ST17   5.32   1.00   S
ST19   1.20   1.00   P
ST22   6.82   1.00   P
ST23   3.19   1.00   P
ST24   1.42   1.00   P
ST25   3.39   1.00   P
ST26   1.52   1.00   P
ST26   2.64   1.00   S
# 2000 12 13 15 10 1.07 35.8874 -117.7042 5.56 1 0 0 0 159
ST0    8.47   1.00   P
ST0    14.33   1.00   S
ST1    2.71   1.00   P
ST2    7.30   1.00   P
ST2    12.57   1.00   S
ST4    7.22   1.00   P
ST5    4.99   1.00   P
ST6    6.40   1.00   P
ST6    10.83   1.00   S
ST7    4.14   1.00   P
ST7    7.14   1.00   S
ST8    2.43   1.00   P
ST8    4.11   1.00   S
ST10   5.36   1.00   S
ST12   3.48   1.00   S
ST13   10.29   1.00   S
ST14   5.48   1.00   P
ST16   7.71   1.00   P
ST17   8.36   1.00   P
ST18   6.23   1.00   P
ST19   5.72   1.00   P
ST20   1.67   1.00   S
ST21   3.23   1.00   P
ST22   1.19   1.00   P
ST23   3.95   1.00   P
ST23   6.89   1.00   S
ST25   4.15   1.00   P
ST26   7.29   1.00   P
ST26   12.45   1.00   S
# 2000 12 13 15 10 0.95 35.7492 -117.5289 6.02 1 0 0 0 160
ST0    5.33   1.00   P
ST1    3.80   1.00   S
ST2    9.40   1.00   P
ST3    10.26   1.00   S
ST4    5.57   1.00   P
ST5    5.97   1.00   P
ST5    9.84   1.00   S
ST6    4.76   1.00   P
ST6    7.99   1.00   S
ST9    6.21   1.00   P
ST9    10.64   1.00   S
ST10   6.21   1.00   P
ST12   4.44   1.00   P
ST12   7.43   1.00   S
ST14   5.77   1.00   S
ST15   4.79   1.00   S
ST16   5.25   1.00   P
ST16   8.88   1.00   S
ST17   5.25   1.00   P
ST17   8.71   1.00   S
ST18   3.24   1.00   P
ST18   5.48   1.00   S
ST19   2.55   1.00   P
ST19   4.22   1.00   S
ST21   1.84   1.00   P
ST22   4.38   1.00   P
ST22   7.47   1.00   S
ST23   1.47   1.00   P
ST24   4.18   1.00   P
ST25   2.03   1.00   P
ST26   4.12   1.00   P
ST26   6.93   1.00   S
# 2000 12 13 15 10 1.09 35.6836 -117.5338 8.76 1 0 0 0 161
ST0    4.39   1.00   P
ST1    3.22   1.00   P
ST1    5.40   1.00   S
ST3    6.69   1.00   P
ST4    4.51   1.00   P
ST4    7.67   1.00   S
ST5    11.66   1.00   S
ST7    3.81   1.00   P
ST7    6.63   1.00   S
ST9    9.77   1.00   S
ST10   6.93   1.00   P
ST10   11.81   1.00   S
ST11   8.90   1.00   P
ST11   15.32   1.00   S
ST12   5.33   1.00   P
ST12   8.97   1.00   S
ST13   2.37   1.00   P
ST13   4.05   1.00   S
ST14   6.89   1.00   S
ST15   1.94   1.00   P
ST16   4.10   1.00   P
ST17   4.61   1.00   P
ST18   2.28   1.00   P
ST19   1.96   1.00   P
ST20   4.98   1.00   P
ST21   4.35   1.00   S
ST22   5.12   1.00   P
ST22   8.69   1.00   S
ST23   1.92   1.00   P
ST23   3.22   1.00   S
ST24   3.34   1.00   P
ST24   5.75   1.00   S
ST26   3.27   1.00   P
# 2000 12 13 15 10 0.96 35.6709 -117.4801 4.25 1 0 0 0 162
ST0    4.02   1.00   P
ST1    3.80   1.00   P
ST1    6.32   1.00   S
ST2    10.89   1.00   P
ST2    18.34   1.00   S
ST3    7.57   1.00   P
ST3    12.85   1.00   S
ST4    4.93   1.00   P
ST5    7.37   1.00   P
ST5    12.26   1.00   S
ST6    8.91   1.00   S
ST7    4.67   1.00   P
ST7    7.99   1.00   S
ST8    5.79   1.00   P
ST8    9.95   1.00   S
ST9    6.62   1.00   P
ST10   7.79   1.00   P
ST11   9.69   1.00   P
ST12   6.04   1.00   P
ST12   10.10   1.00   S
ST13   1.46   1.00   P
ST13   2.46   1.00   S
ST14   3.97   1.00   P
ST15   1.92   1.00   P
ST16   4.24   1.00   P
ST18   1.80   1.00   P
ST19   1.06   1.00   P
ST20   5.79   1.00   P
ST21   3.18   1.00   P
ST22   5.94   1.00   P
ST22   10.02   1.00   S
ST23   2.17   1.00   P
ST23   3.54   1.00   S
ST25   2.38   1.00   P
ST25   3.92   1.00   S
# 2000 12 13 15 10 0.94 35.9690 -117.7062 4.85 1 0 0 0 163
ST1    3.92   1.00   P
ST2    6.19   1.00   P
ST3    2.00   1.00   P
ST4    8.66   1.00   P
ST5    7.32   1.00   S
ST6    6.66   1.00   P
ST6    11.02   1.00   S
ST8    3.96   1.00   P
ST10   1.92   1.00   P
ST11   4.00   1.00   P
ST12   1.51   1.00   P
ST13   12.03   1.00   S
ST14   6.11   1.00   P
ST16   9.16   1.00   P
ST18   7.50   1.00   P
ST18   12.93   1.00   S
ST19   11.71   1.00   S
ST21   4.55   1.00   P
ST22   1.80   1.00   P
ST23   5.35   1.00   P
ST25   5.59   1.00   P
ST25   9.46   1.00   S
ST26   8.56   1.00   P
# 2000 12 13 15 10 0.95 35.9094 -117.7424 8.40 1 0 0 0 164
ST0    15.18   1.00   S
ST1    3.36   1.00   P
ST1    5.61   1.00   S
ST2    12.13   1.00   S
ST3    2.28   1.00   P
ST4    7.64   1.00   P
ST4    12.99   1.00   S
ST5    5.06   1.00   P
ST5    8.43   1.00   S
ST6    6.87   1.00   P
ST7    4.44   1.00   P
ST7    7.62   1.00   S
ST8    2.81   1.00   P
ST8    4.50   1.00   S
ST9    6.07   1.00   P
ST9    10.15   1.00   S
ST10   2.72   1.00   P
ST11   4.44   1.00   P
ST12   2.30   1.00   P
ST13   6.53   1.00   P
ST14   5.98   1.00   P
ST14   10.08   1.00   S
ST15   5.91   1.00   P
ST15   10.08   1.00   S
ST16   8.16   1.00   P
ST18   6.74   1.00   P
ST18   11.42   1.00   S
ST19   6.26   1.00   P
ST19   10.94   1.00   S
ST20   1.75   1.00   P
ST20   2.76   1.00   S
ST21   3.85   1.00   P
ST21   6.49   1.00   S
ST22   1.72   1.00   P
ST23   4.57   1.00   P
ST25   4.68   1.00   P
# 2000 12 13 15 10 0.99 35.9359 -117.7155 5.39 1 0 0 0 165
ST0    9.25   1.00   P
ST4    8.12   1.00   P
ST5    4.58   1.00   P
ST5    7.70   1.00   S
ST6    6.61   1.00   P
ST8    3.29   1.00   P
ST9    6.76   1.00   P
ST10   2.42   1.00   P
ST11   4.30   1.00   P
ST12   1.62   1.00   P
ST12   2.76   1.00   S
ST13   6.71   1.00   P
ST14   5.87   1.00   P
ST15   6.21   1.00   P
ST16   8.56   1.00   P
ST18   7.07   1.00   P
ST18   12.05   1.00   S
ST19   6.53   1.00   P
ST19   10.98   1.00   S
ST20   1.52   1.00   P
ST21   4.05   1.00   P
ST22   1.22   1.00   P
ST23   4.83   1.00   P
ST24   8.06   1.00   P
ST25   5.02   1.00   P
ST26   8.09   1.00   P
# 2000 12 13 15 10 1.01 35.7566 -117.5584 7.97 1 0 0 0 166
ST1    3.48   1.00   S
ST3    5.64   1.00   P
ST4    9.42   1.00   S
ST5    5.79   1.00   P
ST6    4.95   1.00   P
ST8    4.05   1.00   P
ST9    5.84   1.00   P
ST9    9.85   1.00   S
ST10   5.75   1.00   P
ST10   9.84   1.00   S
ST12   4.14   1.00   P
ST13   5.38   1.00   S
ST14   3.76   1.00   P
ST14   6.34   1.00   S
ST15   2.90   1.00   P
ST15   4.90   1.00   S
ST16   5.35   1.00   P
ST18   3.47   1.00   P
ST18   5.82   1.00   S
ST19   2.86   1.00   P
ST20   3.77   1.00   P
ST22   3.97   1.00   P
ST23   1.63   1.00   P
ST24   4.41   1.00   P
ST24   7.42   1.00   S
ST26   7.51   1.00   S
# 2000 12 13 15 10 0.97 36.0588 -117.8383 3.01 1 0 0 0 167
ST1    6.25   1.00   P
ST2    5.87   1.00   P
ST2    10.03   1.00   S
ST3    2.00   1.00   P
ST4    10.45   1.00   P
ST4    17.86   1.00   S
ST5    5.77   1.00   P
ST5    10.04   1.00   S
ST7    12.55   1.00   S
ST8    5.64   1.00   P
ST8    9.64   1.00   S
ST9    8.53   1.00   P
ST10   3.21   1.00   S
ST11   1.54   1.00   P
ST11   2.83   1.00   S
ST12   4.09   1.00   P
ST12   6.91   1.00   S
ST13   9.46   1.00   P
ST14   8.37   1.00   P
ST14   14.23   1.00   S
ST15   8.86   1.00   P
ST15   15.26   1.00   S
ST16   11.10   1.00   P
ST16   18.97   1.00   S
ST17   11.87   1.00   P
ST17   20.15   1.00   S
ST18   16.60   1.00   S
ST19   9.24   1.00   P
ST20   7.60   1.00   S
ST21   6.82   1.00   P
ST21   11.62   1.00   S
ST22   4.26   1.00   P
ST23   12.92   1.00   S
ST24   10.75   1.00   P
ST25   13.27   1.00   S
ST26   18.34   1.00   S
# 2000 12 13 15 10 0.92 36.0629 -117.8453 3.17 1 0 0 0 168
ST0    12.05   1.00   P
ST1    6.31   1.00   P
ST2    5.78   1.00   P
ST3    2.11   1.00   P
ST3    3.41   1.00   S
ST4    10.52   1.00   P
ST5    5.85   1.00   P
ST5    10.08   1.00   S
ST6    8.98   1.00   P
ST6    15.32   1.00   S
ST7    12.61   1.00   S
ST8    5.66   1.00   P
ST9    8.55   1.00   P
ST10   2.00   1.00   P
ST10   3.40   1.00   S
ST11   1.59   1.00   P
ST12   7.06   1.00   S
ST13   9.51   1.00   P
ST14   8.48   1.00   P
ST16   11.18   1.00   P
ST17   11.91   1.00   P
ST17   20.25   1.00   S
ST18   9.71   1.00   P
ST20   4.56   1.00   P
ST21   6.90   1.00   P
ST21   11.71   1.00   S
ST22   4.31   1.00   P
ST22   7.32   1.00   S
ST23   12.99   1.00   S
ST24   10.80   1.00   P
ST25   13.39   1.00   S
ST26   10.84   1.00   P
ST26   18.43   1.00   S
# 2000 12 13 15 10 0.91 35.7188 -117.5223 5.09 1 0 0 0 169
ST1    2.79   1.00   P
ST2    9.95   1.00   P
ST2    16.68   1.00   S
ST3    6.57   1.00   P
ST3    10.92   1.00   S
ST4    5.24   1.00   P
ST6    5.07   1.00   P
ST6    8.61   1.00   S
ST8    4.84   1.00   P
ST9    6.21   1.00   P
ST9    10.52   1.00   S
ST10   6.72   1.00   P
ST11   8.63   1.00   P
ST11   14.92   1.00   S
ST12   4.95   1.00   P
ST14   3.77   1.00   P
ST14   6.30   1.00   S
ST15   2.31   1.00   P
ST15   3.95   1.00   S
ST16   4.85   1.00   P
ST16   8.08   1.00   S
ST17   4.97   1.00   P
ST18   4.73   1.00   S
ST19   2.14   1.00   P
ST19   3.58   1.00   S
ST20   4.70   1.00   P
ST20   7.87   1.00   S
ST22   4.86   1.00   P
ST22   8.18   1.00   S
ST23   1.42   1.00   P
ST24   3.76   1.00   P
ST25   1.86   1.00   P
ST25   3.05   1.00   S
ST26   3.75   1.00   P
# 2000 12 13 15 10 0.96 35.5806 -117.6209 3.76 1 0 0 0 170
ST0    4.74   1.00   P
ST0    8.17   1.00   S
ST1    4.90   1.00   P
ST1    8.53   1.00   S
ST2    12.07   1.00   P
ST3    13.56   1.00   S
ST4    2.51   1.00   P
ST5    15.13   1.00   S
ST6    7.54   1.00   P
ST7    3.58   1.00   P
ST7    6.34   1.00   S
ST9    4.65   1.00   P
ST10   14.18   1.00   S
ST11   10.03   1.00   P
ST11   17.59   1.00   S
ST12   6.94   1.00   P
ST13   3.90   1.00   P
ST13   6.74   1.00   S
ST14   10.63   1.00   S
ST15   1.74   1.00   P
ST17   5.71   1.00   P
ST18   2.54   1.00   P
ST20   6.26   1.00   P
ST20   10.79   1.00   S
ST21   4.13   1.00   P
ST21   7.15   1.00   S
ST23   3.23   1.00   P
ST23   5.62   1.00   S
ST24   4.35   1.00   P
ST24   7.25   1.00   S
ST25   2.83   1.00   P
ST26   3.76   1.00   P
# 2000 12 13 15 10 0.87 35.6850 -117.4782 0.15 1 0 0 0 171
ST0    7.77   1.00   S
ST1    4.13   1.00   P
ST2    11.18   1.00   P
ST2    18.77   1.00   S
ST3    8.06   1.00   P
ST3    13.54   1.00   S
ST5    7.72   1.00   P
ST6    5.60   1.00   P
ST7    9.03   1.00   S
ST8    6.36   1.00   P
ST8    10.70   1.00   S
ST9    7.28   1.00   P
ST9    12.49   1.00   S
ST11   10.08   1.00   P
ST11   17.45   1.00   S
ST12   6.44   1.00   P
ST13   1.37   1.00   P
ST14   4.30   1.00   P
ST14   7.05   1.00   S
ST15   3.66   1.00   S
ST16   4.90   1.00   P
ST16   8.09   1.00   S
ST17   4.71   1.00   P
ST19   0.93   1.00   P
ST20   6.21   1.00   P
ST21   3.30   1.00   P
ST22   10.77   1.00   S
ST23   3.51   1.00   S
ST25   2.50   1.00   P
ST26   3.06   1.00   P
ST26   5.14   1.00   S
# 2000 12 13 15 10 0.99 35.9160 -117.7099 5.07 1 0 0 0 172
ST0    8.99   1.00   P
ST0    15.10   1.00   S
ST2    6.96   1.00   P
ST3    2.49   1.00   P
ST3    4.19   1.00   S
ST4    7.75   1.00   P
ST4    13.23   1.00   S
ST6    6.50   1.00   P
ST7    4.74   1.00   P
ST8    3.01   1.00   P
ST8    4.96   1.00   S
ST9    6.43   1.00   P
ST9    10.79   1.00   S
ST12   1.78   1.00   P
ST13   6.44   1.00   P
ST14   9.65   1.00   S
ST15   10.25   1.00   S
ST16   8.22   1.00   P
ST16   14.13   1.00   S
ST17   8.85   1.00   P
ST18   6.73   1.00   P
ST19   6.20   1.00   P
ST19   10.66   1.00   S
ST20   1.15   1.00   P
ST20   1.83   1.00   S
ST21   6.33   1.00   S
ST22   1.00   1.00   P
ST23   4.51   1.00   P
ST23   7.73   1.00   S
ST24   13.16   1.00   S
ST25   4.75   1.00   P
ST26   7.70   1.00   P
ST26   13.23   1.00   S
# 2000 12 13 15 10 0.96 35.6754 -117.4826 0.13 1 0 0 0 173
ST0    4.55   1.00   P
ST1    4.23   1.00   P
ST1    7.07   1.00   S
ST2    11.35   1.00   P
ST3    13.74   1.00   S
ST4    9.12   1.00   S
ST5    7.80   1.00   P
ST6    5.71   1.00   P
ST6    9.62   1.00   S
ST7    5.18   1.00   P
ST8    6.38   1.00   P
ST8    10.94   1.00   S
ST9    7.18   1.00   P
ST9    12.40   1.00   S
ST10   8.25   1.00   P
ST10   14.08   1.00   S
ST11   10.22   1.00   P
ST12   10.93   1.00   S
ST14   4.39   1.00   P
ST16   4.67   1.00   P
ST17   4.67   1.00   P
ST17   7.89   1.00   S
ST18   1.74   1.00   P
ST18   2.90   1.00   S
ST19   0.68   1.00   P
ST20   10.69   1.00   S
ST21   3.30   1.00   P
ST22   6.47   1.00   P
ST23   2.17   1.00   P
ST24   2.85   1.00   P
ST24   4.85   1.00   S
ST25   2.45   1.00   P
ST26   2.83   1.00   P
# 2000 12 13 15 10 1.14 35.6664 -117.5264 7.80 1 0 0 0 174
ST0    4.01   1.00   P
ST0    6.84   1.00   S
ST2    17.93   1.00   S
ST3    6.93   1.00   P
ST3    11.74   1.00   S
ST4    7.29   1.00   S
ST5    7.15   1.00   P
ST7    3.89   1.00   P
ST7    6.75   1.00   S
ST8    5.10   1.00   P
ST8    8.75   1.00   S
ST9    5.71   1.00   P
ST10   7.20   1.00   P
ST11   9.09   1.00   P
ST12   5.55   1.00   P
ST12   9.42   1.00   S
ST13   2.18   1.00   P
ST13   3.81   1.00   S
ST14   4.12   1.00   P
ST14   7.03   1.00   S
ST15   1.74   1.00   P
ST15   2.95   1.00   S
ST16   3.78   1.00   P
ST16   6.45   1.00   S
ST17   4.29   1.00   P
ST17   7.68   1.00   S
ST18   3.45   1.00   S
ST19   1.80   1.00   P
ST19   2.98   1.00   S
ST20   5.25   1.00   P
ST21   2.78   1.00   P
ST21   4.84   1.00   S
ST22   5.38   1.00   P
ST22   8.99   1.00   S
ST23   2.01   1.00   P
ST24   3.08   1.00   P
ST25   2.00   1.00   P
ST25   3.52   1.00   S
ST26   4.96   1.00   S
