# 2000 12 13 15 10 1.01 35.6524 -117.4466 6.17 1 0 0 0 26
ST0    3.34   1.00   P
ST1    7.01   1.00   S
ST2    10.99   1.00   P
ST2    18.50   1.00   S
ST3    7.92   1.00   P
ST4    4.83   1.00   P
ST4    8.26   1.00   S
ST5    7.44   1.00   P
ST6    5.02   1.00   P
ST7    4.96   1.00   P
ST8    6.22   1.00   P
ST8    10.52   1.00   S
ST9    6.89   1.00   P
ST9    11.69   1.00   S
ST10   8.07   1.00   P
ST11   9.98   1.00   P
ST11   17.27   1.00   S
ST12   6.25   1.00   P
ST12   10.34   1.00   S
ST13   1.36   1.00   P
ST14   3.82   1.00   P
ST14   6.62   1.00   S
ST15   2.35   1.00   P
ST16   3.99   1.00   P
ST16   6.64   1.00   S
ST17   3.36   1.00   P
ST17   5.69   1.00   S
ST18   1.73   1.00   P
ST19   1.33   1.00   P
ST20   6.09   1.00   P
ST20   10.62   1.00   S
ST21   3.71   1.00   P
ST21   6.16   1.00   S
ST23   4.71   1.00   S
ST24   3.53   1.00   S
ST25   2.96   1.00   P
ST25   5.09   1.00   S
ST26   2.18   1.00   P
# 2000 12 13 15 10 0.97 35.6108 -117.5804 4.62 1 0 0 0 27
ST0    4.35   1.00   P
ST0    7.40   1.00   S
ST1    4.34   1.00   P
ST2    11.59   1.00   P
ST3    7.52   1.00   P
ST4    5.38   1.00   S
ST5    13.94   1.00   S
ST6    6.73   1.00   P
ST6    11.47   1.00   S
ST8    5.42   1.00   P
ST8    9.33   1.00   S
ST9    5.07   1.00   P
ST9    8.79   1.00   S
ST10   7.95   1.00   P
ST12   6.42   1.00   P
ST13   3.14   1.00   P
ST14   5.38   1.00   P
ST14   9.29   1.00   S
ST16   2.95   1.00   P
ST22   6.02   1.00   P
ST23   2.61   1.00   P
ST24   3.81   1.00   P
ST24   6.41   1.00   S
ST25   2.23   1.00   P
ST25   3.78   1.00   S
ST26   3.32   1.00   P
# 2000 12 13 15 10 1.02 35.8844 -117.6965 5.70 1 0 0 0 28
ST0    8.39   1.00   P
ST1    4.44   1.00   S
ST2    7.36   1.00   P
ST2    12.47   1.00   S
ST3    2.95   1.00   P
ST4    7.18   1.00   P
ST5    4.94   1.00   P
ST6    6.32   1.00   P
ST6    10.68   1.00   S
ST7    4.10   1.00   P
ST7    7.23   1.00   S
ST8    2.46   1.00   P
ST8    4.17   1.00   S
ST9    10.14   1.00   S
ST10   3.31   1.00   P
ST11   5.15   1.00   P
ST11   9.05   1.00   S
ST13   5.91   1.00   P
ST14   5.42   1.00   P
ST14   9.27   1.00   S
ST15   5.28   1.00   P
ST15   9.16   1.00   S
ST16   7.66   1.00   P
ST17   8.30   1.00   P
ST18   6.15   1.00   P
ST18   10.54   1.00   S
ST19   5.61   1.00   P
ST19   9.62   1.00   S
ST20   1.05   1.00   P
ST21   3.14   1.00   P
ST21   5.29   1.00   S
ST22   1.19   1.00   P
ST23   3.90   1.00   P
ST23   6.68   1.00   S
ST24   7.23   1.00   P
ST24   12.23   1.00   S
ST25   4.07   1.00   P
ST26   12.25   1.00   S
# 2000 12 13 15 10 0.99 35.8838 -117.6894 6.40 1 0 0 0 29
ST0    8.18   1.00   P
ST0    13.96   1.00   S
ST1    4.11   1.00   S
ST3    3.08   1.00   P
ST4    7.12   1.00   P
ST5    8.14   1.00   S
ST6    6.14   1.00   P
ST7    4.08   1.00   P
ST8    2.54   1.00   P
ST8    4.32   1.00   S
ST9    5.97   1.00   P
ST9    10.11   1.00   S
ST10   3.26   1.00   P
ST11   5.14   1.00   P
ST11   9.06   1.00   S
ST12   2.05   1.00   P
ST13   5.80   1.00   P
ST13   9.72   1.00   S
ST14   5.26   1.00   P
ST14   8.89   1.00   S
ST15   5.16   1.00   P
ST16   12.96   1.00   S
ST17   8.14   1.00   P
ST17   13.78   1.00   S
ST19   9.42   1.00   S
ST20   1.31   1.00   P
ST20   2.07   1.00   S
ST21   5.22   1.00   S
ST23   3.81   1.00   P
ST23   6.54   1.00   S
ST24   11.92   1.00   S
ST25   3.99   1.00   P
ST26   7.08   1.00   P
ST26   11.99   1.00   S
# 2000 12 13 15 10 1.02 35.5729 -117.5937 4.47 1 0 0 0 30
ST0    4.32   1.00   P
ST0    7.31   1.00   S
ST1    4.92   1.00   P
ST2    12.11   1.00   P
ST2    20.80   1.00   S
ST3    7.98   1.00   P
ST4    2.51   1.00   P
ST5    8.92   1.00   P
ST5    15.10   1.00   S
ST6    7.26   1.00   P
ST6    12.37   1.00   S
ST7    3.84   1.00   P
ST7    6.81   1.00   S
ST8    5.78   1.00   P
ST8    10.07   1.00   S
ST9    4.94   1.00   P
ST11   17.62   1.00   S
ST12   11.87   1.00   S
ST13   3.58   1.00   P
ST14   5.96   1.00   P
ST16   3.88   1.00   S
ST17   5.33   1.00   P
ST18   2.21   1.00   P
ST18   3.86   1.00   S
ST19   2.70   1.00   P
ST19   4.74   1.00   S
ST20   10.88   1.00   S
ST21   4.13   1.00   P
ST21   7.15   1.00   S
ST22   6.61   1.00   P
ST23   5.65   1.00   S
ST24   3.98   1.00   P
ST24   6.65   1.00   S
ST25   2.84   1.00   P
ST25   4.88   1.00   S
ST26   3.38   1.00   P
# 2000 12 13 15 10 0.95 35.6732 -117.4830 4.44 1 0 0 0 31
ST0    4.03   1.00   P
ST0    6.54   1.00   S
ST1    3.76   1.00   P
ST1    6.36   1.00   S
ST2    18.17   1.00   S
ST4    4.82   1.00   P
ST4    8.32   1.00   S
ST5    7.28   1.00   P
ST5    12.17   1.00   S
ST6    5.21   1.00   P
ST6    8.77   1.00   S
ST7    4.65   1.00   P
ST7    8.02   1.00   S
ST8    5.79   1.00   P
ST9    11.30   1.00   S
ST10   7.69   1.00   P
ST10   13.13   1.00   S
ST11   16.64   1.00   S
ST12   5.93   1.00   P
ST13   1.51   1.00   P
ST15   3.33   1.00   S
ST17   4.12   1.00   P
ST17   6.82   1.00   S
ST18   1.77   1.00   P
ST18   3.11   1.00   S
ST19   1.10   1.00   P
ST19   1.91   1.00   S
ST21   3.17   1.00   P
ST22   5.88   1.00   P
ST23   2.19   1.00   P
ST23   3.58   1.00   S
ST24   4.57   1.00   S
ST26   2.64   1.00   P
ST26   4.47   1.00   S
# 2000 12 13 15 10 0.99 35.6791 -117.4860 5.04 1 0 0 0 32
ST0    4.06   1.00   P
ST1    3.60   1.00   P
ST1    6.11   1.00   S
ST2    10.53   1.00   P
ST3    7.30   1.00   P
ST3    12.39   1.00   S
ST4    4.92   1.00   P
ST4    8.37   1.00   S
ST5    11.60   1.00   S
ST7    4.51   1.00   P
ST8    9.61   1.00   S
ST9    6.52   1.00   P
ST11   9.42   1.00   P
ST11   16.28   1.00   S
ST13   1.56   1.00   P
ST15   3.57   1.00   S
ST17   4.11   1.00   P
ST17   6.81   1.00   S
ST18   2.02   1.00   P
ST19   2.27   1.00   S
ST20   9.17   1.00   S
ST22   5.68   1.00   P
ST22   9.68   1.00   S
ST23   2.08   1.00   P
ST23   3.53   1.00   S
ST24   4.65   1.00   S
ST26   2.75   1.00   P
# 2000 12 13 15 10 0.89 35.9647 -117.6982 4.89 1 0 0 0 33
ST2    10.52   1.00   S
ST4    14.84   1.00   S
ST5    6.91   1.00   S
ST6    6.57   1.00   P
ST7    5.58   1.00   P
ST7    9.43   1.00   S
ST9    7.28   1.00   P
ST9    12.24   1.00   S
ST10   2.09   1.00   P
ST11   4.10   1.00   P
ST11   7.13   1.00   S
ST12   1.40   1.00   P
ST13   6.98   1.00   P
ST15   6.69   1.00   P
ST15   11.49   1.00   S
ST16   9.09   1.00   P
ST16   15.25   1.00   S
ST18   7.47   1.00   P
ST19   6.84   1.00   P
ST20   3.43   1.00   S
ST21   7.27   1.00   S
ST22   2.79   1.00   S
ST23   5.23   1.00   P
ST23   8.85   1.00   S
ST24   8.33   1.00   P
ST25   5.54   1.00   P
ST26   14.18   1.00   S
# 2000 12 13 15 10 0.92 35.7309 -117.5281 4.98 1 0 0 0 34
ST0    5.24   1.00   P
ST1    2.53   1.00   P
ST1    4.26   1.00   S
ST2    9.74   1.00   P
ST2    16.36   1.00   S
ST3    6.29   1.00   P
ST4    9.06   1.00   S
ST6    5.03   1.00   P
ST7    3.98   1.00   P
ST7    6.78   1.00   S
ST8    4.64   1.00   P
ST8    7.78   1.00   S
ST9    6.03   1.00   P
ST9    10.62   1.00   S
ST10   11.03   1.00   S
ST12   4.75   1.00   P
ST13   2.65   1.00   P
ST14   3.63   1.00   P
ST15   2.48   1.00   P
ST16   4.97   1.00   P
ST17   5.17   1.00   P
ST18   2.97   1.00   P
ST19   2.34   1.00   P
ST20   7.41   1.00   S
ST21   1.92   1.00   P
ST21   3.24   1.00   S
ST22   4.62   1.00   P
ST22   7.75   1.00   S
ST23   1.31   1.00   P
ST24   6.55   1.00   S
ST25   1.81   1.00   P
ST26   3.92   1.00   P
ST26   6.62   1.00   S
# 2000 12 13 15 10 0.95 35.8753 -117.6923 8.44 1 0 0 0 35
ST0    8.17   1.00   P
ST1    2.48   1.00   P
ST3    5.32   1.00   S
ST4    7.00   1.00   P
ST5    8.34   1.00   S
ST6    6.20   1.00   P
ST6    10.44   1.00   S
ST7    6.69   1.00   S
ST8    4.16   1.00   S
ST10   3.44   1.00   P
ST11   5.27   1.00   P
ST12   2.28   1.00   P
ST14   5.24   1.00   P
ST14   8.90   1.00   S
ST15   5.08   1.00   P
ST15   8.63   1.00   S
ST16   7.41   1.00   P
ST17   8.06   1.00   P
ST18   5.91   1.00   P
ST19   5.43   1.00   P
ST19   9.33   1.00   S
ST21   2.91   1.00   P
ST21   4.94   1.00   S
ST22   1.59   1.00   P
ST23   3.68   1.00   P
ST23   6.27   1.00   S
ST24   6.96   1.00   P
ST25   6.80   1.00   S
ST26   6.96   1.00   P
ST26   11.93   1.00   S
# 2000 12 13 15 10 1.02 35.9105 -117.7360 8.13 1 0 0 0 36
ST0    15.04   1.00   S
ST1    3.29   1.00   P
ST2    6.97   1.00   P
ST4    7.50   1.00   P
ST5    4.95   1.00   P
ST5    8.35   1.00   S
ST7    7.59   1.00   S
ST8    2.74   1.00   P
ST8    4.64   1.00   S
ST9    5.99   1.00   P
ST10   2.69   1.00   P
ST10   4.63   1.00   S
ST11   7.80   1.00   S
ST12   3.58   1.00   S
ST13   6.52   1.00   P
ST13   11.08   1.00   S
ST14   5.91   1.00   P
ST15   5.78   1.00   P
ST16   7.99   1.00   P
ST16   13.87   1.00   S
ST17   8.81   1.00   P
ST18   6.63   1.00   P
ST18   11.37   1.00   S
ST19   10.64   1.00   S
ST20   1.64   1.00   P
ST21   3.78   1.00   P
ST22   1.58   1.00   P
ST23   4.49   1.00   P
ST23   7.59   1.00   S
ST24   7.73   1.00   P
ST24   13.20   1.00   S
ST25   7.95   1.00   S
ST26   7.71   1.00   P
ST26   13.01   1.00   S
# 2000 12 13 15 10 1.04 35.7068 -117.5693 6.68 1 0 0 0 37
ST1    2.65   1.00   P
ST1    4.48   1.00   S
ST2    9.87   1.00   P
ST2    16.79   1.00   S
ST4    4.61   1.00   P
ST4    8.09   1.00   S
ST5    6.63   1.00   P
ST5    11.34   1.00   S
ST6    5.49   1.00   P
ST6    9.47   1.00   S
ST7    5.56   1.00   S
ST8    4.12   1.00   P
ST8    7.17   1.00   S
ST9    5.25   1.00   P
ST10   6.34   1.00   P
ST11   8.12   1.00   P
ST12   4.73   1.00   P
ST12   8.18   1.00   S
ST13   2.91   1.00   P
ST15   2.08   1.00   P
ST16   4.52   1.00   P
ST18   4.81   1.00   S
ST19   4.22   1.00   S
ST20   4.27   1.00   P
ST20   7.29   1.00   S
ST21   1.95   1.00   P
ST21   3.38   1.00   S
ST22   7.77   1.00   S
ST23   2.29   1.00   S
ST24   4.10   1.00   P
ST25   1.43   1.00   P
ST25   2.47   1.00   S
ST26   4.04   1.00   P
# 2000 12 13 15 10 1.02 35.6565 -117.4863 5.46 1 0 0 0 38
ST0    3.68   1.00   P
ST0    6.11   1.00   S
ST1    3.91   1.00   P
ST1    6.62   1.00   S
ST2    10.91   1.00   P
ST2    18.38   1.00   S
ST3    7.55   1.00   P
ST4    7.58   1.00   S
ST5    7.40   1.00   P
ST5    12.36   1.00   S
ST7    4.49   1.00   P
ST7    7.84   1.00   S
ST8    5.75   1.00   P
ST8    9.80   1.00   S
ST9    6.29   1.00   P
ST9    10.83   1.00   S
ST10   7.79   1.00   P
ST10   13.19   1.00   S
ST11   9.66   1.00   P
ST11   16.66   1.00   S
ST12   10.23   1.00   S
ST13   1.66   1.00   P
ST13   2.92   1.00   S
ST14   4.09   1.00   P
ST14   6.89   1.00   S
ST17   3.95   1.00   P
ST17   6.61   1.00   S
ST18   1.55   1.00   P
ST18   2.64   1.00   S
ST19   1.18   1.00   P
ST19   1.96   1.00   S
ST20   9.82   1.00   S
ST21   3.28   1.00   P
ST22   5.91   1.00   P
ST23   2.32   1.00   P
ST25   2.39   1.00   P
# 2000 12 13 15 10 0.95 35.7579 -117.5584 5.63 1 0 0 0 39
ST1    1.94   1.00   P
ST2    9.25   1.00   P
ST3    5.63   1.00   P
ST4    5.53   1.00   P
ST5    5.99   1.00   P
ST5    9.83   1.00   S
ST6    5.12   1.00   P
ST6    8.49   1.00   S
ST8    6.85   1.00   S
ST9    5.86   1.00   P
ST11   7.72   1.00   P
ST11   13.37   1.00   S
ST12   4.15   1.00   P
ST13   3.22   1.00   P
ST13   5.52   1.00   S
ST14   6.40   1.00   S
ST16   5.36   1.00   P
ST17   9.59   1.00   S
ST18   3.52   1.00   P
ST18   6.02   1.00   S
ST19   2.96   1.00   P
ST19   4.99   1.00   S
ST20   3.78   1.00   P
ST21   1.45   1.00   P
ST22   6.71   1.00   S
ST23   2.37   1.00   S
ST24   7.62   1.00   S
ST25   3.12   1.00   S
ST26   4.53   1.00   P
# 2000 12 13 15 10 0.92 35.9226 -117.7002 5.11 1 0 0 0 40
ST1    3.11   1.00   P
ST5    4.62   1.00   P
ST6    6.44   1.00   P
ST7    4.70   1.00   P
ST7    8.24   1.00   S
ST9    6.53   1.00   P
ST10   2.71   1.00   P
ST10   4.42   1.00   S
ST11   4.67   1.00   P
ST11   8.19   1.00   S
ST13   6.42   1.00   P
ST13   10.74   1.00   S
ST14   5.65   1.00   P
ST15   10.27   1.00   S
ST16   8.29   1.00   P
ST16   14.24   1.00   S
ST17   8.86   1.00   P
ST18   11.57   1.00   S
ST20   1.36   1.00   P
ST20   2.15   1.00   S
ST22   1.13   1.00   P
ST22   2.06   1.00   S
ST23   7.79   1.00   S
ST25   4.80   1.00   P
ST25   8.17   1.00   S
ST26   7.82   1.00   P
ST26   13.20   1.00   S
# 2000 12 13 15 10 1.01 35.8913 -117.6949 5.51 1 0 0 0 41
ST0    8.47   1.00   P
ST0    14.35   1.00   S
ST1    2.68   1.00   P
ST1    4.38   1.00   S
ST2    7.20   1.00   P
ST2    12.33   1.00   S
ST3    2.94   1.00   P
ST4    12.65   1.00   S
ST5    4.84   1.00   P
ST5    8.06   1.00   S
ST6    6.27   1.00   P
ST6    10.52   1.00   S
ST7    4.28   1.00   P
ST7    7.40   1.00   S
ST9    6.15   1.00   P
ST10   3.21   1.00   P
ST10   5.33   1.00   S
ST11   5.11   1.00   P
ST11   8.90   1.00   S
ST12   1.98   1.00   P
ST12   3.22   1.00   S
ST13   10.22   1.00   S
ST14   5.37   1.00   P
ST14   9.07   1.00   S
ST15   5.42   1.00   P
ST15   9.37   1.00   S
ST16   7.80   1.00   P
ST16   13.37   1.00   S
ST17   8.36   1.00   P
ST18   6.25   1.00   P
ST20   1.00   1.00   P
ST21   5.47   1.00   S
ST23   3.96   1.00   P
ST24   7.22   1.00   P
ST25   4.22   1.00   P
ST25   7.17   1.00   S
ST26   7.28   1.00   P
ST26   12.36   1.00   S
# 2000 12 13 15 10 0.93 35.6799 -117.4926 0.85 1 0 0 0 42
ST2    11.12   1.00   P
ST2    18.66   1.00   S
ST3    7.88   1.00   P
ST4    8.85   1.00   S
ST5    7.68   1.00   P
ST5    12.65   1.00   S
ST7    5.02   1.00   P
ST8    6.12   1.00   P
ST8    10.53   1.00   S
ST9    12.04   1.00   S
ST11   9.99   1.00   P
ST12   6.27   1.00   P
ST12   10.44   1.00   S
ST13   1.49   1.00   P
ST13   2.46   1.00   S
ST14   4.30   1.00   P
ST14   7.19   1.00   S
ST15   2.02   1.00   P
ST16   7.80   1.00   S
ST17   4.80   1.00   P
ST18   1.93   1.00   P
ST18   3.21   1.00   S
ST19   0.93   1.00   P
ST19   1.56   1.00   S
ST20   6.00   1.00   P
ST20   10.20   1.00   S
ST21   3.10   1.00   P
ST21   5.05   1.00   S
ST23   3.13   1.00   S
ST24   3.18   1.00   P
ST25   2.21   1.00   P
ST26   2.99   1.00   P
ST26   5.12   1.00   S
# 2000 12 13 15 10 0.98 35.8818 -117.6857 8.21 1 0 0 0 43
ST0    8.18   1.00   P
ST0    13.74   1.00   S
ST1    4.21   1.00   S
ST3    3.06   1.00   P
ST3    5.15   1.00   S
ST4    12.14   1.00   S
ST5    4.80   1.00   P
ST5    8.00   1.00   S
ST6    6.10   1.00   P
ST7    4.11   1.00   P
ST7    7.04   1.00   S
ST8    2.66   1.00   P
ST10   3.29   1.00   P
ST11   9.02   1.00   S
ST13   5.68   1.00   P
ST13   9.28   1.00   S
ST14   5.25   1.00   P
ST15   5.15   1.00   P
ST16   7.47   1.00   P
ST16   12.85   1.00   S
ST17   13.61   1.00   S
ST18   6.00   1.00   P
ST18   10.12   1.00   S
ST19   5.47   1.00   P
ST19   9.19   1.00   S
ST20   1.55   1.00   P
ST20   2.56   1.00   S
ST21   5.15   1.00   S
ST22   1.63   1.00   P
ST22   2.68   1.00   S
ST23   3.77   1.00   P
ST23   6.41   1.00   S
ST24   6.95   1.00   P
ST24   11.71   1.00   S
ST25   3.98   1.00   P
ST25   6.77   1.00   S
# 2000 12 13 15 10 0.87 35.9514 -117.6816 4.94 1 0 0 0 44
ST0    15.64   1.00   S
ST1    3.43   1.00   P
ST2    6.34   1.00   P
ST3    4.20   1.00   S
ST4    8.47   1.00   P
ST5    6.73   1.00   S
ST6    6.28   1.00   P
ST7    5.39   1.00   P
ST7    8.98   1.00   S
ST8    3.79   1.00   P
ST9    11.95   1.00   S
ST11   4.50   1.00   P
ST12   1.21   1.00   P
ST13   6.64   1.00   P
ST13   11.26   1.00   S
ST14   5.58   1.00   P
ST17   15.06   1.00   S
ST18   7.14   1.00   P
ST19   6.55   1.00   P
ST19   11.05   1.00   S
ST21   4.14   1.00   P
ST21   6.76   1.00   S
ST22   1.51   1.00   P
ST22   2.47   1.00   S
ST23   4.92   1.00   P
ST23   8.24   1.00   S
ST24   8.03   1.00   P
ST24   13.45   1.00   S
ST25   8.77   1.00   S
ST26   8.14   1.00   P
# 2000 12 13 15 10 0.96 35.6668 -117.4799 5.29 1 0 0 0 45
ST0    6.45   1.00   S
ST3    7.55   1.00   P
ST4    4.87   1.00   P
ST4    8.19   1.00   S
ST5    7.32   1.00   P
ST5    12.28   1.00   S
ST6    5.18   1.00   P
ST8    5.86   1.00   P
ST9    6.62   1.00   P
ST10   7.77   1.00   P
ST10   13.10   1.00   S
ST11   9.68   1.00   P
ST13   1.51   1.00   P
ST14   3.93   1.00   P
ST14   6.60   1.00   S
ST15   1.99   1.00   P
ST16   4.10   1.00   P
ST17   4.00   1.00   P
ST18   2.93   1.00   S
ST21   5.48   1.00   S
ST22   5.94   1.00   P
ST23   2.37   1.00   P
ST24   2.60   1.00   P
ST25   2.52   1.00   P
ST26   2.53   1.00   P
ST26   4.19   1.00   S
# 2000 12 13 15 10 0.93 35.6055 -117.5804 4.32 1 0 0 0 46
ST1    4.41   1.00   P
ST2    11.82   1.00   P
ST2    19.89   1.00   S
ST3    7.69   1.00   P
ST3    13.15   1.00   S
ST4    3.25   1.00   P
ST4    5.48   1.00   S
ST5    8.36   1.00   P
ST6    11.50   1.00   S
ST8    5.58   1.00   P
ST9    5.25   1.00   P
ST10   13.77   1.00   S
ST13   3.09   1.00   P
ST16   2.93   1.00   P
ST16   4.89   1.00   S
ST17   5.14   1.00   P
ST18   1.89   1.00   P
ST19   2.22   1.00   P
ST19   3.74   1.00   S
ST20   5.99   1.00   P
ST22   6.22   1.00   P
ST23   2.63   1.00   P
ST23   4.60   1.00   S
ST25   3.96   1.00   S
ST26   3.21   1.00   P
ST26   5.44   1.00   S
# 2000 12 13 15 10 0.91 35.8754 -117.6783 9.24 1 0 0 0 47
ST1    2.47   1.00   P
ST2    7.37   1.00   P
ST3    3.26   1.00   P
ST4    7.08   1.00   P
ST5    8.14   1.00   S
ST6    6.05   1.00   P
ST6    10.05   1.00   S
ST7    4.13   1.00   P
ST8    4.59   1.00   S
ST9    5.93   1.00   P
ST9    9.94   1.00   S
ST11   5.41   1.00   P
ST12   2.22   1.00   P
ST12   3.65   1.00   S
ST13   5.59   1.00   P
ST13   9.49   1.00   S
ST15   5.03   1.00   P
ST15   8.75   1.00   S
ST16   7.44   1.00   P
ST16   12.52   1.00   S
ST17   13.46   1.00   S
ST19   5.31   1.00   P
ST20   2.84   1.00   S
ST21   2.91   1.00   P
ST22   1.81   1.00   P
ST23   3.68   1.00   P
ST24   6.86   1.00   P
ST25   3.90   1.00   P
# 2000 12 13 15 10 0.88 35.7363 -117.5252 3.92 1 0 0 0 48
ST0    5.37   1.00   P
ST0    8.89   1.00   S
ST1    4.10   1.00   S
ST2    16.38   1.00   S
ST3    6.49   1.00   P
ST3    10.91   1.00   S
ST4    5.61   1.00   P
ST4    9.53   1.00   S
ST5    6.33   1.00   P
ST6    4.96   1.00   P
ST6    8.38   1.00   S
ST8    4.86   1.00   P
ST9    10.88   1.00   S
ST11   8.48   1.00   P
ST11   14.70   1.00   S
ST12   4.82   1.00   P
ST13   2.63   1.00   P
ST14   3.71   1.00   P
ST15   2.69   1.00   P
ST15   4.48   1.00   S
ST16   5.23   1.00   P
ST16   8.88   1.00   S
ST17   5.29   1.00   P
ST18   3.12   1.00   P
ST19   3.97   1.00   S
ST21   3.06   1.00   S
ST22   4.76   1.00   P
ST22   8.03   1.00   S
ST23   1.33   1.00   P
ST25   1.93   1.00   P
ST25   2.96   1.00   S
ST26   4.09   1.00   P
# 2000 12 13 15 10 0.99 35.9300 -117.7080 4.73 1 0 0 0 49
ST0    9.18   1.00   P
ST0    15.48   1.00   S
ST1    5.47   1.00   S
ST2    11.56   1.00   S
ST3    3.92   1.00   S
ST4    8.04   1.00   P
ST4    13.71   1.00   S
ST5    4.64   1.00   P
ST5    7.67   1.00   S
ST6    6.53   1.00   P
ST7    4.99   1.00   P
ST7    8.49   1.00   S
ST8    3.25   1.00   P
ST8    5.43   1.00   S
ST9    6.67   1.00   P
ST9    11.11   1.00   S
ST10   2.51   1.00   P
ST14   5.78   1.00   P
ST15   6.19   1.00   P
ST15   10.56   1.00   S
ST16   8.48   1.00   P
ST17   8.98   1.00   P
ST17   15.04   1.00   S
ST18   6.98   1.00   P
ST20   1.33   1.00   P
ST20   2.40   1.00   S
ST21   3.94   1.00   P
ST21   6.63   1.00   S
ST22   1.00   1.00   P
ST24   7.91   1.00   P
ST24   13.34   1.00   S
ST25   4.94   1.00   P
ST25   8.48   1.00   S
ST26   7.97   1.00   P
# 2000 12 13 15 10 0.9 35.5934 -117.5989 4.38 1 0 0 0 50
ST0    7.87   1.00   S
ST1    4.62   1.00   P
ST1    7.98   1.00   S
ST2    11.84   1.00   P
ST3    7.79   1.00   P
ST3    13.14   1.00   S
ST4    2.98   1.00   P
ST4    4.82   1.00   S
ST5    8.64   1.00   P
ST5    14.67   1.00   S
ST6    7.22   1.00   P
ST6    12.17   1.00   S
ST7    3.72   1.00   P
ST7    6.31   1.00   S
ST9    4.98   1.00   P
ST11   9.90   1.00   P
ST11   17.17   1.00   S
ST12   6.71   1.00   P
ST13   3.50   1.00   P
ST13   5.95   1.00   S
ST15   1.27   1.00   P
ST15   2.15   1.00   S
ST16   2.81   1.00   P
ST16   4.68   1.00   S
ST19   4.45   1.00   S
ST20   6.12   1.00   P
ST20   10.43   1.00   S
ST21   3.81   1.00   P
ST22   6.34   1.00   P
ST24   4.10   1.00   P
ST25   2.49   1.00   P
