# 2000 12 13 15 10 0.95 35.9003 -117.6805 5.80 1 0 0 0 125
ST0    8.45   1.00   P
ST1    2.65   1.00   P
ST2    7.08   1.00   P
ST4    7.47   1.00   P
ST5    4.68   1.00   P
ST6    6.10   1.00   P
ST6    10.13   1.00   S
ST7    7.62   1.00   S
ST8    4.76   1.00   S
ST9    6.29   1.00   P
ST10   3.10   1.00   P
ST10   5.25   1.00   S
ST11   5.06   1.00   P
ST12   1.83   1.00   P
ST13   10.06   1.00   S
ST14   5.23   1.00   P
ST14   8.81   1.00   S
ST15   5.46   1.00   P
ST15   9.43   1.00   S
ST16   7.81   1.00   P
ST16   13.48   1.00   S
ST17   8.32   1.00   P
ST19   5.70   1.00   P
ST19   9.88   1.00   S
ST20   1.29   1.00   P
ST21   3.27   1.00   P
ST21   5.35   1.00   S
ST22   1.82   1.00   S
ST23   4.00   1.00   P
ST24   7.27   1.00   P
ST24   12.20   1.00   S
ST26   7.28   1.00   P
# 2000 12 13 15 10 1.1 35.5953 -117.4307 3.89 1 0 0 0 126
ST0    3.90   1.00   S
ST1    5.20   1.00   P
ST1    8.88   1.00   S
ST2    12.07   1.00   P
ST3    8.95   1.00   P
ST4    4.85   1.00   P
ST4    8.08   1.00   S
ST6    5.78   1.00   P
ST8    7.11   1.00   P
ST8    12.28   1.00   S
ST9    7.32   1.00   P
ST10   9.09   1.00   P
ST11   19.08   1.00   S
ST12   7.33   1.00   P
ST12   12.49   1.00   S
ST13   3.16   1.00   S
ST15   2.63   1.00   P
ST15   4.47   1.00   S
ST16   5.84   1.00   S
ST17   2.92   1.00   P
ST17   4.75   1.00   S
ST18   1.46   1.00   P
ST19   2.88   1.00   S
ST21   4.66   1.00   P
ST21   7.97   1.00   S
ST22   12.47   1.00   S
ST23   6.36   1.00   S
ST24   2.11   1.00   S
ST25   3.80   1.00   P
ST25   6.49   1.00   S
# 2000 12 13 15 10 0.95 35.8893 -117.6806 8.08 1 0 0 0 127
ST1    2.56   1.00   P
ST1    4.23   1.00   S
ST2    12.11   1.00   S
ST3    3.06   1.00   P
ST4    7.27   1.00   P
ST4    12.49   1.00   S
ST5    4.67   1.00   P
ST5    7.90   1.00   S
ST6    6.00   1.00   P
ST7    4.32   1.00   P
ST7    7.35   1.00   S
ST9    6.14   1.00   P
ST9    10.34   1.00   S
ST10   3.25   1.00   P
ST10   5.47   1.00   S
ST11   5.14   1.00   P
ST12   1.99   1.00   P
ST13   9.71   1.00   S
ST14   5.06   1.00   P
ST14   8.63   1.00   S
ST15   5.26   1.00   P
ST15   9.06   1.00   S
ST17   8.13   1.00   P
ST18   6.15   1.00   P
ST18   10.13   1.00   S
ST19   5.52   1.00   P
ST19   9.36   1.00   S
ST20   1.58   1.00   P
ST20   2.59   1.00   S
ST21   5.29   1.00   S
ST24   7.03   1.00   P
ST25   4.10   1.00   P
ST26   7.05   1.00   P
ST26   11.96   1.00   S
# 2000 12 13 15 10 0.94 35.9405 -117.6668 3.61 1 0 0 0 128
ST0    9.11   1.00   P
ST0    15.27   1.00   S
ST1    3.26   1.00   P
ST2    6.55   1.00   P
ST2    11.12   1.00   S
ST4    8.40   1.00   P
ST5    4.16   1.00   P
ST6    6.17   1.00   P
ST7    5.34   1.00   P
ST8    3.83   1.00   P
ST9    7.16   1.00   P
ST11   4.84   1.00   P
ST13   6.49   1.00   P
ST13   10.97   1.00   S
ST14   5.44   1.00   P
ST15   6.25   1.00   P
ST17   8.87   1.00   P
ST17   14.87   1.00   S
ST18   6.99   1.00   P
ST18   11.84   1.00   S
ST19   6.39   1.00   P
ST19   10.93   1.00   S
ST20   1.72   1.00   P
ST20   2.68   1.00   S
ST21   3.98   1.00   P
ST22   2.12   1.00   S
ST23   4.76   1.00   P
ST24   13.19   1.00   S
ST26   7.98   1.00   P
ST26   13.52   1.00   S
# 2000 12 13 15 10 0.83 35.7239 -117.5153 4.38 1 0 0 0 129
ST1    2.72   1.00   P
ST1    4.60   1.00   S
ST2    9.91   1.00   P
ST3    6.56   1.00   P
ST3    11.05   1.00   S
ST5    6.48   1.00   P
ST7    4.19   1.00   P
ST7    7.14   1.00   S
ST8    4.92   1.00   P
ST8    8.30   1.00   S
ST9    6.24   1.00   P
ST9    10.83   1.00   S
ST10   6.73   1.00   P
ST11   8.63   1.00   P
ST14   6.10   1.00   S
ST15   2.55   1.00   P
ST15   4.04   1.00   S
ST16   5.01   1.00   P
ST16   8.29   1.00   S
ST18   2.94   1.00   P
ST20   4.71   1.00   P
ST22   4.87   1.00   P
ST24   3.86   1.00   P
ST24   6.28   1.00   S
ST25   2.04   1.00   P
ST26   3.88   1.00   P
ST26   6.39   1.00   S
# 2000 12 13 15 10 0.92 35.5610 -117.3053 5.00 1 0 0 0 130
ST0    1.78   1.00   P
ST0    2.82   1.00   S
ST1    6.66   1.00   P
ST2    13.03   1.00   P
ST3    10.42   1.00   P
ST3    17.52   1.00   S
ST4    6.12   1.00   P
ST4    10.23   1.00   S
ST5    9.36   1.00   P
ST5    15.49   1.00   S
ST6    6.28   1.00   P
ST6    10.68   1.00   S
ST7    7.37   1.00   P
ST7    12.37   1.00   S
ST8    14.70   1.00   S
ST9    8.93   1.00   P
ST9    15.14   1.00   S
ST11   12.45   1.00   P
ST12   8.64   1.00   P
ST13   3.20   1.00   P
ST14   5.29   1.00   P
ST15   4.42   1.00   P
ST16   4.43   1.00   P
ST16   7.63   1.00   S
ST18   5.58   1.00   S
ST19   3.51   1.00   P
ST20   8.55   1.00   P
ST20   14.49   1.00   S
ST21   6.19   1.00   P
ST22   8.75   1.00   P
ST22   14.62   1.00   S
ST23   5.29   1.00   P
ST23   8.75   1.00   S
ST24   1.92   1.00   P
ST25   5.48   1.00   P
ST26   2.37   1.00   P
ST26   3.75   1.00   S
# 2000 12 13 15 10 0.89 35.7107 -117.4991 4.86 1 0 0 0 131
ST0    7.85   1.00   S
ST1    3.12   1.00   P
ST1    5.16   1.00   S
ST3    6.94   1.00   P
ST3    11.79   1.00   S
ST5    6.67   1.00   P
ST5    10.94   1.00   S
ST6    4.96   1.00   P
ST6    8.34   1.00   S
ST7    4.41   1.00   P
ST8    9.07   1.00   S
ST10   7.07   1.00   P
ST10   11.91   1.00   S
ST11   8.99   1.00   P
ST12   5.29   1.00   P
ST12   8.79   1.00   S
ST13   2.08   1.00   P
ST13   3.43   1.00   S
ST14   3.61   1.00   P
ST15   2.38   1.00   P
ST15   4.03   1.00   S
ST16   4.73   1.00   P
ST16   7.86   1.00   S
ST17   4.69   1.00   P
ST18   4.26   1.00   S
ST19   1.79   1.00   P
ST19   2.96   1.00   S
ST21   2.53   1.00   P
ST22   8.84   1.00   S
ST23   1.71   1.00   P
ST23   2.77   1.00   S
ST24   3.45   1.00   P
ST24   5.69   1.00   S
ST25   2.15   1.00   P
ST25   3.61   1.00   S
# 2000 12 13 15 10 1.03 35.8994 -117.7198 7.22 1 0 0 0 132
ST1    2.99   1.00   P
ST1    5.01   1.00   S
ST2    7.05   1.00   P
ST2    12.13   1.00   S
ST5    8.21   1.00   S
ST6    6.52   1.00   P
ST6    11.01   1.00   S
ST7    4.20   1.00   P
ST8    2.57   1.00   P
ST8    4.32   1.00   S
ST9    5.91   1.00   P
ST10   2.88   1.00   P
ST11   4.74   1.00   P
ST12   2.10   1.00   P
ST13   10.55   1.00   S
ST14   5.65   1.00   P
ST15   5.51   1.00   P
ST16   7.88   1.00   P
ST16   13.48   1.00   S
ST17   8.55   1.00   P
ST17   14.52   1.00   S
ST20   1.43   1.00   P
ST20   2.38   1.00   S
ST22   2.41   1.00   S
ST23   4.17   1.00   P
ST23   7.15   1.00   S
ST24   7.45   1.00   P
ST24   12.62   1.00   S
ST25   4.33   1.00   P
ST26   7.44   1.00   P
ST26   12.56   1.00   S
# 2000 12 13 15 10 1.05 35.6237 -117.4162 4.64 1 0 0 0 133
ST0    2.58   1.00   P
ST0    4.38   1.00   S
ST2    19.69   1.00   S
ST4    4.97   1.00   P
ST5    8.08   1.00   P
ST5    13.38   1.00   S
ST6    5.40   1.00   P
ST7    9.78   1.00   S
ST8    6.93   1.00   P
ST9    7.41   1.00   P
ST10   8.78   1.00   P
ST11   10.76   1.00   P
ST11   18.62   1.00   S
ST14   4.19   1.00   P
ST15   4.55   1.00   S
ST16   3.79   1.00   P
ST17   2.78   1.00   P
ST17   4.59   1.00   S
ST18   1.72   1.00   P
ST19   1.58   1.00   P
ST20   6.97   1.00   P
ST20   11.54   1.00   S
ST21   4.48   1.00   P
ST22   7.04   1.00   P
ST24   2.23   1.00   S
ST25   3.67   1.00   P
ST25   6.35   1.00   S
ST26   1.38   1.00   P
# 2000 12 13 15 10 0.93 36.0575 -117.8276 2.19 1 0 0 0 134
ST0    11.87   1.00   P
ST2    6.00   1.00   P
ST3    1.97   1.00   P
ST4    10.52   1.00   P
ST4    17.92   1.00   S
ST6    8.97   1.00   P
ST7    7.30   1.00   P
ST8    5.65   1.00   P
ST8    9.67   1.00   S
ST9    8.59   1.00   P
ST11   1.69   1.00   P
ST12   4.18   1.00   P
ST12   6.89   1.00   S
ST14   8.48   1.00   P
ST14   14.21   1.00   S
ST15   8.91   1.00   P
ST17   20.23   1.00   S
ST18   16.59   1.00   S
ST19   9.28   1.00   P
ST20   4.58   1.00   P
ST21   11.72   1.00   S
ST22   4.25   1.00   P
ST22   7.19   1.00   S
ST23   7.63   1.00   P
ST24   18.40   1.00   S
ST25   7.69   1.00   P
ST25   13.33   1.00   S
ST26   10.86   1.00   P
ST26   18.31   1.00   S
# 2000 12 13 15 10 1.07 35.6233 -117.4381 6.79 1 0 0 0 135
ST0    4.77   1.00   S
ST1    4.59   1.00   P
ST2    11.44   1.00   P
ST3    8.30   1.00   P
ST4    4.64   1.00   P
ST4    7.87   1.00   S
ST6    9.13   1.00   S
ST7    5.25   1.00   P
ST8    6.49   1.00   P
ST8    11.12   1.00   S
ST9    6.96   1.00   P
ST9    11.76   1.00   S
ST10   8.42   1.00   P
ST10   14.37   1.00   S
ST11   10.35   1.00   P
ST11   17.93   1.00   S
ST12   6.65   1.00   P
ST13   2.74   1.00   S
ST14   7.06   1.00   S
ST15   3.96   1.00   S
ST16   3.58   1.00   P
ST16   6.07   1.00   S
ST17   3.04   1.00   P
ST17   5.19   1.00   S
ST19   1.46   1.00   P
ST20   6.48   1.00   P
ST20   11.03   1.00   S
ST21   4.07   1.00   P
ST25   5.43   1.00   S
ST26   1.72   1.00   P
# 2000 12 13 15 10 1.02 35.5699 -117.5964 4.83 1 0 0 0 136
ST1    4.97   1.00   P
ST2    12.18   1.00   P
ST2    20.86   1.00   S
ST3    8.02   1.00   P
ST4    2.50   1.00   P
ST5    8.94   1.00   P
ST6    12.38   1.00   S
ST7    3.88   1.00   P
ST8    5.87   1.00   P
ST8    10.06   1.00   S
ST10   8.48   1.00   P
ST11   10.11   1.00   P
ST12   6.99   1.00   P
ST12   11.96   1.00   S
ST13   3.65   1.00   P
ST13   6.16   1.00   S
ST14   6.04   1.00   P
ST14   10.17   1.00   S
ST15   1.68   1.00   P
ST15   2.89   1.00   S
ST16   3.86   1.00   S
ST17   5.30   1.00   P
ST17   9.11   1.00   S
ST19   2.81   1.00   P
ST20   10.97   1.00   S
ST21   4.12   1.00   P
ST21   7.22   1.00   S
ST22   11.23   1.00   S
ST23   5.67   1.00   S
ST24   3.98   1.00   P
ST25   2.89   1.00   P
ST25   5.02   1.00   S
ST26   3.39   1.00   P
ST26   5.88   1.00   S
# 2000 12 13 15 10 1.06 35.6001 -117.4263 5.79 1 0 0 0 137
ST0    2.40   1.00   P
ST0    3.91   1.00   S
ST1    8.62   1.00   S
ST3    14.90   1.00   S
ST4    4.60   1.00   P
ST4    7.79   1.00   S
ST5    8.35   1.00   P
ST5    13.85   1.00   S
ST6    5.69   1.00   P
ST7    5.61   1.00   P
ST7    9.67   1.00   S
ST8    11.86   1.00   S
ST9    7.18   1.00   P
ST10   8.97   1.00   P
ST10   15.00   1.00   S
ST11   10.85   1.00   P
ST11   18.69   1.00   S
ST13   3.16   1.00   S
ST14   4.47   1.00   P
ST14   7.64   1.00   S
ST15   2.61   1.00   P
ST16   3.32   1.00   P
ST17   2.86   1.00   P
ST17   4.93   1.00   S
ST18   1.55   1.00   P
ST19   1.77   1.00   P
ST19   2.97   1.00   S
ST20   6.98   1.00   P
ST20   11.86   1.00   S
ST21   4.50   1.00   P
ST21   7.68   1.00   S
ST22   7.12   1.00   P
ST23   3.57   1.00   P
ST24   2.53   1.00   S
ST25   6.22   1.00   S
ST26   1.22   1.00   P
# 2000 12 13 15 10 1.1 35.8355 -117.6491 6.24 1 0 0 0 138
ST0    7.32   1.00   P
ST0    12.46   1.00   S
ST2    7.91   1.00   P
ST3    6.60   1.00   S
ST4    6.33   1.00   P
ST4    11.17   1.00   S
ST5    5.19   1.00   P
ST6    5.66   1.00   P
ST6    9.62   1.00   S
ST8    2.57   1.00   P
ST8    4.40   1.00   S
ST9    5.59   1.00   P
ST9    9.69   1.00   S
ST10   7.08   1.00   S
ST11   10.71   1.00   S
ST12   2.60   1.00   P
ST13   8.52   1.00   S
ST15   4.26   1.00   P
ST20   3.28   1.00   S
ST21   1.99   1.00   P
ST22   2.17   1.00   P
ST23   2.80   1.00   P
ST24   6.10   1.00   P
ST24   10.53   1.00   S
ST25   3.04   1.00   P
# 2000 12 13 15 10 1.04 35.6273 -117.4179 6.41 1 0 0 0 139
ST0    2.68   1.00   P
ST1    4.78   1.00   P
ST2    11.59   1.00   P
ST3    8.51   1.00   P
ST4    4.87   1.00   P
ST4    8.28   1.00   S
ST5    7.92   1.00   P
ST5    13.33   1.00   S
ST6    5.28   1.00   P
ST7    5.51   1.00   P
ST7    9.43   1.00   S
ST8    6.85   1.00   P
ST9    12.36   1.00   S
ST10   8.66   1.00   P
ST11   10.51   1.00   P
ST11   18.21   1.00   S
ST12   11.50   1.00   S
ST14   4.10   1.00   P
ST14   6.88   1.00   S
ST15   2.63   1.00   P
ST17   2.86   1.00   P
ST18   1.81   1.00   P
ST18   3.15   1.00   S
ST19   2.77   1.00   S
ST21   7.11   1.00   S
ST23   5.66   1.00   S
ST24   1.59   1.00   P
ST24   2.69   1.00   S
ST25   3.49   1.00   P
ST26   1.64   1.00   P
# 2000 12 13 15 10 0.97 35.8902 -117.6813 8.26 1 0 0 0 140
ST0    8.29   1.00   P
ST1    2.61   1.00   P
ST2    7.09   1.00   P
ST3    3.00   1.00   P
ST4    7.26   1.00   P
ST4    12.27   1.00   S
ST5    4.72   1.00   P
ST6    6.02   1.00   P
ST6    10.16   1.00   S
ST8    2.81   1.00   P
ST8    4.70   1.00   S
ST10   3.19   1.00   P
ST11   5.11   1.00   P
ST12   1.97   1.00   P
ST12   3.29   1.00   S
ST13   5.74   1.00   P
ST15   9.00   1.00   S
ST17   8.18   1.00   P
ST18   6.08   1.00   P
ST18   10.35   1.00   S
ST19   5.50   1.00   P
ST20   2.58   1.00   S
ST21   5.12   1.00   S
ST22   1.58   1.00   P
ST23   3.88   1.00   P
ST23   6.68   1.00   S
ST24   6.98   1.00   P
# 2000 12 13 15 10 0.95 35.7225 -117.5448 5.27 1 0 0 0 141
ST0    5.17   1.00   P
ST0    8.57   1.00   S
ST1    4.24   1.00   S
ST2    9.85   1.00   P
ST4    5.05   1.00   P
ST4    8.67   1.00   S
ST5    10.85   1.00   S
ST6    5.23   1.00   P
ST6    8.89   1.00   S
ST7    3.63   1.00   P
ST7    6.32   1.00   S
ST8    4.45   1.00   P
ST8    7.56   1.00   S
ST9    9.91   1.00   S
ST10   6.44   1.00   P
ST10   10.83   1.00   S
ST12   4.77   1.00   P
ST12   8.04   1.00   S
ST13   2.70   1.00   P
ST14   3.85   1.00   P
ST15   2.29   1.00   P
ST16   4.75   1.00   P
ST17   5.26   1.00   P
ST18   2.92   1.00   P
ST19   2.35   1.00   P
ST20   4.40   1.00   P
ST20   7.62   1.00   S
ST22   4.55   1.00   P
ST23   1.28   1.00   P
ST24   3.99   1.00   P
ST24   6.67   1.00   S
ST25   2.72   1.00   S
ST26   6.56   1.00   S
# 2000 12 13 15 10 0.89 35.6544 -117.4681 1.23 1 0 0 0 142
ST0    6.44   1.00   S
ST1    4.55   1.00   P
ST2    11.51   1.00   P
ST4    5.16   1.00   P
ST5    7.97   1.00   P
ST6    5.62   1.00   P
ST7    5.34   1.00   P
ST7    9.10   1.00   S
ST9    7.20   1.00   P
ST9    12.44   1.00   S
ST10   8.52   1.00   P
ST11   10.33   1.00   P
ST11   17.81   1.00   S
ST12   6.69   1.00   P
ST13   1.12   1.00   P
ST13   1.80   1.00   S
ST14   4.36   1.00   P
ST15   2.13   1.00   P
ST15   3.57   1.00   S
ST16   4.28   1.00   P
ST17   4.01   1.00   P
ST17   6.68   1.00   S
ST18   1.45   1.00   P
ST21   3.85   1.00   P
ST21   6.44   1.00   S
ST22   6.66   1.00   P
ST22   11.30   1.00   S
ST23   2.74   1.00   P
ST23   4.51   1.00   S
ST24   3.68   1.00   S
ST25   3.03   1.00   P
ST25   4.88   1.00   S
# 2000 12 13 15 10 1.03 35.7056 -117.5833 6.85 1 0 0 0 143
ST0    5.17   1.00   P
ST0    8.58   1.00   S
ST1    2.66   1.00   P
ST4    7.84   1.00   S
ST5    11.34   1.00   S
ST6    5.64   1.00   P
ST6    9.64   1.00   S
ST8    4.09   1.00   P
ST9    5.13   1.00   P
ST10   6.33   1.00   P
ST10   10.65   1.00   S
ST11   8.17   1.00   P
ST11   14.27   1.00   S
ST12   4.76   1.00   P
ST12   8.23   1.00   S
ST13   2.99   1.00   P
ST14   4.31   1.00   P
ST15   2.04   1.00   P
ST15   3.55   1.00   S
ST16   7.62   1.00   S
ST17   5.45   1.00   P
ST18   2.91   1.00   P
ST18   4.96   1.00   S
ST19   2.49   1.00   P
ST20   4.29   1.00   P
ST21   2.04   1.00   P
ST22   4.47   1.00   P
ST22   7.69   1.00   S
ST23   1.46   1.00   P
ST25   1.38   1.00   P
ST25   2.36   1.00   S
ST26   3.98   1.00   P
# 2000 12 13 15 10 1.05 35.9119 -117.7028 8.19 1 0 0 0 144
ST0    8.68   1.00   P
ST1    2.94   1.00   P
ST2    6.85   1.00   P
ST2    11.78   1.00   S
ST3    4.25   1.00   S
ST5    4.62   1.00   P
ST5    7.75   1.00   S
ST7    7.73   1.00   S
ST8    2.90   1.00   P
ST8    4.90   1.00   S
ST11   4.57   1.00   P
ST12   3.17   1.00   S
ST13   10.54   1.00   S
ST14   5.54   1.00   P
ST14   9.32   1.00   S
ST15   5.65   1.00   P
ST16   7.96   1.00   P
ST16   13.56   1.00   S
ST17   14.41   1.00   S
ST18   6.47   1.00   P
ST18   11.08   1.00   S
ST19   5.88   1.00   P
ST20   2.69   1.00   S
ST21   3.61   1.00   P
ST23   4.28   1.00   P
ST25   7.72   1.00   S
# 2000 12 13 15 10 1.03 35.7129 -117.5721 7.57 1 0 0 0 145
ST0    8.57   1.00   S
ST1    2.56   1.00   P
ST1    4.50   1.00   S
ST2    9.84   1.00   P
ST3    5.91   1.00   P
ST4    4.71   1.00   P
ST5    11.08   1.00   S
ST6    9.20   1.00   S
ST7    5.59   1.00   S
ST8    7.16   1.00   S
ST10   6.27   1.00   P
ST10   10.62   1.00   S
ST11   8.16   1.00   P
ST12   4.72   1.00   P
ST12   7.95   1.00   S
ST13   2.90   1.00   P
ST13   5.01   1.00   S
ST14   4.15   1.00   P
ST15   2.21   1.00   P
ST15   3.77   1.00   S
ST16   4.52   1.00   P
ST17   5.29   1.00   P
ST17   9.05   1.00   S
ST18   4.87   1.00   S
ST19   4.17   1.00   S
ST20   4.29   1.00   P
ST21   2.00   1.00   P
ST22   4.47   1.00   P
ST22   7.63   1.00   S
ST23   1.41   1.00   P
ST23   2.45   1.00   S
ST24   4.01   1.00   P
ST25   1.43   1.00   P
ST25   2.63   1.00   S
ST26   3.96   1.00   P
ST26   6.66   1.00   S
# 2000 12 13 15 10 0.97 35.9264 -117.7263 5.32 1 0 0 0 146
ST0    9.22   1.00   P
ST0    15.54   1.00   S
ST1    5.83   1.00   S
ST2    6.84   1.00   P
ST2    11.66   1.00   S
ST3    2.24   1.00   P
ST3    3.77   1.00   S
ST4    7.95   1.00   P
ST4    13.60   1.00   S
ST5    4.76   1.00   P
ST5    8.01   1.00   S
ST6    11.23   1.00   S
ST7    8.38   1.00   S
ST9    11.06   1.00   S
ST10   4.14   1.00   S
ST11   4.42   1.00   P
ST12   1.85   1.00   P
ST14   5.92   1.00   P
ST15   6.15   1.00   P
ST15   10.48   1.00   S
ST16   8.50   1.00   P
ST16   14.40   1.00   S
ST17   15.38   1.00   S
ST18   6.95   1.00   P
ST19   6.50   1.00   P
ST19   10.93   1.00   S
ST20   1.48   1.00   P
ST20   2.61   1.00   S
ST21   3.96   1.00   P
ST21   6.83   1.00   S
ST22   1.28   1.00   P
ST22   2.05   1.00   S
ST24   13.46   1.00   S
ST25   8.42   1.00   S
ST26   13.56   1.00   S
# 2000 12 13 15 10 1.03 35.6123 -117.4615 3.73 1 0 0 0 147
ST0    2.90   1.00   P
ST1    8.13   1.00   S
ST2    11.84   1.00   P
ST3    8.52   1.00   P
ST4    4.46   1.00   P
ST5    8.24   1.00   P
ST7    5.28   1.00   P
ST7    9.18   1.00   S
ST8    6.67   1.00   P
ST9    11.81   1.00   S
ST10   8.76   1.00   P
ST11   10.62   1.00   P
ST12   7.12   1.00   P
ST12   11.84   1.00   S
ST13   2.79   1.00   S
ST14   7.78   1.00   S
ST15   2.06   1.00   P
ST15   3.46   1.00   S
ST16   3.40   1.00   P
ST16   5.64   1.00   S
ST19   1.20   1.00   P
ST20   6.75   1.00   P
ST21   4.19   1.00   P
ST22   6.92   1.00   P
ST23   3.19   1.00   P
ST23   5.35   1.00   S
ST24   1.79   1.00   P
ST26   2.52   1.00   S
# 2000 12 13 15 10 0.96 35.9005 -117.6954 7.62 1 0 0 0 148
ST0    8.51   1.00   P
ST1    2.82   1.00   P
ST1    4.68   1.00   S
ST2    7.04   1.00   P
ST4    7.44   1.00   P
ST6    6.24   1.00   P
ST6    10.56   1.00   S
ST7    4.35   1.00   P
ST8    2.70   1.00   P
ST8    4.70   1.00   S
ST9    6.06   1.00   P
ST9    10.36   1.00   S
ST10   3.01   1.00   P
ST11   4.87   1.00   P
ST12   3.20   1.00   S
ST13   5.98   1.00   P
ST13   10.04   1.00   S
ST14   5.44   1.00   P
ST14   9.11   1.00   S
ST15   5.51   1.00   P
ST15   9.40   1.00   S
ST16   7.84   1.00   P
ST16   13.30   1.00   S
ST17   14.25   1.00   S
ST19   5.81   1.00   P
ST19   9.83   1.00   S
ST20   1.47   1.00   P
ST20   2.33   1.00   S
ST21   3.38   1.00   P
ST22   1.49   1.00   P
ST22   2.41   1.00   S
ST25   4.29   1.00   P
ST26   7.34   1.00   P
# 2000 12 13 15 10 0.97 35.6782 -117.4788 4.29 1 0 0 0 149
ST0    4.06   1.00   P
ST0    6.66   1.00   S
ST1    3.82   1.00   P
ST1    6.27   1.00   S
ST2    10.80   1.00   P
ST2    18.09   1.00   S
ST3    7.57   1.00   P
ST3    12.86   1.00   S
ST5    12.04   1.00   S
ST6    8.63   1.00   S
ST7    4.69   1.00   P
ST8    5.79   1.00   P
ST9    6.66   1.00   P
ST10   7.74   1.00   P
ST10   13.03   1.00   S
ST11   9.63   1.00   P
ST11   16.63   1.00   S
ST13   1.39   1.00   P
ST13   2.30   1.00   S
ST14   3.85   1.00   P
ST15   3.48   1.00   S
ST16   4.29   1.00   P
ST17   6.95   1.00   S
ST18   1.82   1.00   P
ST20   9.68   1.00   S
ST21   3.17   1.00   P
ST23   3.66   1.00   S
ST24   2.68   1.00   P
ST24   4.55   1.00   S
ST25   4.06   1.00   S
ST26   2.65   1.00   P
