# 2000 12 13 15 10 0.91 35.9690 -117.6770 4.41 1 0 0 0 1
ST0    9.58   1.00   P
ST0    16.04   1.00   S
ST1    3.69   1.00   P
ST1    6.08   1.00   S
ST2    6.05   1.00   P
ST2    10.33   1.00   S
ST3    2.50   1.00   P
ST3    4.07   1.00   S
ST4    8.78   1.00   P
ST4    14.89   1.00   S
ST6    6.34   1.00   P
ST7    9.62   1.00   S
ST8    4.15   1.00   P
ST8    6.82   1.00   S
ST10   3.70   1.00   S
ST11   7.41   1.00   S
ST13   6.91   1.00   P
ST13   11.60   1.00   S
ST14   9.44   1.00   S
ST15   6.63   1.00   P
ST16   9.08   1.00   P
ST16   15.35   1.00   S
ST17   9.23   1.00   P
ST18   12.60   1.00   S
ST19   11.43   1.00   S
ST20   2.22   1.00   P
ST22   2.87   1.00   S
ST23   8.72   1.00   S
ST24   13.96   1.00   S
ST26   8.41   1.00   P
ST26   14.08   1.00   S
# 2000 12 13 15 10 0.84 36.0692 -117.8296 2.02 1 0 0 0 2
ST0    20.83   1.00   S
ST1    6.51   1.00   P
ST1    11.07   1.00   S
ST2    5.81   1.00   P
ST2    9.79   1.00   S
ST4    10.78   1.00   P
ST4    18.32   1.00   S
ST5    10.14   1.00   S
ST6    8.98   1.00   P
ST8    5.91   1.00   P
ST9    15.13   1.00   S
ST11   2.41   1.00   S
ST12   4.20   1.00   P
ST12   7.22   1.00   S
ST13   9.69   1.00   P
ST14   8.58   1.00   P
ST16   11.42   1.00   P
ST16   19.52   1.00   S
ST17   12.12   1.00   P
ST18   9.93   1.00   P
ST18   16.99   1.00   S
ST19   9.48   1.00   P
ST19   16.22   1.00   S
ST20   4.71   1.00   P
ST20   8.13   1.00   S
ST21   7.06   1.00   P
ST21   12.07   1.00   S
ST22   4.50   1.00   P
ST23   13.35   1.00   S
ST24   11.04   1.00   P
ST24   18.53   1.00   S
ST25   7.93   1.00   P
ST26   11.03   1.00   P
# 2000 12 13 15 10 0.98 35.9043 -117.7180 6.57 1 0 0 0 3
ST0    8.72   1.00   P
ST2    6.99   1.00   P
ST2    12.04   1.00   S
ST3    2.54   1.00   P
ST3    4.19   1.00   S
ST4    12.86   1.00   S
ST5    4.86   1.00   P
ST5    7.93   1.00   S
ST8    2.73   1.00   P
ST10   2.88   1.00   P
ST11   4.68   1.00   P
ST12   2.02   1.00   P
ST13   6.29   1.00   P
ST13   10.55   1.00   S
ST14   5.62   1.00   P
ST14   9.61   1.00   S
ST15   9.63   1.00   S
ST16   7.95   1.00   P
ST17   8.68   1.00   P
ST19   10.24   1.00   S
ST20   2.17   1.00   S
ST21   3.48   1.00   P
ST22   1.32   1.00   P
ST22   2.19   1.00   S
ST23   4.27   1.00   P
ST24   7.48   1.00   P
ST24   12.78   1.00   S
ST25   7.77   1.00   S
ST26   7.59   1.00   P
# 2000 12 13 15 10 0.99 35.9058 -117.7113 6.22 1 0 0 0 4
ST1    3.00   1.00   P
ST4    12.87   1.00   S
ST5    4.81   1.00   P
ST5    8.01   1.00   S
ST6    6.47   1.00   P
ST6    11.00   1.00   S
ST7    7.55   1.00   S
ST8    2.77   1.00   P
ST10   2.83   1.00   P
ST11   4.71   1.00   P
ST14   5.61   1.00   P
ST14   9.48   1.00   S
ST15   5.69   1.00   P
ST15   9.73   1.00   S
ST17   8.61   1.00   P
ST17   14.59   1.00   S
ST18   6.46   1.00   P
ST18   11.15   1.00   S
ST19   10.16   1.00   S
ST20   1.30   1.00   P
ST21   3.53   1.00   P
ST22   1.27   1.00   P
ST22   1.98   1.00   S
ST23   4.28   1.00   P
ST23   7.32   1.00   S
ST24   7.52   1.00   P
ST24   12.79   1.00   S
ST25   4.44   1.00   P
ST26   7.52   1.00   P
# 2000 12 13 15 10 0.96 35.9099 -117.6957 6.83 1 0 0 0 5
ST3    2.66   1.00   P
ST4    7.60   1.00   P
ST4    13.03   1.00   S
ST5    7.64   1.00   S
ST6    6.25   1.00   P
ST7    4.56   1.00   P
ST8    2.92   1.00   P
ST9    6.35   1.00   P
ST11   4.72   1.00   P
ST11   8.16   1.00   S
ST12   1.79   1.00   P
ST12   2.88   1.00   S
ST14   9.13   1.00   S
ST15   5.72   1.00   P
ST15   9.67   1.00   S
ST16   8.00   1.00   P
ST16   13.53   1.00   S
ST17   8.51   1.00   P
ST18   6.42   1.00   P
ST19   10.12   1.00   S
ST20   1.42   1.00   P
ST21   5.90   1.00   S
ST22   1.38   1.00   P
ST22   2.13   1.00   S
ST23   4.24   1.00   P
ST23   7.24   1.00   S
ST25   7.69   1.00   S
ST26   7.51   1.00   P
# 2000 12 13 15 10 1.02 35.6725 -117.5119 6.09 1 0 0 0 6
ST0    4.10   1.00   P
ST0    6.82   1.00   S
ST1    3.42   1.00   P
ST1    5.90   1.00   S
ST2    10.58   1.00   P
ST2    17.86   1.00   S
ST3    7.03   1.00   P
ST4    4.54   1.00   P
ST4    7.72   1.00   S
ST5    7.09   1.00   P
ST5    11.90   1.00   S
ST6    5.31   1.00   P
ST8    5.21   1.00   P
ST8    9.01   1.00   S
ST11   15.83   1.00   S
ST12   5.53   1.00   P
ST13   2.00   1.00   P
ST14   4.03   1.00   P
ST14   6.73   1.00   S
ST15   1.85   1.00   P
ST15   3.09   1.00   S
ST16   4.02   1.00   P
ST16   6.76   1.00   S
ST17   7.29   1.00   S
ST18   2.00   1.00   P
ST19   2.64   1.00   S
ST20   5.17   1.00   P
ST21   2.80   1.00   P
ST22   5.41   1.00   P
ST22   9.30   1.00   S
ST24   5.01   1.00   S
ST25   2.02   1.00   P
ST25   3.46   1.00   S
ST26   2.94   1.00   P
ST26   4.94   1.00   S
# 2000 12 13 15 10 1.12 35.5632 -117.3175 5.66 1 0 0 0 7
ST0    1.55   1.00   P
ST0    2.54   1.00   S
ST1    6.48   1.00   P
ST1    10.95   1.00   S
ST2    12.85   1.00   P
ST5    9.12   1.00   P
ST5    15.27   1.00   S
ST6    6.05   1.00   P
ST7    7.23   1.00   P
ST9    8.73   1.00   P
ST9    14.98   1.00   S
ST10   10.35   1.00   P
ST10   17.58   1.00   S
ST11   12.17   1.00   P
ST12   8.53   1.00   P
ST12   14.24   1.00   S
ST13   3.04   1.00   P
ST13   5.12   1.00   S
ST14   5.06   1.00   P
ST15   7.06   1.00   S
ST16   4.36   1.00   P
ST16   7.40   1.00   S
ST17   2.69   1.00   S
ST18   3.11   1.00   P
ST18   5.54   1.00   S
ST21   5.99   1.00   P
ST22   8.58   1.00   P
ST22   14.55   1.00   S
ST23   5.13   1.00   P
ST23   8.71   1.00   S
ST24   1.79   1.00   P
ST25   5.25   1.00   P
ST26   2.11   1.00   P
ST26   3.59   1.00   S
# 2000 12 13 15 10 1.02 36.0481 -117.8399 3.03 1 0 0 0 8
ST0    11.74   1.00   P
ST0    20.07   1.00   S
ST1    10.36   1.00   S
ST2    6.07   1.00   P
ST3    1.85   1.00   P
ST4    10.30   1.00   P
ST5    5.86   1.00   P
ST6    8.89   1.00   P
ST6    15.15   1.00   S
ST7    7.09   1.00   P
ST7    12.25   1.00   S
ST8    9.28   1.00   S
ST10   1.92   1.00   P
ST11   3.17   1.00   S
ST12   4.05   1.00   P
ST12   6.83   1.00   S
ST13   9.25   1.00   P
ST14   8.39   1.00   P
ST14   14.16   1.00   S
ST15   8.63   1.00   P
ST16   10.91   1.00   P
ST16   18.77   1.00   S
ST17   11.77   1.00   P
ST17   19.95   1.00   S
ST18   9.54   1.00   P
ST18   16.38   1.00   S
ST19   15.57   1.00   S
ST20   4.39   1.00   P
ST21   6.67   1.00   P
ST21   11.45   1.00   S
ST22   4.11   1.00   P
ST24   10.49   1.00   P
ST26   10.61   1.00   P
# 2000 12 13 15 10 0.93 35.9532 -117.6881 4.93 1 0 0 0 9
ST0    9.34   1.00   P
ST1    3.47   1.00   P
ST2    6.36   1.00   P
ST3    2.40   1.00   P
ST3    3.97   1.00   S
ST5    4.17   1.00   P
ST5    6.95   1.00   S
ST6    6.37   1.00   P
ST6    10.59   1.00   S
ST7    5.38   1.00   P
ST8    3.73   1.00   P
ST8    6.19   1.00   S
ST9    12.02   1.00   S
ST10   2.36   1.00   P
ST10   3.89   1.00   S
ST13   6.71   1.00   P
ST13   11.29   1.00   S
ST15   6.42   1.00   P
ST15   10.95   1.00   S
ST16   8.83   1.00   P
ST17   15.46   1.00   S
ST18   7.16   1.00   P
ST19   6.61   1.00   P
ST20   1.81   1.00   P
ST21   4.13   1.00   P
ST22   2.37   1.00   S
ST23   4.94   1.00   P
ST23   8.33   1.00   S
ST24   8.12   1.00   P
ST24   13.51   1.00   S
ST25   5.15   1.00   P
ST26   8.18   1.00   P
# 2000 12 13 15 10 1.06 35.5796 -117.5962 5.47 1 0 0 0 10
ST1    8.20   1.00   S
ST2    11.92   1.00   P
ST2    20.35   1.00   S
ST3    7.74   1.00   P
ST4    2.66   1.00   P
ST5    8.74   1.00   P
ST6    7.15   1.00   P
ST6    12.13   1.00   S
ST7    3.66   1.00   P
ST7    6.47   1.00   S
ST8    5.59   1.00   P
ST8    9.72   1.00   S
ST9    8.41   1.00   S
ST10   14.01   1.00   S
ST11   9.89   1.00   P
ST12   6.68   1.00   P
ST12   11.62   1.00   S
ST13   3.53   1.00   P
ST13   6.00   1.00   S
ST14   5.85   1.00   P
ST15   2.85   1.00   S
ST16   2.50   1.00   P
ST16   4.26   1.00   S
ST17   5.32   1.00   P
ST18   2.25   1.00   P
ST18   3.84   1.00   S
ST19   2.72   1.00   P
ST19   4.66   1.00   S
ST20   6.12   1.00   P
ST20   10.49   1.00   S
ST21   3.97   1.00   P
ST22   6.36   1.00   P
ST22   10.80   1.00   S
ST23   3.13   1.00   P
ST24   3.92   1.00   P
ST24   6.91   1.00   S
ST26   3.41   1.00   P
# 2000 12 13 15 10 0.91 35.9446 -117.6710 4.72 1 0 0 0 11
ST0    9.14   1.00   P
ST2    6.43   1.00   P
ST2    11.07   1.00   S
ST3    2.68   1.00   P
ST3    4.35   1.00   S
ST4    8.28   1.00   P
ST4    14.15   1.00   S
ST6    6.12   1.00   P
ST7    5.34   1.00   P
ST7    9.03   1.00   S
ST8    3.77   1.00   P
ST8    6.19   1.00   S
ST9    7.11   1.00   P
ST9    12.17   1.00   S
ST10   2.62   1.00   P
ST11   7.97   1.00   S
ST12   1.80   1.00   S
ST13   6.47   1.00   P
ST14   5.45   1.00   P
ST14   9.06   1.00   S
ST15   6.26   1.00   P
ST16   14.75   1.00   S
ST17   14.87   1.00   S
ST18   7.01   1.00   P
ST18   11.93   1.00   S
ST19   6.40   1.00   P
ST20   1.80   1.00   P
ST20   2.79   1.00   S
ST21   3.93   1.00   P
ST21   6.64   1.00   S
ST22   2.36   1.00   S
ST23   4.79   1.00   P
ST23   7.94   1.00   S
ST24   7.87   1.00   P
ST24   13.25   1.00   S
ST25   5.07   1.00   P
ST25   8.63   1.00   S
ST26   7.97   1.00   P
ST26   13.34   1.00   S
# 2000 12 13 15 10 0.97 35.5808 -117.6100 4.34 1 0 0 0 12
ST0    4.63   1.00   P
ST1    4.79   1.00   P
ST4    2.54   1.00   P
ST4    4.32   1.00   S
ST5    15.03   1.00   S
ST6    12.59   1.00   S
ST7    3.57   1.00   P
ST7    6.27   1.00   S
ST8    5.61   1.00   P
ST8    9.62   1.00   S
ST9    8.24   1.00   S
ST10   8.22   1.00   P
ST10   14.11   1.00   S
ST12   6.82   1.00   P
ST12   11.66   1.00   S
ST13   6.41   1.00   S
ST14   6.07   1.00   P
ST14   10.39   1.00   S
ST16   2.59   1.00   P
ST16   4.33   1.00   S
ST17   5.61   1.00   P
ST18   2.40   1.00   P
ST19   2.83   1.00   P
ST19   4.89   1.00   S
ST20   6.17   1.00   P
ST21   4.00   1.00   P
ST22   6.33   1.00   P
ST23   3.20   1.00   P
ST24   4.20   1.00   P
ST24   7.14   1.00   S
ST25   4.68   1.00   S
ST26   3.68   1.00   P
# 2000 12 13 15 10 0.98 35.9203 -117.6696 4.63 1 0 0 0 13
ST0    8.77   1.00   P
ST0    14.90   1.00   S
ST2    11.69   1.00   S
ST3    2.96   1.00   P
ST4    13.67   1.00   S
ST6    10.13   1.00   S
ST7    8.34   1.00   S
ST9    6.76   1.00   P
ST9    11.54   1.00   S
ST10   2.97   1.00   P
ST11   5.03   1.00   P
ST12   1.30   1.00   P
ST13   6.16   1.00   P
ST13   10.48   1.00   S
ST14   5.25   1.00   P
ST14   8.87   1.00   S
ST15   5.80   1.00   P
ST15   10.09   1.00   S
ST16   8.29   1.00   P
ST16   14.10   1.00   S
ST17   8.55   1.00   P
ST17   14.43   1.00   S
ST19   6.03   1.00   P
ST19   10.23   1.00   S
ST23   4.32   1.00   P
ST24   7.49   1.00   P
ST25   4.63   1.00   P
ST26   7.59   1.00   P
ST26   13.13   1.00   S
# 2000 12 13 15 10 0.93 35.6788 -117.4672 4.60 1 0 0 0 14
ST0    3.92   1.00   P
ST1    3.88   1.00   P
ST2    10.77   1.00   P
ST2    18.04   1.00   S
ST3    7.66   1.00   P
ST3    13.07   1.00   S
ST5    12.03   1.00   S
ST6    5.05   1.00   P
ST6    8.50   1.00   S
ST8    5.95   1.00   P
ST10   7.78   1.00   P
ST10   13.18   1.00   S
ST12   9.93   1.00   S
ST13   1.37   1.00   P
ST13   2.34   1.00   S
ST14   3.76   1.00   P
ST14   6.21   1.00   S
ST15   2.23   1.00   P
ST15   3.59   1.00   S
ST17   3.94   1.00   P
ST17   6.57   1.00   S
ST18   1.96   1.00   P
ST18   3.26   1.00   S
ST19   2.06   1.00   S
ST20   9.86   1.00   S
ST21   5.57   1.00   S
ST22   6.01   1.00   P
ST23   2.36   1.00   P
ST25   2.69   1.00   P
ST26   2.60   1.00   P
ST26   4.54   1.00   S
# 2000 12 13 15 10 0.96 35.7132 -117.4985 5.80 1 0 0 0 15
ST0    4.66   1.00   P
ST1    2.99   1.00   P
ST1    5.00   1.00   S
ST2    10.01   1.00   P
ST3    11.39   1.00   S
ST4    5.17   1.00   P
ST5    6.51   1.00   P
ST5    10.96   1.00   S
ST6    4.82   1.00   P
ST6    8.14   1.00   S
ST7    4.37   1.00   P
ST7    7.40   1.00   S
ST9    6.24   1.00   P
ST9    10.82   1.00   S
ST10   6.92   1.00   P
ST11   15.32   1.00   S
ST12   5.11   1.00   P
ST12   8.69   1.00   S
ST13   2.09   1.00   P
ST13   3.59   1.00   S
ST14   3.48   1.00   P
ST15   2.35   1.00   P
ST17   4.52   1.00   P
ST18   2.53   1.00   P
ST19   1.92   1.00   P
ST19   3.20   1.00   S
ST20   4.89   1.00   P
ST20   8.27   1.00   S
ST21   2.49   1.00   P
ST22   5.08   1.00   P
ST22   8.61   1.00   S
ST23   1.79   1.00   P
ST23   2.96   1.00   S
ST25   3.68   1.00   S
ST26   3.42   1.00   P
ST26   5.69   1.00   S
# 2000 12 13 15 10 0.86 35.6779 -117.4861 2.05 1 0 0 0 16
ST0    7.28   1.00   S
ST1    3.95   1.00   P
ST2    10.97   1.00   P
ST3    7.75   1.00   P
ST4    5.28   1.00   P
ST4    8.84   1.00   S
ST5    7.47   1.00   P
ST6    5.37   1.00   P
ST8    10.23   1.00   S
ST9    6.97   1.00   P
ST9    11.82   1.00   S
ST10   7.90   1.00   P
ST11   9.82   1.00   P
ST12   6.13   1.00   P
ST13   1.43   1.00   P
ST15   2.17   1.00   P
ST16   4.64   1.00   P
ST16   7.66   1.00   S
ST17   4.44   1.00   P
ST18   1.95   1.00   P
ST19   1.66   1.00   S
ST21   5.26   1.00   S
ST23   2.17   1.00   P
ST25   2.45   1.00   P
ST25   3.89   1.00   S
ST26   4.89   1.00   S
# 2000 12 13 15 10 0.96 35.8777 -117.6797 8.55 1 0 0 0 17
ST0    13.60   1.00   S
ST1    2.43   1.00   P
ST2    12.45   1.00   S
ST3    3.15   1.00   P
ST4    12.15   1.00   S
ST5    4.83   1.00   P
ST8    2.70   1.00   P
ST9    5.95   1.00   P
ST10   5.65   1.00   S
ST11   5.30   1.00   P
ST11   9.27   1.00   S
ST12   3.59   1.00   S
ST14   5.05   1.00   P
ST14   8.57   1.00   S
ST15   5.05   1.00   P
ST15   8.82   1.00   S
ST16   7.42   1.00   P
ST17   7.94   1.00   P
ST19   9.09   1.00   S
ST20   1.62   1.00   P
ST21   2.98   1.00   P
ST22   2.86   1.00   S
ST23   3.66   1.00   P
ST23   6.19   1.00   S
ST24   6.82   1.00   P
ST24   11.56   1.00   S
ST26   11.68   1.00   S
# 2000 12 13 15 10 1.07 35.6615 -117.5327 8.08 1 0 0 0 18
ST0    4.14   1.00   P
ST1    5.98   1.00   S
ST2    10.64   1.00   P
ST2    18.14   1.00   S
ST3    6.97   1.00   P
ST4    4.16   1.00   P
ST5    7.29   1.00   P
ST5    12.28   1.00   S
ST6    5.58   1.00   P
ST6    9.62   1.00   S
ST8    5.17   1.00   P
ST9    5.65   1.00   P
ST10   7.23   1.00   P
ST10   12.43   1.00   S
ST11   9.16   1.00   P
ST12   5.69   1.00   P
ST12   9.56   1.00   S
ST13   2.32   1.00   P
ST13   3.98   1.00   S
ST14   4.31   1.00   P
ST14   7.31   1.00   S
ST15   1.71   1.00   P
ST16   3.78   1.00   P
ST16   6.26   1.00   S
ST17   4.55   1.00   P
ST18   2.05   1.00   P
ST19   1.77   1.00   P
ST20   5.18   1.00   P
ST20   8.77   1.00   S
ST22   5.42   1.00   P
ST22   9.15   1.00   S
ST23   2.02   1.00   P
ST23   3.57   1.00   S
ST24   3.21   1.00   P
ST24   5.24   1.00   S
ST25   2.04   1.00   P
ST26   2.96   1.00   P
# 2000 12 13 15 10 1.02 35.6355 -117.4256 5.41 1 0 0 0 19
ST1    4.69   1.00   P
ST2    11.41   1.00   P
ST4    4.99   1.00   P
ST5    13.02   1.00   S
ST7    5.46   1.00   P
ST8    6.64   1.00   P
ST9    7.25   1.00   P
ST10   8.53   1.00   P
ST10   14.53   1.00   S
ST11   10.43   1.00   P
ST11   18.11   1.00   S
ST12   6.77   1.00   P
ST14   4.05   1.00   P
ST14   6.79   1.00   S
ST15   2.57   1.00   P
ST16   3.85   1.00   P
ST17   2.95   1.00   P
ST18   2.97   1.00   S
ST19   1.47   1.00   P
ST19   2.35   1.00   S
ST21   4.12   1.00   P
ST22   6.74   1.00   P
ST22   11.45   1.00   S
ST23   3.27   1.00   P
ST24   1.59   1.00   P
ST24   2.82   1.00   S
ST25   3.43   1.00   P
ST25   5.76   1.00   S
ST26   2.79   1.00   S
# 2000 12 13 15 10 1.01 35.8973 -117.6748 5.74 1 0 0 0 20
ST0    8.38   1.00   P
ST1    2.54   1.00   P
ST1    4.28   1.00   S
ST2    6.98   1.00   P
ST2    12.03   1.00   S
ST4    7.40   1.00   P
ST5    4.56   1.00   P
ST5    7.59   1.00   S
ST7    4.41   1.00   P
ST7    7.57   1.00   S
ST8    2.90   1.00   P
ST8    4.82   1.00   S
ST10   3.10   1.00   P
ST12   1.73   1.00   P
ST12   2.80   1.00   S
ST14   5.13   1.00   P
ST15   5.32   1.00   P
ST15   9.19   1.00   S
ST16   7.74   1.00   P
ST17   8.19   1.00   P
ST19   9.72   1.00   S
ST20   1.25   1.00   P
ST21   5.40   1.00   S
ST22   1.25   1.00   P
ST23   6.73   1.00   S
ST24   7.13   1.00   P
ST24   12.08   1.00   S
ST25   4.16   1.00   P
ST26   7.14   1.00   P
# 2000 12 13 15 10 1.14 35.5955 -117.4211 4.13 1 0 0 0 21
ST0    2.12   1.00   P
ST1    5.37   1.00   P
ST1    9.09   1.00   S
ST2    20.32   1.00   S
ST3    8.94   1.00   P
ST4    4.68   1.00   P
ST6    10.16   1.00   S
ST7    5.74   1.00   P
ST7    10.19   1.00   S
ST8    7.15   1.00   P
ST9    12.74   1.00   S
ST11   19.15   1.00   S
ST12   7.38   1.00   P
ST12   12.52   1.00   S
ST13   1.82   1.00   P
ST13   3.20   1.00   S
ST14   4.66   1.00   P
ST14   7.89   1.00   S
ST15   2.67   1.00   P
ST15   4.58   1.00   S
ST16   3.33   1.00   P
ST17   2.79   1.00   P
ST17   4.87   1.00   S
ST19   1.79   1.00   P
ST19   3.22   1.00   S
ST20   12.23   1.00   S
ST22   7.35   1.00   P
ST22   12.58   1.00   S
ST25   6.61   1.00   S
# 2000 12 13 15 10 1.02 35.5846 -117.5839 4.89 1 0 0 0 22
ST0    4.18   1.00   P
ST0    6.94   1.00   S
ST2    20.25   1.00   S
ST3    7.82   1.00   P
ST4    4.87   1.00   S
ST5    8.61   1.00   P
ST6    6.94   1.00   P
ST7    3.89   1.00   P
ST8    5.73   1.00   P
ST8    9.82   1.00   S
ST9    5.11   1.00   P
ST10   8.24   1.00   P
ST11   9.97   1.00   P
ST11   17.29   1.00   S
ST12   6.76   1.00   P
ST13   3.29   1.00   P
ST15   1.57   1.00   P
ST16   4.32   1.00   S
ST17   8.57   1.00   S
ST18   3.36   1.00   S
ST19   2.52   1.00   P
ST19   4.24   1.00   S
ST20   6.18   1.00   P
ST21   3.95   1.00   P
ST22   6.41   1.00   P
ST22   10.91   1.00   S
ST23   3.04   1.00   P
ST24   3.68   1.00   P
ST25   2.71   1.00   P
ST26   5.37   1.00   S
# 2000 12 13 15 10 1.02 35.7020 -117.5038 6.55 1 0 0 0 23
ST1    5.21   1.00   S
ST2    17.10   1.00   S
ST3    11.40   1.00   S
ST4    4.98   1.00   P
ST4    8.76   1.00   S
ST5    6.62   1.00   P
ST5    11.03   1.00   S
ST7    4.17   1.00   P
ST8    5.05   1.00   P
ST8    8.64   1.00   S
ST9    6.22   1.00   P
ST10   6.87   1.00   P
ST10   11.77   1.00   S
ST11   8.84   1.00   P
ST13   2.09   1.00   P
ST13   3.70   1.00   S
ST14   3.61   1.00   P
ST15   3.74   1.00   S
ST16   4.51   1.00   P
ST16   7.68   1.00   S
ST17   4.48   1.00   P
ST18   2.38   1.00   P
ST18   4.10   1.00   S
ST19   1.80   1.00   P
ST19   3.10   1.00   S
ST21   2.53   1.00   P
ST22   5.07   1.00   P
ST22   8.64   1.00   S
ST23   1.79   1.00   P
ST23   3.10   1.00   S
# 2000 12 13 15 10 0.99 35.9271 -117.7007 6.70 1 0 0 0 24
ST0    8.91   1.00   P
ST1    3.13   1.00   P
ST1    5.28   1.00   S
ST2    6.56   1.00   P
ST2    11.24   1.00   S
ST4    7.85   1.00   P
ST5    7.38   1.00   S
ST6    10.58   1.00   S
ST7    4.81   1.00   P
ST7    8.20   1.00   S
ST9    6.46   1.00   P
ST10   2.55   1.00   P
ST12   1.66   1.00   P
ST13   10.81   1.00   S
ST14   5.57   1.00   P
ST15   5.88   1.00   P
ST15   10.10   1.00   S
ST16   8.27   1.00   P
ST17   8.81   1.00   P
ST19   6.17   1.00   P
ST20   1.61   1.00   P
ST20   2.64   1.00   S
ST23   4.51   1.00   P
ST23   7.52   1.00   S
ST24   12.99   1.00   S
ST26   7.71   1.00   P
ST26   13.06   1.00   S
# 2000 12 13 15 10 0.95 35.8935 -117.6778 8.05 1 0 0 0 25
ST0    8.30   1.00   P
ST1    2.55   1.00   P
ST1    4.30   1.00   S
ST2    7.10   1.00   P
ST3    3.04   1.00   P
ST3    5.03   1.00   S
ST4    12.47   1.00   S
ST5    4.65   1.00   P
ST5    7.69   1.00   S
ST6    5.97   1.00   P
ST6    10.05   1.00   S
ST7    4.26   1.00   P
ST8    2.90   1.00   P
ST8    4.81   1.00   S
ST10   3.21   1.00   P
ST10   5.43   1.00   S
ST11   5.14   1.00   P
ST12   1.93   1.00   P
ST12   3.16   1.00   S
ST13   9.68   1.00   S
ST15   5.27   1.00   P
ST15   9.07   1.00   S
ST17   13.82   1.00   S
ST18   10.33   1.00   S
ST19   9.43   1.00   S
ST20   1.60   1.00   P
ST20   2.60   1.00   S
ST21   3.13   1.00   P
ST22   1.54   1.00   P
ST23   6.56   1.00   S
