# 2000 12 13 15 10 0.95 35.9881 -117.6658 4.12 1 0 0 0 51
ST0    16.39   1.00   S
ST1    4.01   1.00   P
ST2    9.86   1.00   S
ST3    2.64   1.00   P
ST3    4.31   1.00   S
ST4    9.11   1.00   P
ST4    15.58   1.00   S
ST5    3.68   1.00   P
ST6    10.36   1.00   S
ST8    4.56   1.00   P
ST8    7.45   1.00   S
ST9    7.83   1.00   P
ST9    13.26   1.00   S
ST10   2.14   1.00   P
ST11   7.34   1.00   S
ST13   12.04   1.00   S
ST14   5.77   1.00   P
ST14   9.52   1.00   S
ST15   7.00   1.00   P
ST15   11.93   1.00   S
ST16   9.38   1.00   P
ST16   16.00   1.00   S
ST17   9.46   1.00   P
ST17   15.78   1.00   S
ST18   7.72   1.00   P
ST18   13.19   1.00   S
ST19   11.87   1.00   S
ST20   2.59   1.00   P
ST20   4.16   1.00   S
ST21   4.76   1.00   P
ST21   7.90   1.00   S
ST22   2.29   1.00   P
ST22   3.64   1.00   S
ST23   5.58   1.00   P
ST23   9.43   1.00   S
ST25   5.82   1.00   P
ST25   9.94   1.00   S
ST26   8.64   1.00   P
ST26   14.47   1.00   S
# 2000 12 13 15 10 0.95 35.6674 -117.4993 4.82 1 0 0 0 52
ST0    4.05   1.00   P
ST2    10.78   1.00   P
ST3    7.43   1.00   P
ST3    12.59   1.00   S
ST4    4.68   1.00   P
ST5    7.30   1.00   P
ST6    9.07   1.00   S
ST7    7.78   1.00   S
ST8    5.62   1.00   P
ST9    6.33   1.00   P
ST10   7.64   1.00   P
ST10   12.96   1.00   S
ST11   9.51   1.00   P
ST12   5.91   1.00   P
ST12   10.01   1.00   S
ST13   1.85   1.00   P
ST14   4.08   1.00   P
ST14   6.87   1.00   S
ST15   1.73   1.00   P
ST15   2.88   1.00   S
ST16   6.77   1.00   S
ST17   4.27   1.00   P
ST18   1.68   1.00   P
ST18   2.96   1.00   S
ST19   1.25   1.00   P
ST20   5.60   1.00   P
ST20   9.53   1.00   S
ST21   3.05   1.00   P
ST21   5.13   1.00   S
ST22   5.73   1.00   P
ST23   2.08   1.00   P
ST23   3.37   1.00   S
ST24   4.71   1.00   S
ST25   2.25   1.00   P
ST25   3.68   1.00   S
ST26   2.71   1.00   P
ST26   4.60   1.00   S
# 2000 12 13 15 10 0.9 35.9539 -117.6880 4.71 1 0 0 0 53
ST0    9.41   1.00   P
ST0    15.77   1.00   S
ST1    3.52   1.00   P
ST1    5.74   1.00   S
ST2    6.38   1.00   P
ST3    2.42   1.00   P
ST4    8.48   1.00   P
ST5    4.24   1.00   P
ST5    7.02   1.00   S
ST6    6.43   1.00   P
ST6    10.62   1.00   S
ST7    5.46   1.00   P
ST8    6.19   1.00   S
ST9    7.11   1.00   P
ST10   2.35   1.00   P
ST10   3.66   1.00   S
ST12   1.23   1.00   P
ST13   6.70   1.00   P
ST13   11.50   1.00   S
ST14   9.64   1.00   S
ST15   6.45   1.00   P
ST15   10.98   1.00   S
ST16   8.85   1.00   P
ST17   9.16   1.00   P
ST17   15.24   1.00   S
ST18   7.22   1.00   P
ST19   11.25   1.00   S
ST20   1.86   1.00   P
ST21   4.21   1.00   P
ST22   1.51   1.00   P
ST23   5.00   1.00   P
ST23   8.35   1.00   S
ST24   8.15   1.00   P
ST25   5.27   1.00   P
ST26   13.88   1.00   S
# 2000 12 13 15 10 1.01 35.7041 -117.5341 6.42 1 0 0 0 54
ST1    2.85   1.00   P
ST2    10.06   1.00   P
ST3    6.43   1.00   P
ST3    10.92   1.00   S
ST4    4.75   1.00   P
ST6    5.20   1.00   P
ST6    8.87   1.00   S
ST8    4.66   1.00   P
ST8    7.98   1.00   S
ST9    9.90   1.00   S
ST10   11.39   1.00   S
ST11   8.58   1.00   P
ST12   8.47   1.00   S
ST15   2.09   1.00   P
ST15   3.64   1.00   S
ST16   4.47   1.00   P
ST16   7.49   1.00   S
ST18   4.23   1.00   S
ST19   2.07   1.00   P
ST20   7.85   1.00   S
ST21   2.25   1.00   P
ST22   4.86   1.00   P
ST23   1.55   1.00   P
ST24   3.63   1.00   P
ST24   6.19   1.00   S
ST25   1.72   1.00   P
ST26   3.52   1.00   P
ST26   6.12   1.00   S
# 2000 12 13 15 10 0.91 35.9568 -117.6891 4.89 1 0 0 0 55
ST0    9.44   1.00   P
ST1    3.58   1.00   P
ST1    5.96   1.00   S
ST2    10.73   1.00   S
ST3    3.83   1.00   S
ST4    8.49   1.00   P
ST4    14.50   1.00   S
ST5    4.18   1.00   P
ST5    6.91   1.00   S
ST6    10.63   1.00   S
ST7    5.44   1.00   P
ST7    9.27   1.00   S
ST8    6.48   1.00   S
ST9    12.03   1.00   S
ST10   2.26   1.00   P
ST10   3.77   1.00   S
ST11   7.44   1.00   S
ST12   1.30   1.00   P
ST13   11.56   1.00   S
ST14   5.76   1.00   P
ST18   7.21   1.00   P
ST19   11.23   1.00   S
ST21   4.27   1.00   P
ST21   7.17   1.00   S
ST22   1.62   1.00   P
ST23   5.05   1.00   P
ST24   8.16   1.00   P
ST25   5.29   1.00   P
ST25   8.95   1.00   S
# 2000 12 13 15 10 0.9 35.7476 -117.5239 5.11 1 0 0 0 56
ST0    5.42   1.00   P
ST0    8.97   1.00   S
ST1    2.37   1.00   P
ST2    16.00   1.00   S
ST3    10.32   1.00   S
ST4    5.62   1.00   P
ST4    9.56   1.00   S
ST5    6.05   1.00   P
ST5    10.04   1.00   S
ST7    4.09   1.00   P
ST7    6.94   1.00   S
ST8    4.58   1.00   P
ST8    7.84   1.00   S
ST10   6.27   1.00   P
ST11   8.18   1.00   P
ST12   7.53   1.00   S
ST14   3.46   1.00   P
ST15   2.88   1.00   P
ST15   4.81   1.00   S
ST18   3.28   1.00   P
ST18   5.47   1.00   S
ST20   7.23   1.00   S
ST22   4.56   1.00   P
ST23   1.54   1.00   P
ST25   2.12   1.00   P
ST25   3.49   1.00   S
ST26   4.14   1.00   P
ST26   7.06   1.00   S
# 2000 12 13 15 10 0.92 35.9899 -117.6723 3.72 1 0 0 0 57
ST0    9.91   1.00   P
ST0    16.62   1.00   S
ST1    4.09   1.00   P
ST1    6.76   1.00   S
ST2    9.85   1.00   S
ST3    2.58   1.00   P
ST3    4.33   1.00   S
ST4    9.21   1.00   P
ST4    15.55   1.00   S
ST5    3.69   1.00   P
ST7    6.17   1.00   P
ST7    10.46   1.00   S
ST8    4.57   1.00   P
ST9    7.92   1.00   P
ST9    13.35   1.00   S
ST10   3.48   1.00   S
ST11   4.17   1.00   P
ST11   7.26   1.00   S
ST12   1.32   1.00   P
ST12   2.09   1.00   S
ST13   7.21   1.00   P
ST14   9.85   1.00   S
ST15   7.05   1.00   P
ST15   12.03   1.00   S
ST16   16.10   1.00   S
ST18   7.82   1.00   P
ST18   13.20   1.00   S
ST22   2.28   1.00   P
ST23   5.60   1.00   P
ST23   9.37   1.00   S
ST24   14.47   1.00   S
ST25   10.03   1.00   S
ST26   8.76   1.00   P
ST26   14.64   1.00   S
# 2000 12 13 15 10 0.99 35.7646 -117.5697 8.27 1 0 0 0 58
ST0    5.79   1.00   P
ST0    9.68   1.00   S
ST1    1.98   1.00   P
ST2    9.07   1.00   P
ST3    5.43   1.00   P
ST4    5.54   1.00   P
ST4    9.43   1.00   S
ST6    8.55   1.00   S
ST7    3.58   1.00   P
ST8    6.42   1.00   S
ST9    5.75   1.00   P
ST10   5.62   1.00   P
ST11   7.54   1.00   P
ST11   13.00   1.00   S
ST14   3.86   1.00   P
ST14   6.40   1.00   S
ST15   2.98   1.00   P
ST16   5.43   1.00   P
ST17   9.77   1.00   S
ST18   6.24   1.00   S
ST19   3.06   1.00   P
ST19   5.18   1.00   S
ST21   1.60   1.00   P
ST21   2.76   1.00   S
ST25   2.02   1.00   P
ST25   3.56   1.00   S
# 2000 12 13 15 10 0.94 35.9304 -117.7004 5.38 1 0 0 0 59
ST0    9.11   1.00   P
ST1    5.29   1.00   S
ST2    6.67   1.00   P
ST3    2.44   1.00   P
ST4    8.07   1.00   P
ST5    7.38   1.00   S
ST6    6.40   1.00   P
ST8    3.30   1.00   P
ST10   4.23   1.00   S
ST11   4.60   1.00   P
ST11   7.89   1.00   S
ST12   2.59   1.00   S
ST13   6.48   1.00   P
ST13   10.98   1.00   S
ST14   5.64   1.00   P
ST15   6.01   1.00   P
ST15   10.36   1.00   S
ST16   14.41   1.00   S
ST17   8.88   1.00   P
ST17   14.97   1.00   S
ST18   6.95   1.00   P
ST19   6.33   1.00   P
ST19   10.74   1.00   S
ST20   1.52   1.00   P
ST21   3.89   1.00   P
ST22   1.23   1.00   P
ST22   1.94   1.00   S
ST23   4.64   1.00   P
ST24   7.79   1.00   P
ST25   4.89   1.00   P
ST26   13.34   1.00   S
# 2000 12 13 15 10 1.01 35.8755 -117.6977 6.20 1 0 0 0 60
ST0    8.24   1.00   P
ST0    14.04   1.00   S
ST1    2.49   1.00   P
ST1    4.16   1.00   S
ST3    5.22   1.00   S
ST4    7.09   1.00   P
ST4    12.05   1.00   S
ST5    8.45   1.00   S
ST6    6.24   1.00   P
ST6    10.78   1.00   S
ST7    3.99   1.00   P
ST7    6.80   1.00   S
ST9    5.87   1.00   P
ST9    9.99   1.00   S
ST10   3.47   1.00   P
ST11   5.26   1.00   P
ST12   2.10   1.00   P
ST12   3.56   1.00   S
ST13   5.73   1.00   P
ST13   9.49   1.00   S
ST16   7.52   1.00   P
ST18   10.32   1.00   S
ST19   5.51   1.00   P
ST19   9.24   1.00   S
ST20   1.26   1.00   P
ST22   1.41   1.00   P
ST26   7.05   1.00   P
ST26   11.85   1.00   S
# 2000 12 13 15 10 0.96 35.9042 -117.7152 8.01 1 0 0 0 61
ST1    3.04   1.00   P
ST2    6.98   1.00   P
ST2    12.03   1.00   S
ST3    2.54   1.00   P
ST4    7.49   1.00   P
ST4    12.72   1.00   S
ST6    10.92   1.00   S
ST8    2.80   1.00   P
ST9    10.33   1.00   S
ST10   2.89   1.00   P
ST11   4.67   1.00   P
ST12   2.04   1.00   P
ST12   3.35   1.00   S
ST13   10.46   1.00   S
ST14   9.45   1.00   S
ST15   5.68   1.00   P
ST16   8.00   1.00   P
ST18   6.47   1.00   P
ST19   6.02   1.00   P
ST21   3.61   1.00   P
ST22   1.46   1.00   P
ST23   7.32   1.00   S
ST24   7.53   1.00   P
ST24   12.72   1.00   S
ST25   4.53   1.00   P
ST26   7.56   1.00   P
ST26   12.77   1.00   S
# 2000 12 13 15 10 1.02 35.6349 -117.4297 2.61 1 0 0 0 62
ST0    3.10   1.00   P
ST0    5.14   1.00   S
ST2    11.68   1.00   P
ST3    8.66   1.00   P
ST3    14.68   1.00   S
ST4    8.75   1.00   S
ST6    5.51   1.00   P
ST7    5.69   1.00   P
ST8    12.10   1.00   S
ST9    7.43   1.00   P
ST9    12.79   1.00   S
ST10   8.85   1.00   P
ST11   10.70   1.00   P
ST12   7.00   1.00   P
ST13   1.83   1.00   S
ST14   4.31   1.00   P
ST14   7.36   1.00   S
ST16   4.05   1.00   P
ST16   6.88   1.00   S
ST17   3.21   1.00   P
ST18   1.50   1.00   P
ST19   1.86   1.00   S
ST20   6.79   1.00   P
ST21   4.34   1.00   P
ST21   7.29   1.00   S
ST22   6.99   1.00   P
ST23   3.36   1.00   P
ST24   1.37   1.00   P
ST24   2.40   1.00   S
ST26   1.52   1.00   P
# 2000 12 13 15 10 1.03 35.8797 -117.6607 9.41 1 0 0 0 63
ST0    7.97   1.00   P
ST0    13.40   1.00   S
ST1    3.95   1.00   S
ST2    7.25   1.00   P
ST3    3.34   1.00   P
ST4    7.08   1.00   P
ST4    12.17   1.00   S
ST5    4.67   1.00   P
ST5    7.77   1.00   S
ST6    5.75   1.00   P
ST7    7.18   1.00   S
ST8    2.97   1.00   P
ST8    4.96   1.00   S
ST10   3.48   1.00   P
ST12   2.10   1.00   P
ST13   5.40   1.00   P
ST13   9.24   1.00   S
ST14   8.26   1.00   S
ST15   5.01   1.00   P
ST15   8.58   1.00   S
ST16   7.39   1.00   P
ST17   13.20   1.00   S
ST18   5.81   1.00   P
ST18   9.92   1.00   S
ST20   3.05   1.00   S
ST21   2.85   1.00   P
ST21   4.85   1.00   S
ST22   1.88   1.00   P
ST22   3.06   1.00   S
ST23   3.47   1.00   P
ST23   6.14   1.00   S
ST24   6.75   1.00   P
ST24   11.49   1.00   S
ST25   3.74   1.00   P
ST26   6.72   1.00   P
# 2000 12 13 15 10 1.1 35.6220 -117.5859 6.04 1 0 0 0 64
ST0    4.38   1.00   P
ST0    7.41   1.00   S
ST1    4.08   1.00   P
ST2    19.27   1.00   S
ST3    7.19   1.00   P
ST5    8.04   1.00   P
ST6    6.57   1.00   P
ST6    11.12   1.00   S
ST7    3.32   1.00   P
ST8    8.79   1.00   S
ST9    4.86   1.00   P
ST9    8.45   1.00   S
ST10   12.95   1.00   S
ST11   9.37   1.00   P
ST11   16.26   1.00   S
ST12   6.11   1.00   P
ST14   5.24   1.00   P
ST14   8.99   1.00   S
ST15   1.33   1.00   P
ST16   3.01   1.00   P
ST16   5.18   1.00   S
ST17   5.12   1.00   P
ST18   2.07   1.00   P
ST19   2.27   1.00   P
ST19   4.06   1.00   S
ST21   3.33   1.00   P
ST21   5.78   1.00   S
ST23   2.46   1.00   P
ST24   3.75   1.00   P
# 2000 12 13 15 10 0.86 36.0567 -117.8318 2.42 1 0 0 0 65
ST2    5.97   1.00   P
ST2    10.08   1.00   S
ST4    10.50   1.00   P
ST5    5.83   1.00   P
ST5    10.02   1.00   S
ST6    8.92   1.00   P
ST6    15.08   1.00   S
ST7    7.31   1.00   P
ST8    5.66   1.00   P
ST8    9.57   1.00   S
ST9    8.58   1.00   P
ST9    14.60   1.00   S
ST10   3.15   1.00   S
ST11   1.76   1.00   P
ST12   6.87   1.00   S
ST13   9.46   1.00   P
ST13   16.08   1.00   S
ST14   8.44   1.00   P
ST15   8.83   1.00   P
ST15   15.32   1.00   S
ST16   11.14   1.00   P
ST17   11.88   1.00   P
ST19   9.27   1.00   P
ST20   4.54   1.00   P
ST20   7.51   1.00   S
ST21   6.82   1.00   P
ST23   7.55   1.00   P
ST24   10.87   1.00   P
ST25   7.71   1.00   P
ST26   10.76   1.00   P
ST26   18.27   1.00   S
# 2000 12 13 15 10 0.92 35.6061 -117.5982 3.95 1 0 0 0 66
ST0    4.57   1.00   P
ST0    7.68   1.00   S
ST1    4.48   1.00   P
ST1    7.70   1.00   S
ST2    11.70   1.00   P
ST3    7.57   1.00   P
ST3    13.00   1.00   S
ST4    3.08   1.00   P
ST4    5.26   1.00   S
ST5    14.42   1.00   S
ST7    3.64   1.00   P
ST9    5.05   1.00   P
ST9    8.70   1.00   S
ST11   9.77   1.00   P
ST12   6.52   1.00   P
ST12   11.00   1.00   S
ST13   3.38   1.00   P
ST14   5.67   1.00   P
ST15   1.21   1.00   P
ST16   4.97   1.00   S
ST17   5.40   1.00   P
ST18   2.09   1.00   P
ST20   5.93   1.00   P
ST21   3.67   1.00   P
ST22   6.21   1.00   P
ST23   2.76   1.00   P
ST24   3.96   1.00   P
# 2000 12 13 15 10 0.99 35.6460 -117.4531 3.79 1 0 0 0 67
ST0    3.43   1.00   P
ST1    7.50   1.00   S
ST2    11.33   1.00   P
ST2    19.13   1.00   S
ST3    8.22   1.00   P
ST4    4.98   1.00   P
ST5    7.77   1.00   P
ST6    5.36   1.00   P
ST8    11.05   1.00   S
ST10   8.39   1.00   P
ST11   10.27   1.00   P
ST12   6.63   1.00   P
ST12   10.91   1.00   S
ST13   1.07   1.00   P
ST13   1.78   1.00   S
ST15   3.82   1.00   S
ST16   6.73   1.00   S
ST19   0.92   1.00   P
ST20   6.38   1.00   P
ST21   3.84   1.00   P
ST21   6.41   1.00   S
ST22   6.54   1.00   P
ST23   4.80   1.00   S
ST24   1.94   1.00   P
ST24   3.25   1.00   S
ST25   3.04   1.00   P
ST26   1.95   1.00   P
# 2000 12 13 15 10 0.94 35.9240 -117.7076 5.48 1 0 0 0 68
ST0    8.99   1.00   P
ST1    5.23   1.00   S
ST3    4.01   1.00   S
ST4    13.50   1.00   S
ST6    6.41   1.00   P
ST8    3.16   1.00   P
ST9    6.58   1.00   P
ST9    11.09   1.00   S
ST10   2.62   1.00   P
ST10   4.38   1.00   S
ST11   4.57   1.00   P
ST11   7.95   1.00   S
ST12   1.70   1.00   P
ST13   6.43   1.00   P
ST15   5.99   1.00   P
ST16   8.37   1.00   P
ST16   14.26   1.00   S
ST17   8.84   1.00   P
ST18   6.83   1.00   P
ST19   10.41   1.00   S
ST20   1.38   1.00   P
ST21   3.80   1.00   P
ST21   6.50   1.00   S
ST22   1.18   1.00   P
ST24   7.75   1.00   P
ST25   4.80   1.00   P
ST26   7.81   1.00   P
ST26   13.17   1.00   S
# 2000 12 13 15 10 1.03 35.6487 -117.4405 4.03 1 0 0 0 69
ST0    5.52   1.00   S
ST1    4.53   1.00   P
ST2    11.23   1.00   P
ST2    18.87   1.00   S
ST4    8.44   1.00   S
ST6    5.20   1.00   P
ST7    5.31   1.00   P
ST8    6.49   1.00   P
ST8    11.12   1.00   S
ST9    7.16   1.00   P
ST9    12.19   1.00   S
ST10   14.21   1.00   S
ST11   10.26   1.00   P
ST12   11.02   1.00   S
ST13   1.78   1.00   S
ST14   3.97   1.00   P
ST15   4.01   1.00   S
ST16   4.06   1.00   P
ST17   3.29   1.00   P
ST18   1.58   1.00   P
ST18   2.78   1.00   S
ST20   11.08   1.00   S
ST21   3.94   1.00   P
ST23   2.94   1.00   P
ST24   3.27   1.00   S
ST25   3.15   1.00   P
ST26   3.24   1.00   S
# 2000 12 13 15 10 1.02 35.7219 -117.5202 6.15 1 0 0 0 70
ST0    4.85   1.00   P
ST0    8.19   1.00   S
ST1    2.67   1.00   P
ST2    9.79   1.00   P
ST4    5.10   1.00   P
ST4    8.73   1.00   S
ST5    10.65   1.00   S
ST6    4.91   1.00   P
ST6    8.33   1.00   S
ST7    3.93   1.00   P
ST8    4.66   1.00   P
ST8    8.05   1.00   S
ST9    10.33   1.00   S
ST10   6.51   1.00   P
ST12   4.81   1.00   P
ST12   8.04   1.00   S
ST13   2.42   1.00   P
ST14   3.60   1.00   P
ST14   6.14   1.00   S
ST15   2.40   1.00   P
ST16   4.71   1.00   P
ST16   8.04   1.00   S
ST17   8.09   1.00   S
ST19   2.13   1.00   P
ST20   4.50   1.00   P
ST20   7.69   1.00   S
ST21   2.13   1.00   P
ST21   3.61   1.00   S
ST22   4.67   1.00   P
ST23   1.61   1.00   P
ST24   3.66   1.00   P
ST24   6.17   1.00   S
ST25   3.26   1.00   S
# 2000 12 13 15 10 0.9 35.7236 -117.5173 4.27 1 0 0 0 71
ST0    5.03   1.00   P
ST1    2.79   1.00   P
ST2    9.94   1.00   P
ST2    16.73   1.00   S
ST3    6.59   1.00   P
ST5    6.54   1.00   P
ST5    10.92   1.00   S
ST6    5.01   1.00   P
ST9    6.26   1.00   P
ST9    10.85   1.00   S
ST10   6.80   1.00   P
ST11   8.70   1.00   P
ST12   5.00   1.00   P
ST13   3.97   1.00   S
ST14   3.68   1.00   P
ST15   2.40   1.00   P
ST16   8.48   1.00   S
ST17   4.95   1.00   P
ST17   8.25   1.00   S
ST18   2.80   1.00   P
ST19   2.07   1.00   P
ST19   3.46   1.00   S
ST20   4.74   1.00   P
ST21   2.19   1.00   P
ST22   4.89   1.00   P
ST23   1.48   1.00   P
ST24   3.73   1.00   P
ST25   1.87   1.00   P
ST26   3.75   1.00   P
# 2000 12 13 15 10 1.03 35.6728 -117.5103 5.76 1 0 0 0 72
ST0    4.13   1.00   P
ST4    4.51   1.00   P
ST4    7.66   1.00   S
ST5    7.12   1.00   P
ST6    5.28   1.00   P
ST7    4.07   1.00   P
ST7    7.10   1.00   S
ST8    5.26   1.00   P
ST8    9.04   1.00   S
ST9    5.97   1.00   P
ST9    10.30   1.00   S
ST10   7.27   1.00   P
ST11   9.17   1.00   P
ST12   5.59   1.00   P
ST14   3.93   1.00   P
ST15   1.83   1.00   P
ST15   3.22   1.00   S
ST17   7.37   1.00   S
ST19   1.53   1.00   P
ST19   2.64   1.00   S
ST20   5.28   1.00   P
ST21   2.83   1.00   P
ST21   4.90   1.00   S
ST22   5.45   1.00   P
ST23   1.92   1.00   P
ST25   2.04   1.00   P
ST25   3.50   1.00   S
ST26   4.93   1.00   S
# 2000 12 13 15 10 0.93 35.9260 -117.6854 4.90 1 0 0 0 73
ST0    8.85   1.00   P
ST1    5.04   1.00   S
ST2    6.69   1.00   P
ST3    2.64   1.00   P
ST4    8.00   1.00   P
ST5    4.41   1.00   P
ST6    6.25   1.00   P
ST6    10.42   1.00   S
ST7    4.94   1.00   P
ST7    8.35   1.00   S
ST8    3.26   1.00   P
ST9    6.69   1.00   P
ST10   2.85   1.00   P
ST10   4.59   1.00   S
ST11   4.76   1.00   P
ST11   8.22   1.00   S
ST13   10.71   1.00   S
ST15   10.12   1.00   S
ST16   8.40   1.00   P
ST16   14.28   1.00   S
ST17   8.77   1.00   P
ST17   14.96   1.00   S
ST18   6.73   1.00   P
ST19   10.53   1.00   S
ST20   2.27   1.00   S
ST21   3.67   1.00   P
ST23   7.53   1.00   S
ST24   13.11   1.00   S
ST25   8.22   1.00   S
ST26   7.78   1.00   P
# 2000 12 13 15 10 1.0 35.9283 -117.7166 5.46 1 0 0 0 74
ST0    9.16   1.00   P
ST1    3.41   1.00   P
ST1    5.61   1.00   S
ST2    6.71   1.00   P
ST2    11.60   1.00   S
ST3    2.24   1.00   P
ST4    13.58   1.00   S
ST5    4.68   1.00   P
ST5    7.87   1.00   S
ST6    6.59   1.00   P
ST6    11.02   1.00   S
ST7    4.87   1.00   P
ST8    3.14   1.00   P
ST8    5.16   1.00   S
ST9    6.49   1.00   P
ST9    11.13   1.00   S
ST10   2.42   1.00   P
ST11   4.35   1.00   P
ST12   1.77   1.00   P
ST13   6.66   1.00   P
ST13   11.27   1.00   S
ST14   5.87   1.00   P
ST14   9.81   1.00   S
ST15   6.08   1.00   P
ST16   8.42   1.00   P
ST17   8.98   1.00   P
ST17   15.18   1.00   S
ST18   6.91   1.00   P
ST19   6.39   1.00   P
ST20   1.49   1.00   P
ST20   2.54   1.00   S
ST21   3.98   1.00   P
ST22   1.20   1.00   P
ST22   1.97   1.00   S
ST23   4.73   1.00   P
ST23   8.00   1.00   S
ST24   7.86   1.00   P
ST24   13.35   1.00   S
ST25   4.91   1.00   P
ST25   8.21   1.00   S
ST26   8.01   1.00   P
# 2000 12 13 15 10 0.97 35.7445 -117.5596 3.95 1 0 0 0 75
ST0    5.67   1.00   P
ST0    9.65   1.00   S
ST1    2.11   1.00   P
ST1    3.59   1.00   S
ST3    10.35   1.00   S
ST4    5.43   1.00   P
ST5    10.50   1.00   S
ST6    8.91   1.00   S
ST7    3.73   1.00   P
ST8    4.34   1.00   P
ST9    5.99   1.00   P
ST10   6.25   1.00   P
ST10   10.58   1.00   S
ST12   4.47   1.00   P
ST12   7.49   1.00   S
ST13   5.18   1.00   S
ST14   3.94   1.00   P
ST15   2.68   1.00   P
ST16   5.32   1.00   P
ST16   8.94   1.00   S
ST17   5.68   1.00   P
ST17   9.60   1.00   S
ST18   3.29   1.00   P
ST21   1.29   1.00   P
ST22   7.36   1.00   S
ST23   0.93   1.00   P
ST23   1.49   1.00   S
ST24   4.49   1.00   P
ST26   4.41   1.00   P
ST26   7.51   1.00   S
