# 2000 12 13 15 10 0.97 35.7311 -117.5321 6.26 1 0 0 0 175
ST0    5.10   1.00   P
ST1    2.57   1.00   P
ST1    4.18   1.00   S
ST2    9.63   1.00   P
ST2    16.25   1.00   S
ST4    8.98   1.00   S
ST5    6.22   1.00   P
ST5    10.46   1.00   S
ST6    4.97   1.00   P
ST6    8.22   1.00   S
ST7    3.86   1.00   P
ST9    10.21   1.00   S
ST10   6.34   1.00   P
ST12   4.66   1.00   P
ST13   2.61   1.00   P
ST13   4.47   1.00   S
ST15   2.48   1.00   P
ST16   4.94   1.00   P
ST16   8.31   1.00   S
ST18   4.98   1.00   S
ST19   2.34   1.00   P
ST19   4.02   1.00   S
ST21   1.98   1.00   P
ST21   3.20   1.00   S
ST22   4.48   1.00   P
ST22   7.56   1.00   S
ST23   1.45   1.00   P
ST23   2.45   1.00   S
ST24   3.93   1.00   P
ST24   6.50   1.00   S
ST25   3.18   1.00   S
ST26   6.66   1.00   S
# 2000 12 13 15 10 1.0 35.7535 -117.5648 5.70 1 0 0 0 176
ST0    5.72   1.00   P
ST1    1.82   1.00   P
ST1    3.22   1.00   S
ST2    9.21   1.00   P
ST3    9.56   1.00   S
ST4    5.51   1.00   P
ST6    5.09   1.00   P
ST7    6.15   1.00   S
ST8    3.98   1.00   P
ST9    5.81   1.00   P
ST9    9.89   1.00   S
ST11   13.50   1.00   S
ST13   3.15   1.00   P
ST15   2.81   1.00   P
ST15   4.79   1.00   S
ST16   5.32   1.00   P
ST16   9.05   1.00   S
ST17   5.69   1.00   P
ST19   2.91   1.00   P
ST20   3.75   1.00   P
ST21   1.34   1.00   P
ST22   3.91   1.00   P
ST22   6.65   1.00   S
ST23   1.31   1.00   P
ST23   2.30   1.00   S
ST24   7.60   1.00   S
# 2000 12 13 15 10 0.95 35.9194 -117.6868 5.54 1 0 0 0 177
ST0    8.83   1.00   P
ST1    2.98   1.00   P
ST1    4.90   1.00   S
ST2    6.72   1.00   P
ST2    11.53   1.00   S
ST3    2.67   1.00   P
ST3    4.56   1.00   S
ST4    7.90   1.00   P
ST5    4.40   1.00   P
ST6    6.19   1.00   P
ST6    10.35   1.00   S
ST8    5.28   1.00   S
ST9    6.58   1.00   P
ST9    11.15   1.00   S
ST10   2.80   1.00   P
ST11   8.38   1.00   S
ST12   1.56   1.00   P
ST13   6.21   1.00   P
ST13   10.56   1.00   S
ST14   5.40   1.00   P
ST15   5.86   1.00   P
ST15   10.05   1.00   S
ST16   8.23   1.00   P
ST16   14.05   1.00   S
ST17   8.67   1.00   P
ST17   14.57   1.00   S
ST18   6.64   1.00   P
ST19   6.08   1.00   P
ST20   1.37   1.00   P
ST21   3.61   1.00   P
ST21   5.87   1.00   S
ST22   1.19   1.00   P
ST23   4.41   1.00   P
ST24   7.55   1.00   P
ST25   7.97   1.00   S
# 2000 12 13 15 10 0.91 35.6654 -117.4903 2.18 1 0 0 0 178
ST0    6.98   1.00   S
ST1    3.98   1.00   P
ST1    6.59   1.00   S
ST3    7.80   1.00   P
ST4    8.28   1.00   S
ST5    7.53   1.00   P
ST7    4.83   1.00   P
ST7    8.24   1.00   S
ST8    5.97   1.00   P
ST8    10.26   1.00   S
ST9    6.75   1.00   P
ST10   7.94   1.00   P
ST11   17.14   1.00   S
ST12   6.20   1.00   P
ST13   1.52   1.00   P
ST13   2.34   1.00   S
ST14   4.13   1.00   P
ST15   1.90   1.00   P
ST15   3.15   1.00   S
ST16   4.28   1.00   P
ST18   1.67   1.00   P
ST18   2.77   1.00   S
ST19   0.89   1.00   P
ST20   5.92   1.00   P
ST20   10.02   1.00   S
ST21   3.16   1.00   P
ST22   6.13   1.00   P
ST23   2.21   1.00   P
ST24   2.75   1.00   P
ST24   4.58   1.00   S
ST25   4.02   1.00   S
ST26   2.70   1.00   P
# 2000 12 13 15 10 0.92 35.9661 -117.6930 4.82 1 0 0 0 179
ST0    9.51   1.00   P
ST0    16.02   1.00   S
ST1    3.73   1.00   P
ST2    6.17   1.00   P
ST4    8.56   1.00   P
ST5    4.19   1.00   P
ST7    5.54   1.00   P
ST8    3.84   1.00   P
ST8    6.51   1.00   S
ST10   3.48   1.00   S
ST11   4.10   1.00   P
ST12   2.20   1.00   S
ST13   11.67   1.00   S
ST14   9.73   1.00   S
ST15   6.64   1.00   P
ST15   11.27   1.00   S
ST16   8.98   1.00   P
ST17   9.30   1.00   P
ST19   6.81   1.00   P
ST19   11.56   1.00   S
ST21   4.41   1.00   P
ST21   7.40   1.00   S
ST22   2.75   1.00   S
ST23   5.20   1.00   P
ST24   8.29   1.00   P
ST24   13.96   1.00   S
ST25   5.47   1.00   P
ST25   9.52   1.00   S
ST26   14.19   1.00   S
# 2000 12 13 15 10 1.09 35.5947 -117.4221 5.72 1 0 0 0 180
ST1    5.25   1.00   P
ST2    12.01   1.00   P
ST2    20.27   1.00   S
ST5    8.43   1.00   P
ST5    14.13   1.00   S
ST6    5.74   1.00   P
ST7    5.69   1.00   P
ST8    7.08   1.00   P
ST9    7.30   1.00   P
ST10   9.10   1.00   P
ST11   11.05   1.00   P
ST12   7.33   1.00   P
ST14   4.60   1.00   P
ST14   7.86   1.00   S
ST15   2.72   1.00   P
ST15   4.71   1.00   S
ST16   3.39   1.00   P
ST16   5.54   1.00   S
ST17   4.74   1.00   S
ST18   1.62   1.00   P
ST19   2.91   1.00   S
ST20   7.12   1.00   P
ST21   4.64   1.00   P
ST22   7.31   1.00   P
ST23   6.37   1.00   S
ST24   2.29   1.00   S
ST25   3.82   1.00   P
ST25   6.59   1.00   S
# 2000 12 13 15 10 0.99 35.9136 -117.7417 6.44 1 0 0 0 181
ST0    9.00   1.00   P
ST1    3.38   1.00   P
ST1    5.57   1.00   S
ST2    7.00   1.00   P
ST2    12.08   1.00   S
ST3    2.21   1.00   P
ST3    3.61   1.00   S
ST4    7.58   1.00   P
ST4    13.09   1.00   S
ST5    4.98   1.00   P
ST7    4.52   1.00   P
ST7    7.80   1.00   S
ST8    4.69   1.00   S
ST10   2.67   1.00   P
ST11   4.40   1.00   P
ST11   7.69   1.00   S
ST12   2.16   1.00   P
ST12   3.48   1.00   S
ST13   6.54   1.00   P
ST14   5.99   1.00   P
ST16   8.26   1.00   P
ST17   8.97   1.00   P
ST18   6.78   1.00   P
ST18   11.59   1.00   S
ST19   6.31   1.00   P
ST20   1.62   1.00   P
ST22   1.54   1.00   P
ST22   2.43   1.00   S
ST23   4.55   1.00   P
ST23   7.98   1.00   S
ST24   7.84   1.00   P
ST25   4.74   1.00   P
ST26   7.86   1.00   P
ST26   13.33   1.00   S
# 2000 12 13 15 10 1.0 35.9378 -117.7051 6.47 1 0 0 0 182
ST1    3.25   1.00   P
ST1    5.54   1.00   S
ST2    6.44   1.00   P
ST2    11.26   1.00   S
ST3    2.20   1.00   P
ST5    4.35   1.00   P
ST6    6.43   1.00   P
ST7    4.93   1.00   P
ST7    8.50   1.00   S
ST8    3.26   1.00   P
ST8    5.49   1.00   S
ST9    6.58   1.00   P
ST9    11.18   1.00   S
ST11   4.23   1.00   P
ST12   1.65   1.00   P
ST13   6.49   1.00   P
ST13   11.14   1.00   S
ST14   5.65   1.00   P
ST14   9.57   1.00   S
ST15   10.40   1.00   S
ST16   8.48   1.00   P
ST17   8.93   1.00   P
ST18   6.85   1.00   P
ST19   6.38   1.00   P
ST20   2.76   1.00   S
ST21   3.93   1.00   P
ST21   6.73   1.00   S
ST26   7.88   1.00   P
ST26   13.33   1.00   S
# 2000 12 13 15 10 0.94 35.6971 -117.5063 5.65 1 0 0 0 183
ST0    4.38   1.00   P
ST0    7.47   1.00   S
ST1    5.19   1.00   S
ST2    17.37   1.00   S
ST3    6.97   1.00   P
ST3    11.80   1.00   S
ST4    4.94   1.00   P
ST4    8.38   1.00   S
ST5    11.39   1.00   S
ST7    4.23   1.00   P
ST7    7.28   1.00   S
ST9    6.33   1.00   P
ST9    10.78   1.00   S
ST10   7.20   1.00   P
ST10   12.19   1.00   S
ST11   9.02   1.00   P
ST12   9.07   1.00   S
ST13   3.45   1.00   S
ST14   6.26   1.00   S
ST15   3.56   1.00   S
ST16   7.48   1.00   S
ST17   4.46   1.00   P
ST18   2.36   1.00   P
ST19   2.74   1.00   S
ST21   2.61   1.00   P
ST21   4.33   1.00   S
ST23   1.80   1.00   P
ST23   2.97   1.00   S
ST24   3.21   1.00   P
ST24   5.41   1.00   S
ST25   2.09   1.00   P
ST26   5.31   1.00   S
# 2000 12 13 15 10 0.86 35.9769 -117.6568 4.25 1 0 0 0 184
ST0    9.57   1.00   P
ST1    3.72   1.00   P
ST1    6.13   1.00   S
ST2    5.87   1.00   P
ST2    9.95   1.00   S
ST4    8.97   1.00   P
ST5    3.67   1.00   P
ST5    6.11   1.00   S
ST6    6.09   1.00   P
ST6    10.14   1.00   S
ST8    4.30   1.00   P
ST9    7.68   1.00   P
ST10   2.47   1.00   P
ST10   3.98   1.00   S
ST11   4.36   1.00   P
ST11   7.62   1.00   S
ST12   1.07   1.00   P
ST12   1.65   1.00   S
ST13   6.83   1.00   P
ST14   5.58   1.00   P
ST15   6.78   1.00   P
ST15   11.49   1.00   S
ST16   9.17   1.00   P
ST16   15.68   1.00   S
ST17   9.19   1.00   P
ST17   15.40   1.00   S
ST18   7.52   1.00   P
ST18   12.71   1.00   S
ST20   2.53   1.00   P
ST21   7.46   1.00   S
ST22   2.20   1.00   P
ST23   5.29   1.00   P
ST25   9.56   1.00   S
ST26   8.39   1.00   P
# 2000 12 13 15 10 0.96 35.9430 -117.6682 4.58 1 0 0 0 185
ST0    9.11   1.00   P
ST1    3.20   1.00   P
ST2    6.55   1.00   P
ST6    6.17   1.00   P
ST6    10.27   1.00   S
ST7    5.22   1.00   P
ST8    3.63   1.00   P
ST8    6.09   1.00   S
ST10   4.35   1.00   S
ST11   4.77   1.00   P
ST12   1.09   1.00   P
ST12   1.73   1.00   S
ST14   5.50   1.00   P
ST14   9.07   1.00   S
ST16   8.60   1.00   P
ST16   14.63   1.00   S
ST17   8.82   1.00   P
ST19   6.36   1.00   P
ST20   1.58   1.00   P
ST21   3.92   1.00   P
ST22   1.24   1.00   P
ST23   4.72   1.00   P
ST24   13.15   1.00   S
ST25   5.00   1.00   P
ST26   13.30   1.00   S
# 2000 12 13 15 10 0.92 35.8903 -117.6814 9.02 1 0 0 0 186
ST0    8.33   1.00   P
ST0    13.98   1.00   S
ST1    2.65   1.00   P
ST3    3.05   1.00   P
ST3    5.08   1.00   S
ST4    7.29   1.00   P
ST4    12.58   1.00   S
ST5    7.90   1.00   S
ST6    6.06   1.00   P
ST8    2.85   1.00   P
ST8    4.72   1.00   S
ST9    6.07   1.00   P
ST10   3.30   1.00   P
ST11   5.13   1.00   P
ST11   8.93   1.00   S
ST13   5.77   1.00   P
ST13   9.73   1.00   S
ST14   5.19   1.00   P
ST14   8.76   1.00   S
ST15   5.25   1.00   P
ST15   9.03   1.00   S
ST18   6.10   1.00   P
ST18   10.37   1.00   S
ST19   5.54   1.00   P
ST19   9.37   1.00   S
ST20   1.65   1.00   P
ST21   3.19   1.00   P
ST22   1.59   1.00   P
ST23   3.91   1.00   P
ST23   6.53   1.00   S
ST25   4.10   1.00   P
ST25   7.05   1.00   S
ST26   7.13   1.00   P
# 2000 12 13 15 10 0.94 35.9501 -117.6860 4.29 1 0 0 0 187
ST0    9.28   1.00   P
ST0    15.60   1.00   S
ST3    2.38   1.00   P
ST5    4.25   1.00   P
ST7    5.35   1.00   P
ST8    3.70   1.00   P
ST9    7.11   1.00   P
ST12   1.12   1.00   P
ST12   1.84   1.00   S
ST13   6.67   1.00   P
ST14   9.50   1.00   S
ST15   6.40   1.00   P
ST16   8.78   1.00   P
ST16   14.92   1.00   S
ST17   9.11   1.00   P
ST18   7.21   1.00   P
ST19   10.95   1.00   S
ST22   1.44   1.00   P
ST22   2.28   1.00   S
ST24   13.64   1.00   S
ST25   5.27   1.00   P
ST26   8.19   1.00   P
ST26   13.78   1.00   S
# 2000 12 13 15 10 0.9 35.9429 -117.6908 4.83 1 0 0 0 188
ST0    9.21   1.00   P
ST1    3.41   1.00   P
ST1    5.63   1.00   S
ST2    6.49   1.00   P
ST3    2.37   1.00   P
ST4    14.15   1.00   S
ST5    4.37   1.00   P
ST6    6.46   1.00   P
ST6    10.68   1.00   S
ST7    5.24   1.00   P
ST7    8.73   1.00   S
ST9    6.94   1.00   P
ST10   2.44   1.00   P
ST10   4.09   1.00   S
ST13   11.22   1.00   S
ST14   9.57   1.00   S
ST16   8.64   1.00   P
ST18   7.08   1.00   P
ST18   12.03   1.00   S
ST19   6.51   1.00   P
ST19   11.02   1.00   S
ST20   2.85   1.00   S
ST21   4.12   1.00   P
ST22   2.14   1.00   S
ST23   4.86   1.00   P
ST25   8.81   1.00   S
ST26   8.02   1.00   P
# 2000 12 13 15 10 0.92 35.9229 -117.7313 6.88 1 0 0 0 189
ST0    15.26   1.00   S
ST1    3.41   1.00   P
ST2    11.67   1.00   S
ST3    3.67   1.00   S
ST4    7.81   1.00   P
ST4    13.28   1.00   S
ST7    8.06   1.00   S
ST9    6.39   1.00   P
ST10   2.54   1.00   P
ST11   4.41   1.00   P
ST12   1.97   1.00   P
ST13   6.54   1.00   P
ST14   5.87   1.00   P
ST14   9.83   1.00   S
ST15   6.01   1.00   P
ST15   10.27   1.00   S
ST16   8.33   1.00   P
ST16   14.20   1.00   S
ST17   8.92   1.00   P
ST17   15.17   1.00   S
ST18   6.86   1.00   P
ST19   10.93   1.00   S
ST20   1.70   1.00   P
ST20   2.76   1.00   S
ST21   6.62   1.00   S
ST22   1.53   1.00   P
ST22   2.50   1.00   S
ST23   4.67   1.00   P
ST23   7.76   1.00   S
ST25   4.87   1.00   P
ST25   8.21   1.00   S
ST26   7.90   1.00   P
ST26   13.30   1.00   S
# 2000 12 13 15 10 0.94 35.7207 -117.5435 5.00 1 0 0 0 190
ST0    5.13   1.00   P
ST1    2.57   1.00   P
ST2    9.87   1.00   P
ST2    16.72   1.00   S
ST3    6.25   1.00   P
ST4    8.66   1.00   S
ST5    6.53   1.00   P
ST6    5.24   1.00   P
ST6    8.87   1.00   S
ST8    4.49   1.00   P
ST8    7.66   1.00   S
ST9    5.85   1.00   P
ST9    10.00   1.00   S
ST10   6.42   1.00   P
ST11   8.39   1.00   P
ST11   14.48   1.00   S
ST14   3.94   1.00   P
ST14   6.72   1.00   S
ST15   2.26   1.00   P
ST15   3.87   1.00   S
ST16   4.89   1.00   P
ST16   8.21   1.00   S
ST17   5.28   1.00   P
ST18   2.88   1.00   P
ST19   3.95   1.00   S
ST20   4.41   1.00   P
ST21   1.89   1.00   P
ST21   3.03   1.00   S
ST22   7.89   1.00   S
ST23   1.25   1.00   P
ST23   1.90   1.00   S
ST24   6.62   1.00   S
ST25   2.63   1.00   S
ST26   3.96   1.00   P
ST26   6.62   1.00   S
# 2000 12 13 15 10 0.93 35.6062 -117.5791 3.79 1 0 0 0 191
ST0    4.41   1.00   P
ST1    4.53   1.00   P
ST1    7.62   1.00   S
ST2    11.79   1.00   P
ST2    20.11   1.00   S
ST3    7.76   1.00   P
ST3    13.36   1.00   S
ST6    6.84   1.00   P
ST7    6.62   1.00   S
ST10   8.09   1.00   P
ST10   13.87   1.00   S
ST11   9.89   1.00   P
ST12   6.65   1.00   P
ST12   11.24   1.00   S
ST13   3.10   1.00   P
ST14   9.59   1.00   S
ST16   2.81   1.00   P
ST17   5.16   1.00   P
ST17   8.68   1.00   S
ST18   1.80   1.00   P
ST18   3.04   1.00   S
ST19   2.22   1.00   P
ST19   3.93   1.00   S
ST20   10.36   1.00   S
ST21   3.64   1.00   P
ST21   6.30   1.00   S
ST22   6.29   1.00   P
ST23   2.74   1.00   P
ST23   4.49   1.00   S
ST24   3.73   1.00   P
ST25   4.09   1.00   S
# 2000 12 13 15 10 0.96 35.9015 -117.6692 5.67 1 0 0 0 192
ST0    8.48   1.00   P
ST1    2.55   1.00   P
ST1    4.16   1.00   S
ST2    7.01   1.00   P
ST2    11.93   1.00   S
ST3    3.09   1.00   P
ST4    7.53   1.00   P
ST4    12.88   1.00   S
ST6    6.00   1.00   P
ST6    10.00   1.00   S
ST7    4.53   1.00   P
ST8    5.09   1.00   S
ST10   3.17   1.00   P
ST10   5.31   1.00   S
ST11   5.14   1.00   P
ST11   8.87   1.00   S
ST12   1.65   1.00   P
ST13   5.85   1.00   P
ST14   5.08   1.00   P
ST15   9.36   1.00   S
ST16   7.85   1.00   P
ST18   6.34   1.00   P
ST18   10.67   1.00   S
ST19   5.74   1.00   P
ST19   9.71   1.00   S
ST20   1.27   1.00   P
ST21   3.26   1.00   P
ST21   5.34   1.00   S
ST22   1.27   1.00   P
ST23   3.98   1.00   P
ST23   6.98   1.00   S
ST24   7.21   1.00   P
ST25   4.32   1.00   P
ST25   7.34   1.00   S
ST26   7.28   1.00   P
# 2000 12 13 15 10 0.96 35.8805 -117.6855 8.25 1 0 0 0 193
ST1    2.54   1.00   P
ST1    4.17   1.00   S
ST2    7.30   1.00   P
ST2    12.34   1.00   S
ST4    7.15   1.00   P
ST4    12.11   1.00   S
ST5    4.80   1.00   P
ST5    8.01   1.00   S
ST6    6.07   1.00   P
ST7    4.11   1.00   P
ST8    2.75   1.00   P
ST9    5.96   1.00   P
ST10   3.38   1.00   P
ST10   5.65   1.00   S
ST11   5.18   1.00   P
ST12   2.13   1.00   P
ST12   3.44   1.00   S
ST13   5.66   1.00   P
ST13   9.59   1.00   S
ST14   5.25   1.00   P
ST15   5.16   1.00   P
ST15   8.94   1.00   S
ST16   7.52   1.00   P
ST18   5.98   1.00   P
ST18   10.19   1.00   S
ST19   5.45   1.00   P
ST20   1.57   1.00   P
ST20   2.59   1.00   S
ST21   3.06   1.00   P
ST21   5.03   1.00   S
ST22   1.62   1.00   P
ST22   2.69   1.00   S
ST23   6.50   1.00   S
ST24   11.78   1.00   S
ST26   6.96   1.00   P
# 2000 12 13 15 10 0.85 35.9770 -117.6519 3.95 1 0 0 0 194
ST0    9.56   1.00   P
ST0    15.94   1.00   S
ST1    3.76   1.00   P
ST1    5.98   1.00   S
ST2    5.90   1.00   P
ST2    10.00   1.00   S
ST3    2.81   1.00   P
ST5    3.69   1.00   P
ST6    6.09   1.00   P
ST7    5.95   1.00   P
ST7    10.10   1.00   S
ST8    4.42   1.00   P
ST8    7.46   1.00   S
ST9    7.74   1.00   P
ST9    13.03   1.00   S
ST10   2.49   1.00   P
ST10   4.03   1.00   S
ST11   4.45   1.00   P
ST12   1.09   1.00   P
ST12   1.66   1.00   S
ST13   11.50   1.00   S
ST14   9.14   1.00   S
ST15   6.79   1.00   P
ST15   11.56   1.00   S
ST16   9.23   1.00   P
ST17   15.37   1.00   S
ST19   6.83   1.00   P
ST20   4.06   1.00   S
ST21   7.42   1.00   S
ST22   2.18   1.00   P
ST22   3.61   1.00   S
ST23   8.82   1.00   S
ST24   8.30   1.00   P
ST25   5.62   1.00   P
ST26   8.41   1.00   P
ST26   14.08   1.00   S
# 2000 12 13 15 10 1.03 35.6869 -117.5116 6.70 1 0 0 0 195
ST0    4.24   1.00   P
ST1    3.29   1.00   P
ST1    5.54   1.00   S
ST3    6.84   1.00   P
ST3    11.65   1.00   S
ST4    4.67   1.00   P
ST5    6.88   1.00   P
ST6    8.63   1.00   S
ST7    4.00   1.00   P
ST9    6.07   1.00   P
ST10   7.14   1.00   P
ST11   8.91   1.00   P
ST12   5.37   1.00   P
ST13   3.56   1.00   S
ST14   3.82   1.00   P
ST14   6.54   1.00   S
ST15   3.41   1.00   S
ST16   4.16   1.00   P
ST17   4.44   1.00   P
ST18   3.71   1.00   S
ST20   5.09   1.00   P
ST20   8.90   1.00   S
ST21   4.54   1.00   S
ST22   8.85   1.00   S
ST23   1.88   1.00   P
ST24   3.16   1.00   P
ST25   3.53   1.00   S
ST26   3.10   1.00   P
ST26   5.22   1.00   S
# 2000 12 13 15 10 1.02 35.6709 -117.4587 5.99 1 0 0 0 196
ST0    3.61   1.00   P
ST0    6.21   1.00   S
ST2    10.70   1.00   P
ST3    7.61   1.00   P
ST3    13.05   1.00   S
ST4    4.98   1.00   P
ST5    7.15   1.00   P
ST6    8.39   1.00   S
ST8    6.00   1.00   P
ST8    10.28   1.00   S
ST10   7.78   1.00   P
ST10   13.18   1.00   S
ST11   9.62   1.00   P
ST13   1.37   1.00   P
ST13   2.34   1.00   S
ST14   6.07   1.00   S
ST15   2.25   1.00   P
ST15   3.92   1.00   S
ST16   4.18   1.00   P
ST17   3.64   1.00   P
ST17   6.11   1.00   S
ST18   1.92   1.00   P
ST19   2.32   1.00   S
ST20   5.76   1.00   P
ST21   3.36   1.00   P
ST21   5.61   1.00   S
ST23   2.48   1.00   P
ST24   2.37   1.00   P
ST25   2.73   1.00   P
ST25   4.62   1.00   S
ST26   2.46   1.00   P
# 2000 12 13 15 10 1.0 35.6288 -117.4718 5.11 1 0 0 0 197
ST0    5.46   1.00   S
ST1    7.47   1.00   S
ST3    8.08   1.00   P
ST4    4.54   1.00   P
ST4    7.60   1.00   S
ST5    7.85   1.00   P
ST5    13.20   1.00   S
ST6    5.59   1.00   P
ST7    4.94   1.00   P
ST8    6.37   1.00   P
ST9    11.44   1.00   S
ST10   8.29   1.00   P
ST11   10.20   1.00   P
ST11   17.60   1.00   S
ST12   6.57   1.00   P
ST13   1.54   1.00   P
ST13   2.66   1.00   S
ST15   1.96   1.00   P
ST15   3.35   1.00   S
ST16   3.59   1.00   P
ST16   5.95   1.00   S
ST18   1.25   1.00   P
ST18   2.11   1.00   S
ST20   6.32   1.00   P
ST21   3.78   1.00   P
ST21   6.40   1.00   S
ST22   6.47   1.00   P
ST23   2.83   1.00   P
ST24   2.17   1.00   P
ST25   2.93   1.00   P
ST26   1.94   1.00   P
# 2000 12 13 15 10 1.04 35.6762 -117.5062 6.52 1 0 0 0 198
ST1    3.42   1.00   P
ST1    5.88   1.00   S
ST2    10.53   1.00   P
ST3    7.04   1.00   P
ST3    12.08   1.00   S
ST5    7.02   1.00   P
ST6    5.23   1.00   P
ST7    4.13   1.00   P
ST8    9.09   1.00   S
ST9    6.02   1.00   P
ST10   7.29   1.00   P
ST10   12.37   1.00   S
ST11   9.18   1.00   P
ST11   15.86   1.00   S
ST12   5.56   1.00   P
ST13   3.39   1.00   S
ST14   3.93   1.00   P
ST15   1.85   1.00   P
ST16   3.98   1.00   P
ST17   4.28   1.00   P
ST18   1.97   1.00   P
ST19   2.72   1.00   S
ST20   5.28   1.00   P
ST22   5.45   1.00   P
ST23   1.97   1.00   P
ST25   2.13   1.00   P
ST26   2.88   1.00   P
ST26   4.92   1.00   S
# 2000 12 13 15 10 0.98 35.8926 -117.6688 7.85 1 0 0 0 199
ST0    8.21   1.00   P
ST0    13.89   1.00   S
ST1    2.46   1.00   P
ST3    3.09   1.00   P
ST4    7.27   1.00   P
ST5    7.61   1.00   S
ST6    5.91   1.00   P
ST6    9.78   1.00   S
ST7    4.29   1.00   P
ST7    7.35   1.00   S
ST8    2.92   1.00   P
ST9    6.18   1.00   P
ST9    10.46   1.00   S
ST11   8.94   1.00   S
ST12   1.88   1.00   P
ST12   3.12   1.00   S
ST13   5.61   1.00   P
ST13   9.59   1.00   S
ST14   4.95   1.00   P
ST15   5.21   1.00   P
ST15   9.01   1.00   S
ST16   7.62   1.00   P
ST17   8.03   1.00   P
ST18   10.32   1.00   S
ST19   5.47   1.00   P
ST19   9.33   1.00   S
ST20   1.57   1.00   P
ST21   3.07   1.00   P
ST23   6.54   1.00   S
ST24   6.96   1.00   P
ST25   4.08   1.00   P
ST26   11.81   1.00   S
