# 2000 12 13 15 10 1.09 35.5910 -117.4220 4.88 1 0 0 0 76
ST0    2.13   1.00   P
ST1    9.08   1.00   S
ST2    12.12   1.00   P
ST2    20.25   1.00   S
ST3    9.03   1.00   P
ST4    4.74   1.00   P
ST4    8.10   1.00   S
ST5    8.53   1.00   P
ST6    5.82   1.00   P
ST7    5.77   1.00   P
ST8    7.20   1.00   P
ST9    7.38   1.00   P
ST10   9.20   1.00   P
ST10   15.63   1.00   S
ST11   11.14   1.00   P
ST11   19.23   1.00   S
ST13   1.95   1.00   P
ST14   4.67   1.00   P
ST15   2.73   1.00   P
ST16   3.43   1.00   P
ST17   4.80   1.00   S
ST18   2.77   1.00   S
ST19   1.83   1.00   P
ST20   7.24   1.00   P
ST20   12.29   1.00   S
ST21   4.75   1.00   P
ST22   12.51   1.00   S
ST23   3.79   1.00   P
ST24   1.23   1.00   P
ST24   2.25   1.00   S
ST25   3.91   1.00   P
ST25   6.61   1.00   S
ST26   0.96   1.00   P
# 2000 12 13 15 10 0.84 35.9568 -117.6817 4.43 1 0 0 0 77
ST0    9.46   1.00   P
ST1    3.55   1.00   P
ST1    5.86   1.00   S
ST2    10.70   1.00   S
ST3    2.56   1.00   P
ST3    3.97   1.00   S
ST4    8.64   1.00   P
ST4    14.62   1.00   S
ST5    4.19   1.00   P
ST5    6.84   1.00   S
ST6    6.40   1.00   P
ST7    9.44   1.00   S
ST8    6.42   1.00   S
ST9    7.27   1.00   P
ST9    12.25   1.00   S
ST10   3.94   1.00   S
ST13   6.81   1.00   P
ST14   5.71   1.00   P
ST14   9.45   1.00   S
ST15   6.53   1.00   P
ST16   8.95   1.00   P
ST19   6.71   1.00   P
ST19   11.15   1.00   S
ST20   3.17   1.00   S
ST22   2.56   1.00   S
ST23   5.07   1.00   P
ST23   8.50   1.00   S
ST24   8.12   1.00   P
ST25   5.38   1.00   P
ST25   9.21   1.00   S
ST26   13.89   1.00   S
# 2000 12 13 15 10 0.96 35.9211 -117.7062 7.35 1 0 0 0 78
ST0    8.85   1.00   P
ST0    14.88   1.00   S
ST1    3.15   1.00   P
ST1    5.25   1.00   S
ST2    11.49   1.00   S
ST3    4.11   1.00   S
ST4    7.78   1.00   P
ST4    13.15   1.00   S
ST5    4.65   1.00   P
ST5    7.49   1.00   S
ST6    6.39   1.00   P
ST6    10.62   1.00   S
ST7    4.70   1.00   P
ST7    7.91   1.00   S
ST8    3.06   1.00   P
ST10   2.68   1.00   P
ST10   4.44   1.00   S
ST11   4.54   1.00   P
ST12   2.94   1.00   S
ST13   6.31   1.00   P
ST13   10.68   1.00   S
ST14   5.57   1.00   P
ST15   5.85   1.00   P
ST16   8.18   1.00   P
ST16   13.81   1.00   S
ST17   14.64   1.00   S
ST18   11.35   1.00   S
ST19   6.09   1.00   P
ST19   10.42   1.00   S
ST20   2.63   1.00   S
ST21   3.73   1.00   P
ST22   1.49   1.00   P
ST23   4.44   1.00   P
ST23   7.55   1.00   S
ST24   7.62   1.00   P
ST24   12.90   1.00   S
ST25   7.97   1.00   S
# 2000 12 13 15 10 0.92 35.9106 -117.6666 4.89 1 0 0 0 79
ST0    14.59   1.00   S
ST1    2.70   1.00   P
ST1    4.45   1.00   S
ST2    11.71   1.00   S
ST3    3.08   1.00   P
ST3    5.12   1.00   S
ST4    7.72   1.00   P
ST5    4.49   1.00   P
ST6    9.90   1.00   S
ST7    8.17   1.00   S
ST8    5.35   1.00   S
ST10   3.18   1.00   P
ST11   5.14   1.00   P
ST11   8.87   1.00   S
ST12   2.41   1.00   S
ST13   10.22   1.00   S
ST14   5.28   1.00   P
ST15   5.68   1.00   P
ST16   8.10   1.00   P
ST16   13.73   1.00   S
ST17   8.42   1.00   P
ST19   5.89   1.00   P
ST19   9.99   1.00   S
ST20   1.35   1.00   P
ST21   3.40   1.00   P
ST21   5.66   1.00   S
ST22   1.22   1.00   P
ST22   1.83   1.00   S
ST23   4.21   1.00   P
ST23   7.07   1.00   S
ST25   4.47   1.00   P
ST25   7.63   1.00   S
ST26   12.62   1.00   S
# 2000 12 13 15 10 1.01 35.6532 -117.4557 3.49 1 0 0 0 80
ST0    3.45   1.00   P
ST1    4.31   1.00   P
ST2    11.20   1.00   P
ST3    8.03   1.00   P
ST5    7.64   1.00   P
ST6    8.89   1.00   S
ST7    5.07   1.00   P
ST8    6.29   1.00   P
ST8    10.80   1.00   S
ST9    6.93   1.00   P
ST11   10.11   1.00   P
ST11   17.57   1.00   S
ST13   1.14   1.00   P
ST14   4.05   1.00   P
ST15   2.13   1.00   P
ST16   6.76   1.00   S
ST17   3.64   1.00   P
ST17   6.02   1.00   S
ST19   1.51   1.00   S
ST20   6.20   1.00   P
ST21   3.73   1.00   P
ST22   6.33   1.00   P
ST22   10.92   1.00   S
ST23   4.43   1.00   S
ST24   2.10   1.00   P
ST26   2.05   1.00   P
# 2000 12 13 15 10 1.02 35.6400 -117.4311 5.16 1 0 0 0 81
ST0    3.04   1.00   P
ST1    4.61   1.00   P
ST1    7.80   1.00   S
ST2    11.34   1.00   P
ST4    4.95   1.00   P
ST5    7.82   1.00   P
ST5    13.00   1.00   S
ST6    5.31   1.00   P
ST6    8.99   1.00   S
ST7    5.39   1.00   P
ST7    9.39   1.00   S
ST8    6.62   1.00   P
ST9    7.21   1.00   P
ST10   8.52   1.00   P
ST10   14.39   1.00   S
ST11   10.42   1.00   P
ST12   6.74   1.00   P
ST13   2.06   1.00   S
ST14   4.02   1.00   P
ST14   6.68   1.00   S
ST15   2.55   1.00   P
ST15   4.31   1.00   S
ST16   6.57   1.00   S
ST17   3.11   1.00   P
ST17   5.21   1.00   S
ST18   2.78   1.00   S
ST21   4.10   1.00   P
ST21   6.83   1.00   S
ST22   6.70   1.00   P
ST23   3.13   1.00   P
ST23   5.33   1.00   S
ST24   1.66   1.00   P
ST25   5.65   1.00   S
ST26   2.84   1.00   S
# 2000 12 13 15 10 1.08 35.6020 -117.4179 5.74 1 0 0 0 82
ST0    2.28   1.00   P
ST1    5.15   1.00   P
ST2    20.15   1.00   S
ST3    8.78   1.00   P
ST4    7.93   1.00   S
ST5    8.38   1.00   P
ST5    14.09   1.00   S
ST6    9.68   1.00   S
ST7    5.61   1.00   P
ST7    9.64   1.00   S
ST8    6.99   1.00   P
ST9    12.51   1.00   S
ST10   8.99   1.00   P
ST10   15.32   1.00   S
ST11   10.93   1.00   P
ST11   18.84   1.00   S
ST12   7.25   1.00   P
ST12   12.24   1.00   S
ST13   1.90   1.00   P
ST13   3.17   1.00   S
ST14   4.51   1.00   P
ST14   7.64   1.00   S
ST15   2.62   1.00   P
ST17   2.81   1.00   P
ST18   1.57   1.00   P
ST19   1.77   1.00   P
ST20   7.01   1.00   P
ST21   4.56   1.00   P
ST22   7.19   1.00   P
ST22   12.19   1.00   S
ST23   3.60   1.00   P
ST23   6.09   1.00   S
ST24   1.39   1.00   P
ST25   3.71   1.00   P
ST26   2.04   1.00   S
# 2000 12 13 15 10 0.91 35.6686 -117.4809 2.46 1 0 0 0 83
ST0    4.18   1.00   P
ST1    4.05   1.00   P
ST1    6.62   1.00   S
ST2    11.07   1.00   P
ST3    7.86   1.00   P
ST4    5.16   1.00   P
ST4    8.60   1.00   S
ST5    7.56   1.00   P
ST6    5.40   1.00   P
ST7    4.97   1.00   P
ST8    6.09   1.00   P
ST9    6.90   1.00   P
ST11   17.19   1.00   S
ST12   6.20   1.00   P
ST12   10.37   1.00   S
ST14   6.91   1.00   S
ST15   2.03   1.00   P
ST16   4.39   1.00   P
ST17   4.28   1.00   P
ST18   1.72   1.00   P
ST19   0.83   1.00   P
ST19   1.16   1.00   S
ST20   6.05   1.00   P
ST20   10.13   1.00   S
ST21   3.37   1.00   P
ST22   10.35   1.00   S
ST23   2.32   1.00   P
ST25   2.53   1.00   P
ST26   2.65   1.00   P
ST26   4.44   1.00   S
# 2000 12 13 15 10 0.87 35.6801 -117.4551 3.24 1 0 0 0 84
ST0    4.06   1.00   P
ST3    7.91   1.00   P
ST4    5.41   1.00   P
ST5    7.23   1.00   P
ST6    5.03   1.00   P
ST6    8.42   1.00   S
ST7    5.10   1.00   P
ST7    8.70   1.00   S
ST8    6.15   1.00   P
ST8    10.77   1.00   S
ST9    7.03   1.00   P
ST9    12.06   1.00   S
ST10   7.92   1.00   P
ST11   9.88   1.00   P
ST11   16.91   1.00   S
ST12   6.07   1.00   P
ST14   3.75   1.00   P
ST14   6.28   1.00   S
ST15   2.43   1.00   P
ST15   3.97   1.00   S
ST16   4.44   1.00   P
ST16   7.57   1.00   S
ST17   6.53   1.00   S
ST18   2.07   1.00   P
ST18   3.32   1.00   S
ST19   1.25   1.00   P
ST19   2.01   1.00   S
ST20   5.93   1.00   P
ST20   9.95   1.00   S
ST21   5.70   1.00   S
ST22   6.11   1.00   P
ST23   2.47   1.00   P
ST23   4.17   1.00   S
ST24   2.65   1.00   P
ST25   2.82   1.00   P
ST25   4.57   1.00   S
ST26   4.55   1.00   S
# 2000 12 13 15 10 1.04 35.8764 -117.6977 5.92 1 0 0 0 85
ST0    14.02   1.00   S
ST1    2.49   1.00   P
ST1    4.22   1.00   S
ST2    7.42   1.00   P
ST3    3.10   1.00   P
ST4    7.07   1.00   P
ST5    5.02   1.00   P
ST5    8.52   1.00   S
ST6    6.24   1.00   P
ST8    2.39   1.00   P
ST8    4.02   1.00   S
ST9    10.03   1.00   S
ST10   3.40   1.00   P
ST12   2.16   1.00   P
ST14   9.08   1.00   S
ST15   5.16   1.00   P
ST15   9.03   1.00   S
ST17   8.18   1.00   P
ST17   13.80   1.00   S
ST18   6.00   1.00   P
ST18   10.35   1.00   S
ST19   5.50   1.00   P
ST20   1.81   1.00   S
ST21   3.00   1.00   P
ST22   1.33   1.00   P
ST22   2.26   1.00   S
ST23   3.74   1.00   P
ST23   6.42   1.00   S
ST24   7.02   1.00   P
ST24   12.05   1.00   S
ST25   4.04   1.00   P
# 2000 12 13 15 10 0.95 35.6687 -117.4750 4.67 1 0 0 0 86
ST0    6.51   1.00   S
ST1    3.90   1.00   P
ST1    6.67   1.00   S
ST3    7.65   1.00   P
ST3    12.93   1.00   S
ST4    4.99   1.00   P
ST4    8.40   1.00   S
ST6    5.15   1.00   P
ST7    4.78   1.00   P
ST7    8.18   1.00   S
ST9    6.71   1.00   P
ST10   7.89   1.00   P
ST11   16.78   1.00   S
ST12   6.01   1.00   P
ST14   3.92   1.00   P
ST14   6.48   1.00   S
ST15   2.09   1.00   P
ST16   4.20   1.00   P
ST16   7.04   1.00   S
ST17   3.94   1.00   P
ST18   2.98   1.00   S
ST19   1.09   1.00   P
ST20   5.84   1.00   P
ST20   9.85   1.00   S
ST22   5.97   1.00   P
ST23   2.40   1.00   P
ST23   3.86   1.00   S
ST24   2.59   1.00   P
ST24   4.34   1.00   S
ST25   2.51   1.00   P
ST25   4.22   1.00   S
ST26   2.56   1.00   P
# 2000 12 13 15 10 0.94 35.7163 -117.5274 4.03 1 0 0 0 87
ST0    5.09   1.00   P
ST1    2.78   1.00   P
ST2    10.08   1.00   P
ST2    16.92   1.00   S
ST3    11.21   1.00   S
ST4    8.82   1.00   S
ST5    6.62   1.00   P
ST5    11.15   1.00   S
ST6    5.22   1.00   P
ST6    8.95   1.00   S
ST7    7.01   1.00   S
ST8    4.85   1.00   P
ST8    8.30   1.00   S
ST9    6.14   1.00   P
ST10   6.79   1.00   P
ST11   8.70   1.00   P
ST12   8.49   1.00   S
ST13   2.41   1.00   P
ST14   3.87   1.00   P
ST14   6.52   1.00   S
ST15   2.28   1.00   P
ST16   4.80   1.00   P
ST16   8.08   1.00   S
ST17   5.11   1.00   P
ST17   8.50   1.00   S
ST18   2.68   1.00   P
ST18   4.56   1.00   S
ST19   2.10   1.00   P
ST19   3.32   1.00   S
ST20   4.73   1.00   P
ST20   8.06   1.00   S
ST22   4.96   1.00   P
ST23   1.18   1.00   P
ST24   3.84   1.00   P
ST24   6.41   1.00   S
ST25   1.58   1.00   P
ST26   3.78   1.00   P
# 2000 12 13 15 10 0.91 35.9038 -117.6841 5.13 1 0 0 0 88
ST0    8.63   1.00   P
ST0    14.43   1.00   S
ST1    2.75   1.00   P
ST2    7.06   1.00   P
ST2    11.96   1.00   S
ST3    4.87   1.00   S
ST4    7.63   1.00   P
ST6    6.18   1.00   P
ST8    3.00   1.00   P
ST9    6.39   1.00   P
ST10   3.10   1.00   P
ST10   5.34   1.00   S
ST11   5.05   1.00   P
ST11   8.82   1.00   S
ST13   6.03   1.00   P
ST14   5.35   1.00   P
ST14   9.01   1.00   S
ST15   5.60   1.00   P
ST15   9.63   1.00   S
ST16   7.99   1.00   P
ST17   8.49   1.00   P
ST17   14.26   1.00   S
ST18   6.40   1.00   P
ST19   9.95   1.00   S
ST20   1.25   1.00   P
ST20   1.84   1.00   S
ST21   3.39   1.00   P
ST23   4.15   1.00   P
ST23   7.05   1.00   S
ST24   12.52   1.00   S
ST25   7.55   1.00   S
ST26   12.44   1.00   S
# 2000 12 13 15 10 1.04 35.8865 -117.7023 5.67 1 0 0 0 89
ST0    8.49   1.00   P
ST0    14.15   1.00   S
ST1    2.69   1.00   P
ST1    4.45   1.00   S
ST2    12.53   1.00   S
ST3    2.86   1.00   P
ST3    4.91   1.00   S
ST4    7.25   1.00   P
ST4    12.72   1.00   S
ST5    4.98   1.00   P
ST5    8.22   1.00   S
ST6    6.36   1.00   P
ST6    10.78   1.00   S
ST7    7.13   1.00   S
ST8    2.47   1.00   P
ST8    4.14   1.00   S
ST9    5.94   1.00   P
ST11   5.06   1.00   P
ST11   8.89   1.00   S
ST12   2.13   1.00   P
ST13   5.94   1.00   P
ST14   9.32   1.00   S
ST15   9.09   1.00   S
ST16   7.67   1.00   P
ST16   13.16   1.00   S
ST18   6.22   1.00   P
ST19   5.69   1.00   P
ST19   9.73   1.00   S
ST20   1.04   1.00   P
ST21   3.20   1.00   P
ST22   1.18   1.00   P
ST22   1.84   1.00   S
ST23   6.80   1.00   S
ST24   7.27   1.00   P
ST24   12.39   1.00   S
ST25   4.18   1.00   P
ST26   7.25   1.00   P
ST26   12.28   1.00   S
# 2000 12 13 15 10 1.05 35.6261 -117.4301 5.05 1 0 0 0 90
ST0    2.78   1.00   P
ST0    4.68   1.00   S
ST1    4.75   1.00   P
ST1    8.04   1.00   S
ST2    11.57   1.00   P
ST3    8.50   1.00   P
ST3    14.38   1.00   S
ST5    7.99   1.00   P
ST6    9.08   1.00   S
ST7    9.37   1.00   S
ST8    6.71   1.00   P
ST8    11.56   1.00   S
ST9    7.18   1.00   P
ST10   8.65   1.00   P
ST10   14.61   1.00   S
ST12   11.43   1.00   S
ST13   1.44   1.00   P
ST13   2.40   1.00   S
ST14   4.22   1.00   P
ST15   2.47   1.00   P
ST15   4.21   1.00   S
ST16   3.63   1.00   P
ST18   1.51   1.00   P
ST18   2.67   1.00   S
ST19   1.38   1.00   P
ST19   2.45   1.00   S
ST20   6.67   1.00   P
ST21   4.23   1.00   P
ST21   7.08   1.00   S
ST22   6.90   1.00   P
ST22   11.66   1.00   S
ST24   1.55   1.00   P
ST24   2.65   1.00   S
ST25   3.37   1.00   P
ST25   5.78   1.00   S
ST26   1.49   1.00   P
# 2000 12 13 15 10 0.95 35.9100 -117.6724 5.11 1 0 0 0 91
ST0    14.31   1.00   S
ST1    2.63   1.00   P
ST1    4.38   1.00   S
ST2    7.01   1.00   P
ST2    11.81   1.00   S
ST3    4.97   1.00   S
ST4    7.67   1.00   P
ST4    13.22   1.00   S
ST5    4.50   1.00   P
ST6    6.05   1.00   P
ST7    4.70   1.00   P
ST8    3.19   1.00   P
ST8    5.34   1.00   S
ST9    6.61   1.00   P
ST10   3.06   1.00   P
ST10   5.23   1.00   S
ST11   5.08   1.00   P
ST12   2.43   1.00   S
ST14   5.12   1.00   P
ST15   5.63   1.00   P
ST16   8.05   1.00   P
ST16   13.81   1.00   S
ST17   8.40   1.00   P
ST17   14.16   1.00   S
ST18   6.40   1.00   P
ST19   5.83   1.00   P
ST20   2.09   1.00   S
ST24   12.40   1.00   S
ST25   4.43   1.00   P
ST25   7.63   1.00   S
ST26   7.42   1.00   P
# 2000 12 13 15 10 0.9 35.6718 -117.4857 2.09 1 0 0 0 92
ST1    6.75   1.00   S
ST2    18.67   1.00   S
ST3    7.89   1.00   P
ST3    13.33   1.00   S
ST4    8.65   1.00   S
ST5    12.70   1.00   S
ST6    5.53   1.00   P
ST7    4.99   1.00   P
ST8    10.33   1.00   S
ST9    7.00   1.00   P
ST10   13.63   1.00   S
ST11   9.95   1.00   P
ST12   6.28   1.00   P
ST12   10.47   1.00   S
ST13   2.23   1.00   S
ST14   4.25   1.00   P
ST14   7.10   1.00   S
ST16   4.48   1.00   P
ST16   7.42   1.00   S
ST17   4.48   1.00   P
ST17   7.33   1.00   S
ST18   1.74   1.00   P
ST19   0.81   1.00   P
ST21   3.29   1.00   P
ST21   5.36   1.00   S
ST22   10.49   1.00   S
ST23   3.55   1.00   S
ST24   2.80   1.00   P
ST26   4.59   1.00   S
# 2000 12 13 15 10 0.9 35.9494 -117.6890 4.53 1 0 0 0 93
ST0    9.35   1.00   P
ST1    3.49   1.00   P
ST2    6.41   1.00   P
ST2    11.00   1.00   S
ST3    2.42   1.00   P
ST3    3.92   1.00   S
ST4    8.38   1.00   P
ST5    7.00   1.00   S
ST6    6.42   1.00   P
ST6    10.76   1.00   S
ST7    5.37   1.00   P
ST7    9.10   1.00   S
ST8    3.70   1.00   P
ST9    12.02   1.00   S
ST10   3.96   1.00   S
ST12   1.18   1.00   P
ST13   6.66   1.00   P
ST13   11.43   1.00   S
ST14   5.71   1.00   P
ST15   6.42   1.00   P
ST16   14.84   1.00   S
ST18   7.19   1.00   P
ST20   1.82   1.00   P
ST20   2.93   1.00   S
ST21   4.14   1.00   P
ST22   1.46   1.00   P
ST22   2.18   1.00   S
ST24   8.10   1.00   P
ST25   5.22   1.00   P
ST25   8.68   1.00   S
ST26   8.19   1.00   P
# 2000 12 13 15 10 0.92 35.6534 -117.4554 1.60 1 0 0 0 94
ST0    3.73   1.00   P
ST0    6.19   1.00   S
ST1    4.69   1.00   P
ST2    11.58   1.00   P
ST3    8.51   1.00   P
ST3    14.27   1.00   S
ST6    5.55   1.00   P
ST7    9.41   1.00   S
ST9    7.36   1.00   P
ST11   10.49   1.00   P
ST12   6.75   1.00   P
ST12   11.34   1.00   S
ST14   4.26   1.00   P
ST15   2.32   1.00   P
ST16   4.31   1.00   P
ST16   7.09   1.00   S
ST17   3.81   1.00   P
ST17   6.31   1.00   S
ST18   2.59   1.00   S
ST19   0.80   1.00   P
ST20   11.22   1.00   S
ST21   3.93   1.00   P
ST23   2.93   1.00   P
ST24   3.34   1.00   S
ST26   3.25   1.00   S
# 2000 12 13 15 10 1.0 35.9065 -117.6978 6.95 1 0 0 0 95
ST0    8.52   1.00   P
ST0    14.46   1.00   S
ST1    2.89   1.00   P
ST1    4.77   1.00   S
ST2    6.96   1.00   P
ST3    2.65   1.00   P
ST6    6.26   1.00   P
ST7    4.50   1.00   P
ST8    2.79   1.00   P
ST8    4.57   1.00   S
ST9    10.42   1.00   S
ST10   4.91   1.00   S
ST11   4.75   1.00   P
ST11   8.30   1.00   S
ST13   6.01   1.00   P
ST13   10.45   1.00   S
ST14   5.39   1.00   P
ST14   9.06   1.00   S
ST15   5.52   1.00   P
ST15   9.50   1.00   S
ST16   7.84   1.00   P
ST16   13.33   1.00   S
ST17   8.43   1.00   P
ST17   14.29   1.00   S
ST19   5.83   1.00   P
ST19   10.07   1.00   S
ST20   1.43   1.00   P
ST21   3.43   1.00   P
ST22   1.42   1.00   P
ST23   4.19   1.00   P
ST23   7.10   1.00   S
ST25   4.37   1.00   P
ST26   7.35   1.00   P
ST26   12.60   1.00   S
# 2000 12 13 15 10 0.89 35.7150 -117.4841 4.42 1 0 0 0 96
ST0    7.83   1.00   S
ST1    3.14   1.00   P
ST1    5.24   1.00   S
ST2    10.10   1.00   P
ST4    5.50   1.00   P
ST4    9.29   1.00   S
ST5    6.50   1.00   P
ST5    10.89   1.00   S
ST7    4.67   1.00   P
ST8    5.45   1.00   P
ST10   7.11   1.00   P
ST11   9.05   1.00   P
ST11   15.73   1.00   S
ST12   5.31   1.00   P
ST12   8.80   1.00   S
ST13   1.91   1.00   P
ST13   3.04   1.00   S
ST14   3.39   1.00   P
ST14   5.70   1.00   S
ST15   2.59   1.00   P
ST15   4.44   1.00   S
ST16   8.33   1.00   S
ST18   2.71   1.00   P
ST18   4.47   1.00   S
ST19   1.89   1.00   P
ST19   3.06   1.00   S
ST20   5.19   1.00   P
ST20   8.71   1.00   S
ST21   2.66   1.00   P
ST21   4.37   1.00   S
ST22   5.33   1.00   P
ST22   8.93   1.00   S
ST23   1.87   1.00   P
ST24   3.41   1.00   P
ST25   3.88   1.00   S
# 2000 12 13 15 10 0.88 35.6746 -117.4700 2.20 1 0 0 0 97
ST1    4.13   1.00   P
ST1    6.85   1.00   S
ST2    11.06   1.00   P
ST4    5.38   1.00   P
ST5    7.51   1.00   P
ST6    8.93   1.00   S
ST7    5.13   1.00   P
ST7    8.78   1.00   S
ST8    6.17   1.00   P
ST9    12.14   1.00   S
ST10   8.10   1.00   P
ST10   13.65   1.00   S
ST12   10.45   1.00   S
ST13   1.17   1.00   P
ST13   1.57   1.00   S
ST14   4.02   1.00   P
ST15   2.25   1.00   P
ST15   3.77   1.00   S
ST16   4.56   1.00   P
ST16   7.50   1.00   S
ST17   6.99   1.00   S
ST18   3.20   1.00   S
ST22   6.25   1.00   P
ST23   2.40   1.00   P
ST23   4.19   1.00   S
ST24   2.66   1.00   P
ST24   4.50   1.00   S
ST25   2.72   1.00   P
ST25   4.40   1.00   S
ST26   2.73   1.00   P
# 2000 12 13 15 10 0.96 35.8908 -117.6809 7.33 1 0 0 0 98
ST0    8.25   1.00   P
ST0    13.95   1.00   S
ST1    2.59   1.00   P
ST2    7.12   1.00   P
ST3    3.03   1.00   P
ST3    5.14   1.00   S
ST4    7.27   1.00   P
ST5    7.84   1.00   S
ST6    6.09   1.00   P
ST6    10.15   1.00   S
ST7    4.21   1.00   P
ST7    7.24   1.00   S
ST8    2.76   1.00   P
ST9    6.08   1.00   P
ST11   5.11   1.00   P
ST13   5.75   1.00   P
ST13   9.75   1.00   S
ST14   8.70   1.00   S
ST15   5.22   1.00   P
ST15   9.05   1.00   S
ST16   7.60   1.00   P
ST18   6.10   1.00   P
ST18   10.31   1.00   S
ST19   5.52   1.00   P
ST19   9.35   1.00   S
ST20   2.46   1.00   S
ST22   2.48   1.00   S
ST23   6.50   1.00   S
ST24   11.90   1.00   S
ST25   4.10   1.00   P
ST25   7.00   1.00   S
ST26   7.09   1.00   P
ST26   12.09   1.00   S
# 2000 12 13 15 10 0.95 35.9382 -117.7089 6.53 1 0 0 0 99
ST0    9.16   1.00   P
ST1    3.35   1.00   P
ST1    5.63   1.00   S
ST2    6.50   1.00   P
ST3    3.71   1.00   S
ST4    8.09   1.00   P
ST5    4.41   1.00   P
ST6    6.42   1.00   P
ST7    4.95   1.00   P
ST8    3.28   1.00   P
ST10   2.39   1.00   P
ST11   4.30   1.00   P
ST12   1.69   1.00   P
ST13   6.57   1.00   P
ST13   11.14   1.00   S
ST14   5.73   1.00   P
ST14   9.71   1.00   S
ST15   10.47   1.00   S
ST16   8.43   1.00   P
ST17   8.97   1.00   P
ST18   6.95   1.00   P
ST18   11.72   1.00   S
ST19   10.91   1.00   S
ST20   1.76   1.00   P
ST20   2.87   1.00   S
ST21   3.99   1.00   P
ST21   6.72   1.00   S
ST22   1.51   1.00   P
ST22   2.43   1.00   S
ST23   4.71   1.00   P
ST23   7.89   1.00   S
ST24   13.30   1.00   S
ST25   4.93   1.00   P
ST25   8.69   1.00   S
