NLLOC "./loc/alaska.20001213.151002_018.grid0" "LOCATED" "Location completed."
PUBLIC_ID None
SIGNATURE "NonLinLoc - Yifan Yu   obs:./obs/phase.obs   NLLoc:v7.00.16(17Apr2023)   run:24Aug2023 11h42m29"
COMMENT "2023-8-21 test"
GRID  201 201 41  0 0 0  0.5 0.5 0.5 PROB_DENSITY
SEARCH OCTREE nInitial 400 nEvaluated 20008 smallestNodeSide 0.039062/0.039062/0.019531 oct_tree_integral 6.429467e-01 scatter_volume 6.410853e-01
HYPOCENTER  x 28.4961 y 60.1367 z 3.66211  OT 0.742771  ix -1 iy -1 iz -1 MAXIMUM_LIKELIHOOD
GEOGRAPHIC  OT 2000 12 13  15 10 0.742771  Lat 35.940822 Long -117.683469 Depth 3.662109
QUALITY  Pmax 2.57578e+95 MFmin 49.9568 MFmax 52.4478 RMS 0.196529 Nphs 32 Gap 85.5901 Dist 3.07661 Mamp -9.90 0 Mdur -9.90 0
VPVSRATIO  VpVsRatio 1.69521  Npair 6  Diff 4.72
STATISTICS  ExpectX 27.745799 Y 60.320437 Z 6.564716  CovXX 1.33136 XY -0.121574 XZ -4.15682 YY 0.262766 YZ 0.878617 ZZ 16.5163 EllAz1  323.314 Dip1  -11.016 Len1  0.703117 Az2  231.449 Dip2  -9.49072 Len2  1.10499 Len3  7.887610e+00
STAT_GEOG  ExpectLat 35.942474 Long -117.691797 Depth 6.564716
TRANSFORM  SIMPLE LatOrig 35.400000  LongOrig -118.000000  RotCW 0.000000
QML_OriginQuality  assocPhCt 32  usedPhCt 32  assocStaCt -1  usedStaCt 26  depthPhCt -1  stdErr 0.196529  azGap 85.5901  secAzGap 115.069  gtLevel -  minDist 3.07661 maxDist 54.5919 medDist 30.1895
QML_OriginUncertainty  horUnc -1  minHorUnc 0.756935  maxHorUnc 1.75884  azMaxHorUnc 96.4094
QML_ConfidenceEllipsoid  semiMajorAxisLength 7.88761  semiMinorAxisLength 0.703117  semiIntermediateAxisLength 1.10499  majorAxisPlunge -75.381  majorAxisAzimuth 101.588  majorAxisRotation 126.979
FOCALMECH  Hyp  35.940822 -117.683469 3.662109 Mech  0 0 0 mf  0 nObs -1
PHASE ID Ins Cmp On Pha  FM Date     HrMn   Sec     Err  ErrMag    Coda      Amp       Per       PriorWt  >   TTpred    Res       Weight    StaLoc(X  Y         Z)        SDist    SAzim  RAz  RDip RQual    Tcorr       TTerr
ST12         ?    ?    ? P      ? 20001213 1510    2.5300 GAU  2.00e-02 -1.00e+00 -1.00e+00 -1.00e+00    1.0000 >    0.9034    0.8838    0.1496   31.4703   60.9238    0.0000    3.0766  75.18  75.2 139.8  9     0.0000    0.0500
ST22         ?    ?    ? S      ? 20001213 1510    2.7900 GAU  2.00e-02 -1.00e+00 -1.00e+00 -1.00e+00    1.0000 >    2.0829   -0.0357    1.7191   26.8589   55.8533    0.0000    4.5857 200.92 200.9 119.3  9     0.0000    0.0500
ST20         ?    ?    ? P      ? 20001213 1510    2.4200 GAU  2.00e-02 -1.00e+00 -1.00e+00 -1.00e+00    1.0000 >    1.4019    0.2753    0.7143   26.5943   53.9852    0.0000    6.4388 197.18 197.2 118.3  9     0.0000    0.0500
ST20         ?    ?    ? S      ? 20001213 1510    3.3700 GAU  2.00e-02 -1.00e+00 -1.00e+00 -1.00e+00    1.0000 >    2.6348   -0.0075    1.8127   26.5943   53.9852    0.0000    6.4388 197.18 197.2 107.5  9     0.0000    0.0527
ST10         ?    ?    ? S      ? 20001213 1510    5.0900 GAU  2.00e-02 -1.00e+00 -1.00e+00 -1.00e+00    1.0000 >    4.3518   -0.0045    1.6817   21.1066   69.5192    0.0000   11.9430 321.78 321.8  81.9  8     0.0000    0.0870
ST3          ?    ?    ? P      ? 20001213 1510    3.2300 GAU  2.00e-02 -1.00e+00 -1.00e+00 -1.00e+00    1.0000 >    2.4157    0.0715    1.6317   17.1949   64.7711    0.0000   12.2145 292.30 292.3 105.2  9     0.0000    0.0500
ST1          ?    ?    ? S      ? 20001213 1510    6.5000 GAU  2.00e-02 -1.00e+00 -1.00e+00 -1.00e+00    1.0000 >    5.5550    0.2022    1.0871   36.2928   46.2238    0.0000   15.9486 150.73 150.7  71.8  8     0.0000    0.1111
ST8          ?    ?    ? P      ? 20001213 1510    4.3000 GAU  2.00e-02 -1.00e+00 -1.00e+00 -1.00e+00    1.0000 >    3.1808    0.3764    0.4566   21.2005   45.4232    0.0000   16.4229 206.37 206.4  97.2  9     0.0000    0.0636
ST8          ?    ?    ? S      ? 20001213 1510    6.6700 GAU  2.00e-02 -1.00e+00 -1.00e+00 -1.00e+00    1.0000 >    5.6967    0.2306    0.9892   21.2005   45.4232    0.0000   16.4229 206.37 206.4  71.6  8     0.0000    0.1139
ST21         ?    ?    ? P      ? 20001213 1510    4.7300 GAU  2.00e-02 -1.00e+00 -1.00e+00 -1.00e+00    1.0000 >    3.9117    0.0756    1.5937   36.1150   41.1978    0.0000   20.4140 158.09 158.1  87.9  9     0.0000    0.0782
ST5          ?    ?    ? P      ? 20001213 1510    5.7200 GAU  2.00e-02 -1.00e+00 -1.00e+00 -1.00e+00    1.0000 >    4.1556    0.8216    0.1621   45.9261   73.1552    0.0000   21.7552  53.24  53.2  84.8  8     0.0000    0.0831
ST11         ?    ?    ? P      ? 20001213 1510    5.4600 GAU  2.00e-02 -1.00e+00 -1.00e+00 -1.00e+00    1.0000 >    4.7380   -0.0208    1.6200   13.0335   79.7825    0.0000   25.0009 321.79 321.8  78.5  8     0.0000    0.0948
ST23         ?    ?    ? S      ? 20001213 1510    9.0800 GAU  2.00e-02 -1.00e+00 -1.00e+00 -1.00e+00    1.0000 >    8.4035   -0.0663    1.2830   38.6464   35.8493    0.0000   26.3232 157.32 157.3  50.8  9     0.0000    0.1681
ST25         ?    ?    ? P      ? 20001213 1510    5.9800 GAU  2.00e-02 -1.00e+00 -1.00e+00 -1.00e+00    1.0000 >    5.2777   -0.0405    1.5282   35.8320   33.0917    0.0000   28.0223 164.82 164.8  75.0  8     0.0000    0.1056
ST7          ?    ?    ? P      ? 20001213 1510    6.0700 GAU  2.00e-02 -1.00e+00 -1.00e+00 -1.00e+00    1.0000 >    5.3221    0.0051    1.6039   22.5319   32.5023    0.0000   28.2707 192.18 192.2  75.0  8     0.0000    0.1064
ST14         ?    ?    ? P      ? 20001213 1510    6.7600 GAU  2.00e-02 -1.00e+00 -1.00e+00 -1.00e+00    1.0000 >    6.0074    0.0098    1.5483   58.1038   47.7138    0.0000   32.1083 112.76 112.8  74.5  8     0.0000    0.1201
ST6          ?    ?    ? P      ? 20001213 1510    7.5600 GAU  2.00e-02 -1.00e+00 -1.00e+00 -1.00e+00    1.0000 >    6.7884    0.0288    1.4889   64.5535   54.5857    0.0000   36.4822  98.75  98.8  74.4  8     0.0000    0.1358
ST6          ?    ?    ? S      ? 20001213 1510   11.8600 GAU  2.00e-02 -1.00e+00 -1.00e+00 -1.00e+00    1.0000 >   10.9055    0.2117    1.0266   64.5535   54.5857    0.0000   36.4822  98.75  98.8  50.3  9     0.0000    0.2181
ST15         ?    ?    ? S      ? 20001213 1510   11.7300 GAU  2.00e-02 -1.00e+00 -1.00e+00 -1.00e+00    1.0000 >   11.0231   -0.0359    1.1970   38.9482   24.6853    0.0000   36.9601 163.57 163.6  50.3  9     0.0000    0.2205
ST2          ?    ?    ? P      ? 20001213 1510    7.6700 GAU  2.00e-02 -1.00e+00 -1.00e+00 -1.00e+00    1.0000 >    6.9939   -0.0666    1.3520   36.5585   96.8954    0.0000   37.6325  12.37  12.4  74.4  8     0.0000    0.1399
ST19         ?    ?    ? S      ? 20001213 1510   11.8400 GAU  2.00e-02 -1.00e+00 -1.00e+00 -1.00e+00    1.0000 >   11.2283   -0.1310    1.0712   47.2048   27.2984    0.0000   37.7938 150.33 150.3  50.3  9     0.0000    0.2246
ST9          ?    ?    ? S      ? 20001213 1510   12.2000 GAU  2.00e-02 -1.00e+00 -1.00e+00 -1.00e+00    1.0000 >   12.1103   -0.6530    0.3432    9.8992   23.1731    0.0000   41.3782 206.71 206.7  50.3  9     0.0000    0.2422
ST18         ?    ?    ? P      ? 20001213 1510    7.8300 GAU  2.00e-02 -1.00e+00 -1.00e+00 -1.00e+00    1.0000 >    7.7255   -0.6382    0.3204   45.8666   22.1945    0.0000   41.7294 155.40 155.4  74.4  8     0.0000    0.1545
ST18         ?    ?    ? S      ? 20001213 1510   12.8500 GAU  2.00e-02 -1.00e+00 -1.00e+00 -1.00e+00    1.0000 >   12.1967   -0.0894    1.0988   45.8666   22.1945    0.0000   41.7294 155.40 155.4  50.3  9     0.0000    0.2439
ST24         ?    ?    ? S      ? 20001213 1510   14.4800 GAU  2.00e-02 -1.00e+00 -1.00e+00 -1.00e+00    1.0000 >   13.4178    0.3194    0.7917   55.9556   22.3725    0.0000   46.6923 143.98 144.0  50.3  9     0.0000    0.2684
ST26         ?    ?    ? P      ? 20001213 1510    8.9700 GAU  2.00e-02 -1.00e+00 -1.00e+00 -1.00e+00    1.0000 >    8.6959   -0.4686    0.4451   52.5727   19.5815    0.0000   47.1637 149.30 149.3  74.4  8     0.0000    0.1739
ST26         ?    ?    ? S      ? 20001213 1510   14.6400 GAU  2.00e-02 -1.00e+00 -1.00e+00 -1.00e+00    1.0000 >   13.5338    0.3634    0.7144   52.5727   19.5815    0.0000   47.1637 149.30 149.3  50.3  9     0.0000    0.2707
ST4          ?    ?    ? P      ? 20001213 1510    9.1600 GAU  2.00e-02 -1.00e+00 -1.00e+00 -1.00e+00    1.0000 >    9.4339   -1.0167    0.0912   28.7854    8.8400    0.0000   51.2975 179.68 179.7  72.8  9     0.0000    0.1887
ST4          ?    ?    ? S      ? 20001213 1510   14.8100 GAU  2.00e-02 -1.00e+00 -1.00e+00 -1.00e+00    1.0000 >   14.5510   -0.4838    0.5430   28.7854    8.8400    0.0000   51.2975 179.68 179.7  50.3  9     0.0000    0.2910
ST16         ?    ?    ? S      ? 20001213 1510   15.6000 GAU  2.00e-02 -1.00e+00 -1.00e+00 -1.00e+00    1.0000 >   14.8870   -0.0298    1.0428   39.8239    8.7066    0.0000   52.6629 167.58 167.6  50.3  9     0.0000    0.2977
ST17         ?    ?    ? P      ? 20001213 1510   10.0700 GAU  2.00e-02 -1.00e+00 -1.00e+00 -1.00e+00    1.0000 >    9.7568   -0.4296    0.5137   64.4820   21.0492    0.0000   53.1302 137.37 137.4  68.3  9     0.0000    0.1951
ST0          ?    ?    ? P      ? 20001213 1510   10.1700 GAU  2.00e-02 -1.00e+00 -1.00e+00 -1.00e+00    1.0000 >   10.0044   -0.5772    0.3790   57.5022   13.8883    0.0000   54.5919 147.90 147.9  63.5  9     0.0000    0.2001
END_PHASE
END_NLLOC

