NLLOC "./loc/alaska.20001213.151001_017.grid0" "LOCATED" "Location completed."
PUBLIC_ID None
SIGNATURE "NonLinLoc - Yifan Yu   obs:./obs/phase.obs   NLLoc:v7.00.16(17Apr2023)   run:21Aug2023 13h19m39"
COMMENT "2023-8-21 test"
GRID  201 201 41  0 0 0  0.5 0.5 0.5 PROB_DENSITY
SEARCH OCTREE nInitial 400 nEvaluated 8288 smallestNodeSide 0.019531/0.019531/0.009766 oct_tree_integral 4.203825e-02 scatter_volume 4.199662e-02
HYPOCENTER  x 40.6934 y 33.7988 z 0.00488281  OT 1.25072  ix -1 iy -1 iz -1 MAXIMUM_LIKELIHOOD
GEOGRAPHIC  OT 2000 12 13  15 10 1.250718  Lat 35.703960 Long -117.549330 Depth 0.004883
QUALITY  Pmax 6.87127e+182 MFmin 92.7781 MFmax 92.7824 RMS 0.198419 Nphs 54 Gap 59.4431 Dist 2.89729 Mamp -9.90 0 Mdur -9.90 0
VPVSRATIO  VpVsRatio 1.70512  Npair 27  Diff 6.74
STATISTICS  ExpectX 40.679146 Y 33.801392 Z 0.510172  CovXX 0.0104094 XY 0.00432269 XZ -0.00437557 YY 0.0135098 YZ 0.00103988 ZZ 0.142704 EllAz1  304.819 Dip1  -1.76989 Len1  0.159847 Az2  214.795 Dip2  -0.74603 Len2  0.24156 Len3  7.101256e-01
STAT_GEOG  ExpectLat 35.703983 Long -117.549487 Depth 0.510172
TRANSFORM  SIMPLE LatOrig 35.400000  LongOrig -118.000000  RotCW 0.000000
QML_OriginQuality  assocPhCt 54  usedPhCt 54  assocStaCt -1  usedStaCt 27  depthPhCt -1  stdErr 0.198419  azGap 59.4431  secAzGap 59.4431  gtLevel -  minDist 2.89729 maxDist 63.2319 medDist 24.6226
QML_OriginUncertainty  horUnc -1  minHorUnc 0.130173  maxHorUnc 0.195114  azMaxHorUnc 35.1355
QML_ConfidenceEllipsoid  semiMajorAxisLength 0.710126  semiMinorAxisLength 0.159847  semiIntermediateAxisLength 0.24156  majorAxisPlunge -88.0792  majorAxisAzimuth 101.948  majorAxisRotation 112.813
FOCALMECH  Hyp  35.703960 -117.549330 0.004883 Mech  0 0 0 mf  0 nObs -1
PHASE ID Ins Cmp On Pha  FM Date     HrMn   Sec     Err  ErrMag    Coda      Amp       Per       PriorWt  >   TTpred    Res       Weight    StaLoc(X  Y         Z)        SDist    SAzim  RAz  RDip RQual    Tcorr       TTerr
ST23         ?    ?    ? P      ? 20001213 1510    1.7000 GAU  2.00e-02 -1.00e+00 -1.00e+00 -1.00e+00    1.0000 >    0.5467   -0.0975    1.3310   38.6464   35.8493    0.0000    2.8973 315.05 135.0 200.0  0     0.0000    0.0500
ST23         ?    ?    ? S      ? 20001213 1510    2.1600 GAU  2.00e-02 -1.00e+00 -1.00e+00 -1.00e+00    1.0000 >    0.9627   -0.0534    1.8490   38.6464   35.8493    0.0000    2.8973 315.05 135.0 200.0  0     0.0000    0.0500
ST25         ?    ?    ? P      ? 20001213 1510    2.1500 GAU  2.00e-02 -1.00e+00 -1.00e+00 -1.00e+00    1.0000 >    0.9269   -0.0277    2.0577   35.8320   33.0917    0.0000    4.9125 261.72  81.7 200.0  0     0.0000    0.0500
ST25         ?    ?    ? S      ? 20001213 1510    2.9100 GAU  2.00e-02 -1.00e+00 -1.00e+00 -1.00e+00    1.0000 >    1.6322    0.0271    2.0641   35.8320   33.0917    0.0000    4.9125 261.72  81.7 200.0  0     0.0000    0.0500
ST21         ?    ?    ? P      ? 20001213 1510    2.9500 GAU  2.00e-02 -1.00e+00 -1.00e+00 -1.00e+00    1.0000 >    1.6417    0.0576    1.8178   36.1150   41.1978    0.0000    8.7009 328.25 148.3 200.0  0     0.0000    0.0500
ST21         ?    ?    ? S      ? 20001213 1510    4.2100 GAU  2.00e-02 -1.00e+00 -1.00e+00 -1.00e+00    1.0000 >    2.8907    0.0685    1.6932   36.1150   41.1978    0.0000    8.7009 328.25 148.3 200.0  0     0.0000    0.0578
ST19         ?    ?    ? P      ? 20001213 1510    2.9600 GAU  2.00e-02 -1.00e+00 -1.00e+00 -1.00e+00    1.0000 >    1.7360   -0.0268    2.0630   47.2048   27.2984    0.0000    9.2008 134.95 315.0 200.0  0     0.0000    0.0500
ST19         ?    ?    ? S      ? 20001213 1510    4.2900 GAU  2.00e-02 -1.00e+00 -1.00e+00 -1.00e+00    1.0000 >    3.0568   -0.0175    2.0132   47.2048   27.2984    0.0000    9.2008 134.95 315.0 200.0  0     0.0000    0.0611
ST15         ?    ?    ? P      ? 20001213 1510    3.0000 GAU  2.00e-02 -1.00e+00 -1.00e+00 -1.00e+00    1.0000 >    1.7508   -0.0015    2.1412   38.9482   24.6853    0.0000    9.2791 190.84  10.8 200.0  0     0.0000    0.0500
ST15         ?    ?    ? S      ? 20001213 1510    4.3200 GAU  2.00e-02 -1.00e+00 -1.00e+00 -1.00e+00    1.0000 >    3.0828   -0.0136    2.0199   38.9482   24.6853    0.0000    9.2791 190.84  10.8 200.0  0     0.0000    0.0617
ST13         ?    ?    ? P      ? 20001213 1510    3.5500 GAU  2.00e-02 -1.00e+00 -1.00e+00 -1.00e+00    1.0000 >    2.2949    0.0044    2.1396   52.0625   29.4778    0.0000   12.1626 110.81 290.8 200.0  0     0.0000    0.0500
ST13         ?    ?    ? S      ? 20001213 1510    5.3000 GAU  2.00e-02 -1.00e+00 -1.00e+00 -1.00e+00    1.0000 >    4.0408    0.0085    1.8647   52.0625   29.4778    0.0000   12.1626 110.81 290.8 200.0  0     0.0000    0.0808
ST18         ?    ?    ? P      ? 20001213 1510    3.6700 GAU  2.00e-02 -1.00e+00 -1.00e+00 -1.00e+00    1.0000 >    2.3972    0.0220    2.0901   45.8666   22.1945    0.0000   12.7052 155.97 336.0 200.0  0     0.0000    0.0500
ST18         ?    ?    ? S      ? 20001213 1510    5.4700 GAU  2.00e-02 -1.00e+00 -1.00e+00 -1.00e+00    1.0000 >    4.2211   -0.0018    1.8356   45.8666   22.1945    0.0000   12.7052 155.97 336.0 200.0  0     0.0000    0.0844
ST1          ?    ?    ? P      ? 20001213 1510    4.0000 GAU  2.00e-02 -1.00e+00 -1.00e+00 -1.00e+00    1.0000 >    2.4871    0.2622    0.8287   36.2928   46.2238    0.0000   13.1812 340.50 160.5 200.0  0     0.0000    0.0500
ST1          ?    ?    ? S      ? 20001213 1510    5.9400 GAU  2.00e-02 -1.00e+00 -1.00e+00 -1.00e+00    1.0000 >    4.3792    0.3101    0.9252   36.2928   46.2238    0.0000   13.1812 340.50 160.5 200.0  0     0.0000    0.0876
ST7          ?    ?    ? P      ? 20001213 1510    5.3200 GAU  2.00e-02 -1.00e+00 -1.00e+00 -1.00e+00    1.0000 >    3.4354    0.6339    0.2994   22.5319   32.5023    0.0000   18.2076 265.92  85.9 200.0  0     0.0000    0.0687
ST7          ?    ?    ? S      ? 20001213 1510    8.4400 GAU  2.00e-02 -1.00e+00 -1.00e+00 -1.00e+00    1.0000 >    6.0491    1.1402    0.0455   22.5319   32.5023    0.0000   18.2076 265.92  85.9 200.0  0     0.0000    0.1210
ST26         ?    ?    ? P      ? 20001213 1510    5.0800 GAU  2.00e-02 -1.00e+00 -1.00e+00 -1.00e+00    1.0000 >    3.4957    0.3336    0.9401   52.5727   19.5815    0.0000   18.5270 140.12 320.1 200.0  0     0.0000    0.0699
ST26         ?    ?    ? S      ? 20001213 1510    7.8600 GAU  2.00e-02 -1.00e+00 -1.00e+00 -1.00e+00    1.0000 >    6.1552    0.4541    0.7397   52.5727   19.5815    0.0000   18.5270 140.12 320.1 200.0  0     0.0000    0.1231
ST24         ?    ?    ? P      ? 20001213 1510    5.2200 GAU  2.00e-02 -1.00e+00 -1.00e+00 -1.00e+00    1.0000 >    3.5973    0.3720    0.9180   55.9556   22.3725    0.0000   19.0657 126.82 306.8 200.0  0     0.0000    0.0719
ST24         ?    ?    ? S      ? 20001213 1510    8.1100 GAU  2.00e-02 -1.00e+00 -1.00e+00 -1.00e+00    1.0000 >    6.3342    0.5251    0.5945   55.9556   22.3725    0.0000   19.0657 126.82 306.8 200.0  0     0.0000    0.1267
ST14         ?    ?    ? P      ? 20001213 1510    5.4600 GAU  2.00e-02 -1.00e+00 -1.00e+00 -1.00e+00    1.0000 >    4.2053    0.0040    1.8393   58.1038   47.7138    0.0000   22.2879  51.37 231.4 200.0  0     0.0000    0.0841
ST14         ?    ?    ? S      ? 20001213 1510    8.5300 GAU  2.00e-02 -1.00e+00 -1.00e+00 -1.00e+00    1.0000 >    7.4047   -0.1254    1.1324   58.1038   47.7138    0.0000   22.2879  51.37 231.4 200.0  0     0.0000    0.1481
ST8          ?    ?    ? P      ? 20001213 1510    6.3500 GAU  2.00e-02 -1.00e+00 -1.00e+00 -1.00e+00    1.0000 >    4.2822    0.8170    0.0951   21.2005   45.4232    0.0000   22.6957 300.81 120.8 200.0  0     0.0000    0.0856
ST8          ?    ?    ? S      ? 20001213 1510   10.1100 GAU  2.00e-02 -1.00e+00 -1.00e+00 -1.00e+00    1.0000 >    7.5402    1.3191    0.0376   21.2005   45.4232    0.0000   22.6957 300.81 120.8 200.0  0     0.0000    0.1508
ST20         ?    ?    ? P      ? 20001213 1510    6.3300 GAU  2.00e-02 -1.00e+00 -1.00e+00 -1.00e+00    1.0000 >    4.6458    0.4335    0.7924   26.5943   53.9852    0.0000   24.6226 325.07 145.1 200.0  0     0.0000    0.0929
ST20         ?    ?    ? S      ? 20001213 1510   10.0200 GAU  2.00e-02 -1.00e+00 -1.00e+00 -1.00e+00    1.0000 >    8.1803    0.5890    0.4905   26.5943   53.9852    0.0000   24.6226 325.07 145.1 200.0  0     0.0000    0.1636
ST16         ?    ?    ? P      ? 20001213 1510    6.0600 GAU  2.00e-02 -1.00e+00 -1.00e+00 -1.00e+00    1.0000 >    4.7373    0.0720    1.5795   39.8239    8.7066    0.0000   25.1073 181.98   2.0 200.0  0     0.0000    0.0947
ST16         ?    ?    ? S      ? 20001213 1510    9.4200 GAU  2.00e-02 -1.00e+00 -1.00e+00 -1.00e+00    1.0000 >    8.3413   -0.1721    0.9579   39.8239    8.7066    0.0000   25.1073 181.98   2.0 200.0  0     0.0000    0.1668
ST22         ?    ?    ? P      ? 20001213 1510    6.5000 GAU  2.00e-02 -1.00e+00 -1.00e+00 -1.00e+00    1.0000 >    4.9122    0.3371    0.9164   26.8589   55.8533    0.0000   26.0344 327.90 147.9 200.0  0     0.0000    0.0982
ST22         ?    ?    ? S      ? 20001213 1510   10.3300 GAU  2.00e-02 -1.00e+00 -1.00e+00 -1.00e+00    1.0000 >    8.6494    0.4299    0.7745   26.8589   55.8533    0.0000   26.0344 327.90 147.9 200.0  0     0.0000    0.1730
ST0          ?    ?    ? P      ? 20001213 1510    6.5500 GAU  2.00e-02 -1.00e+00 -1.00e+00 -1.00e+00    1.0000 >    4.9164    0.3828    0.8760   57.5022   13.8883    0.0000   26.0570 139.83 319.8 200.0  0     0.0000    0.0983
ST0          ?    ?    ? S      ? 20001213 1510   10.3100 GAU  2.00e-02 -1.00e+00 -1.00e+00 -1.00e+00    1.0000 >    8.6568    0.4024    0.8212   57.5022   13.8883    0.0000   26.0570 139.83 319.8 200.0  0     0.0000    0.1731
ST17         ?    ?    ? P      ? 20001213 1510    6.6800 GAU  2.00e-02 -1.00e+00 -1.00e+00 -1.00e+00    1.0000 >    5.0924    0.3368    0.9148   64.4820   21.0492    0.0000   26.9898 118.19 298.2 200.0  0     0.0000    0.1018
ST17         ?    ?    ? S      ? 20001213 1510   10.5100 GAU  2.00e-02 -1.00e+00 -1.00e+00 -1.00e+00    1.0000 >    8.9668    0.2925    1.0106   64.4820   21.0492    0.0000   26.9898 118.19 298.2 200.0  0     0.0000    0.1793
ST4          ?    ?    ? P      ? 20001213 1510    6.4500 GAU  2.00e-02 -1.00e+00 -1.00e+00 -1.00e+00    1.0000 >    5.2178   -0.0185    1.6633   28.7854    8.8400    0.0000   27.6540 205.51  25.5 200.0  0     0.0000    0.1044
ST4          ?    ?    ? S      ? 20001213 1510   10.1600 GAU  2.00e-02 -1.00e+00 -1.00e+00 -1.00e+00    1.0000 >    9.1874   -0.2781    0.6601   28.7854    8.8400    0.0000   27.6540 205.51  25.5 200.0  0     0.0000    0.1837
ST12         ?    ?    ? P      ? 20001213 1510    6.7000 GAU  2.00e-02 -1.00e+00 -1.00e+00 -1.00e+00    1.0000 >    5.4057    0.0436    1.6206   31.4703   60.9238    0.0000   28.6501 341.22 161.2 200.0  0     0.0000    0.1081
ST12         ?    ?    ? S      ? 20001213 1510   10.5600 GAU  2.00e-02 -1.00e+00 -1.00e+00 -1.00e+00    1.0000 >    9.5183   -0.2091    0.8529   31.4703   60.9238    0.0000   28.6501 341.22 161.2 200.0  0     0.0000    0.1904
ST6          ?    ?    ? P      ? 20001213 1510    6.8500 GAU  2.00e-02 -1.00e+00 -1.00e+00 -1.00e+00    1.0000 >    5.9708   -0.3715    0.3419   64.5535   54.5857    0.0000   31.6449  48.94 228.9 200.0  0     0.0000    0.1194
ST6          ?    ?    ? S      ? 20001213 1510   10.8600 GAU  2.00e-02 -1.00e+00 -1.00e+00 -1.00e+00    1.0000 >   10.5133   -0.9040    0.1573   64.5535   54.5857    0.0000   31.6449  48.94 228.9 200.0  0     0.0000    0.2103
ST9          ?    ?    ? P      ? 20001213 1510    7.5000 GAU  2.00e-02 -1.00e+00 -1.00e+00 -1.00e+00    1.0000 >    6.1464    0.1029    1.4098    9.8992   23.1731    0.0000   32.5759 250.96  71.0 200.0  0     0.0000    0.1229
ST9          ?    ?    ? S      ? 20001213 1510   12.2100 GAU  2.00e-02 -1.00e+00 -1.00e+00 -1.00e+00    1.0000 >   10.8226    0.1367    1.2120    9.8992   23.1731    0.0000   32.5759 250.96  71.0 200.0  0     0.0000    0.2165
ST3          ?    ?    ? P      ? 20001213 1510    8.1600 GAU  2.00e-02 -1.00e+00 -1.00e+00 -1.00e+00    1.0000 >    7.3354   -0.4261    0.3259   17.1949   64.7711    0.0000   38.8775 322.81 142.8 200.0  0     0.0000    0.1467
ST3          ?    ?    ? S      ? 20001213 1510   13.1800 GAU  2.00e-02 -1.00e+00 -1.00e+00 -1.00e+00    1.0000 >   12.9161   -0.9869    0.1631   17.1949   64.7711    0.0000   38.8775 322.81 142.8 200.0  0     0.0000    0.2583
ST5          ?    ?    ? P      ? 20001213 1510    8.2500 GAU  2.00e-02 -1.00e+00 -1.00e+00 -1.00e+00    1.0000 >    7.4911   -0.4918    0.2738   45.9261   73.1552    0.0000   39.7028   7.57 187.6 200.0  0     0.0000    0.1498
ST5          ?    ?    ? S      ? 20001213 1510   13.0800 GAU  2.00e-02 -1.00e+00 -1.00e+00 -1.00e+00    1.0000 >   13.1903   -1.3610    0.1206   45.9261   73.1552    0.0000   39.7028   7.57 187.6 200.0  0     0.0000    0.2638
ST10         ?    ?    ? P      ? 20001213 1510    8.3900 GAU  2.00e-02 -1.00e+00 -1.00e+00 -1.00e+00    1.0000 >    7.6864   -0.5472    0.2389   21.1066   69.5192    0.0000   40.7380 331.26 151.3 200.0  0     0.0000    0.1537
ST10         ?    ?    ? S      ? 20001213 1510   13.5600 GAU  2.00e-02 -1.00e+00 -1.00e+00 -1.00e+00    1.0000 >   13.5342   -1.2250    0.1407   21.1066   69.5192    0.0000   40.7380 331.26 151.3 200.0  0     0.0000    0.2707
ST11         ?    ?    ? P      ? 20001213 1510   10.3000 GAU  2.00e-02 -1.00e+00 -1.00e+00 -1.00e+00    1.0000 >   10.0787   -1.0294    0.1509   13.0335   79.7825    0.0000   53.6615 328.97 149.0 200.0  0     0.0000    0.2016
ST11         ?    ?    ? S      ? 20001213 1510   17.0900 GAU  2.00e-02 -1.00e+00 -1.00e+00 -1.00e+00    1.0000 >   17.7476   -1.9084    0.0387   13.0335   79.7825    0.0000   53.6615 328.97 149.0 200.0  0     0.0000    0.3550
ST2          ?    ?    ? P      ? 20001213 1510   11.6400 GAU  2.00e-02 -1.00e+00 -1.00e+00 -1.00e+00    1.0000 >   11.7583   -1.3690    0.1180   36.5585   96.8954    0.0000   63.2319 356.25 176.3 200.0  0     0.0000    0.2352
ST2          ?    ?    ? S      ? 20001213 1510   18.8400 GAU  2.00e-02 -1.00e+00 -1.00e+00 -1.00e+00    1.0000 >   20.7072   -3.1179    0.0018   36.5585   96.8954    0.0000   63.2319 356.25 176.3 200.0  0     0.0000    0.4141
END_PHASE
END_NLLOC

