NLLOC "./loc/alaska.20001213.151002_007.grid0" "LOCATED" "Location completed."
PUBLIC_ID None
SIGNATURE "NonLinLoc - Yifan Yu   obs:./obs/phase.obs   NLLoc:v7.00.16(17Apr2023)   run:24Aug2023 11h42m45"
COMMENT "2023-8-21 test"
GRID  201 201 41  0 0 0  0.5 0.5 0.5 PROB_DENSITY
SEARCH OCTREE nInitial 400 nEvaluated 20008 smallestNodeSide 0.039062/0.039062/0.019531 oct_tree_integral 7.861717e-01 scatter_volume 7.840833e-01
HYPOCENTER  x 27.3242 y 60.6836 z 9.16992  OT 0.524533  ix -1 iy -1 iz -1 MAXIMUM_LIKELIHOOD
GEOGRAPHIC  OT 2000 12 13  15 10 0.524533  Lat 35.945740 Long -117.696467 Depth 9.169922
QUALITY  Pmax 3.5792e+86 MFmin 48.0263 MFmax 49.111 RMS 0.236332 Nphs 30 Gap 90.1113 Dist 4.15306 Mamp -9.90 0 Mdur -9.90 0
VPVSRATIO  VpVsRatio 1.69675  Npair 10  Diff 5.66
STATISTICS  ExpectX 27.674272 Y 61.170181 Z 8.369874  CovXX 0.557526 XY 0.412365 XZ -0.893767 YY 0.611903 YZ -0.949724 ZZ 2.98491 EllAz1  312.712 Dip1  -0.254548 Len1  0.777933 Az2  222.586 Dip2  -26.3489 Len2  1.11472 Len3  3.580087e+00
STAT_GEOG  ExpectLat 35.950116 Long -117.692561 Depth 8.369874
TRANSFORM  SIMPLE LatOrig 35.400000  LongOrig -118.000000  RotCW 0.000000
QML_OriginQuality  assocPhCt 30  usedPhCt 30  assocStaCt -1  usedStaCt 20  depthPhCt -1  stdErr 0.236332  azGap 90.1113  secAzGap 105.757  gtLevel -  minDist 4.15306 maxDist 55.6822 medDist 31.1372
QML_OriginUncertainty  horUnc -1  minHorUnc 0.627968  maxHorUnc 1.51504  azMaxHorUnc 43.1139
QML_ConfidenceEllipsoid  semiMajorAxisLength 3.58009  semiMinorAxisLength 0.777933  semiIntermediateAxisLength 1.11472  majorAxisPlunge -63.6497  majorAxisAzimuth 43.2262  majorAxisRotation 179.054
FOCALMECH  Hyp  35.945740 -117.696467 9.169922 Mech  0 0 0 mf  0 nObs -1
PHASE ID Ins Cmp On Pha  FM Date     HrMn   Sec     Err  ErrMag    Coda      Amp       Per       PriorWt  >   TTpred    Res       Weight    StaLoc(X  Y         Z)        SDist    SAzim  RAz  RDip RQual    Tcorr       TTerr
ST12         ?    ?    ? P      ? 20001213 1510    2.3500 GAU  2.00e-02 -1.00e+00 -1.00e+00 -1.00e+00    1.0000 >    1.8475   -0.0221    1.8687   31.4703   60.9238    0.0000    4.1531  86.68  86.7 153.6  9     0.0000    0.0500
ST12         ?    ?    ? S      ? 20001213 1510    3.1200 GAU  2.00e-02 -1.00e+00 -1.00e+00 -1.00e+00    1.0000 >    3.0889   -0.4934    0.0379   31.4703   60.9238    0.0000    4.1531  86.68  86.7 150.6  9     0.0000    0.0618
ST22         ?    ?    ? P      ? 20001213 1510    2.4800 GAU  2.00e-02 -1.00e+00 -1.00e+00 -1.00e+00    1.0000 >    1.9031    0.0524    1.6530   26.8589   55.8533    0.0000    4.8527 185.50 185.5 149.9  9     0.0000    0.0500
ST22         ?    ?    ? S      ? 20001213 1510    3.6700 GAU  2.00e-02 -1.00e+00 -1.00e+00 -1.00e+00    1.0000 >    3.1787   -0.0333    1.7946   26.8589   55.8533    0.0000    4.8527 185.50 185.5 146.7  9     0.0000    0.0636
ST20         ?    ?    ? P      ? 20001213 1510    2.9300 GAU  2.00e-02 -1.00e+00 -1.00e+00 -1.00e+00    1.0000 >    2.0830    0.3225    0.7717   26.5943   53.9852    0.0000    6.7380 186.22 186.2 140.8  9     0.0000    0.0500
ST10         ?    ?    ? P      ? 20001213 1510    3.1600 GAU  2.00e-02 -1.00e+00 -1.00e+00 -1.00e+00    1.0000 >    2.5906    0.0449    1.7041   21.1066   69.5192    0.0000   10.8040 324.87 324.9 122.9  9     0.0000    0.0518
ST3          ?    ?    ? P      ? 20001213 1510    3.4500 GAU  2.00e-02 -1.00e+00 -1.00e+00 -1.00e+00    1.0000 >    2.6072    0.3182    0.7731   17.1949   64.7711    0.0000   10.9229 291.98 292.0 122.5  9     0.0000    0.0521
ST3          ?    ?    ? S      ? 20001213 1510    4.7100 GAU  2.00e-02 -1.00e+00 -1.00e+00 -1.00e+00    1.0000 >    4.2966   -0.1112    1.3343   17.1949   64.7711    0.0000   10.9229 291.98 292.0 117.0  9     0.0000    0.0859
ST8          ?    ?    ? S      ? 20001213 1510    7.2100 GAU  2.00e-02 -1.00e+00 -1.00e+00 -1.00e+00    1.0000 >    5.5750    1.1104    0.2355   21.2005   45.4232    0.0000   16.4432 201.86 201.9 105.1  9     0.0000    0.1115
ST1          ?    ?    ? S      ? 20001213 1510    6.8200 GAU  2.00e-02 -1.00e+00 -1.00e+00 -1.00e+00    1.0000 >    5.7115    0.5839    0.4803   36.2928   46.2238    0.0000   17.0153 148.19 148.2 104.4  9     0.0000    0.1142
ST5          ?    ?    ? P      ? 20001213 1510    4.8700 GAU  2.00e-02 -1.00e+00 -1.00e+00 -1.00e+00    1.0000 >    4.4025   -0.0570    1.6112   45.9261   73.1552    0.0000   22.3958  56.16  56.2  94.2  9     0.0000    0.0880
ST5          ?    ?    ? S      ? 20001213 1510    7.9100 GAU  2.00e-02 -1.00e+00 -1.00e+00 -1.00e+00    1.0000 >    7.0087    0.3768    0.7475   45.9261   73.1552    0.0000   22.3958  56.16  56.2  99.9  9     0.0000    0.1402
ST11         ?    ?    ? P      ? 20001213 1510    5.1700 GAU  2.00e-02 -1.00e+00 -1.00e+00 -1.00e+00    1.0000 >    4.6373    0.0082    1.6696   13.0335   79.7825    0.0000   23.8535 323.19 323.2  90.3  9     0.0000    0.0927
ST11         ?    ?    ? S      ? 20001213 1510    8.3100 GAU  2.00e-02 -1.00e+00 -1.00e+00 -1.00e+00    1.0000 >    7.3627    0.4228    0.6936   13.0335   79.7825    0.0000   23.8535 323.19 323.2  99.2  9     0.0000    0.1473
ST25         ?    ?    ? P      ? 20001213 1510    5.9300 GAU  2.00e-02 -1.00e+00 -1.00e+00 -1.00e+00    1.0000 >    5.4464   -0.0409    1.5581   35.8320   33.0917    0.0000   28.8738 162.86 162.9  83.7  8     0.0000    0.1089
ST25         ?    ?    ? S      ? 20001213 1510    9.9300 GAU  2.00e-02 -1.00e+00 -1.00e+00 -1.00e+00    1.0000 >    8.5861    0.8194    0.3867   35.8320   33.0917    0.0000   28.8738 162.86 162.9  97.2  9     0.0000    0.1717
ST14         ?    ?    ? P      ? 20001213 1510    6.6000 GAU  2.00e-02 -1.00e+00 -1.00e+00 -1.00e+00    1.0000 >    6.1762   -0.1007    1.3142   58.1038   47.7138    0.0000   33.4005 112.85 112.8  83.1  8     0.0000    0.1235
ST14         ?    ?    ? S      ? 20001213 1510   10.3900 GAU  2.00e-02 -1.00e+00 -1.00e+00 -1.00e+00    1.0000 >    9.6927    0.1728    1.1396   58.1038   47.7138    0.0000   33.4005 112.85 112.8  96.0  9     0.0000    0.1939
ST2          ?    ?    ? P      ? 20001213 1510    7.4000 GAU  2.00e-02 -1.00e+00 -1.00e+00 -1.00e+00    1.0000 >    6.8163    0.0592    1.4140   36.5585   96.8954    0.0000   37.3707  14.31  14.3  82.8  8     0.0000    0.1363
ST15         ?    ?    ? P      ? 20001213 1510    7.2900 GAU  2.00e-02 -1.00e+00 -1.00e+00 -1.00e+00    1.0000 >    6.8901   -0.1247    1.1869   38.9482   24.6853    0.0000   37.8285 162.10 162.1  82.8  8     0.0000    0.1378
ST15         ?    ?    ? S      ? 20001213 1510   12.0700 GAU  2.00e-02 -1.00e+00 -1.00e+00 -1.00e+00    1.0000 >   10.7769    0.7685    0.4383   38.9482   24.6853    0.0000   37.8285 162.10 162.1  95.1  9     0.0000    0.2155
ST19         ?    ?    ? S      ? 20001213 1510   12.1300 GAU  2.00e-02 -1.00e+00 -1.00e+00 -1.00e+00    1.0000 >   11.0288    0.5767    0.5855   47.2048   27.2984    0.0000   38.8563 149.23 149.2  94.9  9     0.0000    0.2206
ST13         ?    ?    ? P      ? 20001213 1510    7.7200 GAU  2.00e-02 -1.00e+00 -1.00e+00 -1.00e+00    1.0000 >    7.2116   -0.0161    1.4272   52.0625   29.4778    0.0000   39.8219 141.59 141.6  82.7  8     0.0000    0.1442
ST24         ?    ?    ? P      ? 20001213 1510    9.1000 GAU  2.00e-02 -1.00e+00 -1.00e+00 -1.00e+00    1.0000 >    8.5027    0.0728    1.3122   55.9556   22.3725    0.0000   47.8278 143.23 143.2  82.4  8     0.0000    0.1701
ST26         ?    ?    ? S      ? 20001213 1510   15.1000 GAU  2.00e-02 -1.00e+00 -1.00e+00 -1.00e+00    1.0000 >   13.3297    1.2458    0.1947   52.5727   19.5815    0.0000   48.2376 148.44 148.4  93.7  9     0.0000    0.2666
ST4          ?    ?    ? S      ? 20001213 1510   15.2900 GAU  2.00e-02 -1.00e+00 -1.00e+00 -1.00e+00    1.0000 >   14.2198    0.5457    0.6608   28.7854    8.8400    0.0000   51.8642 178.39 178.4  93.4  9     0.0000    0.2844
ST17         ?    ?    ? P      ? 20001213 1510    9.9200 GAU  2.00e-02 -1.00e+00 -1.00e+00 -1.00e+00    1.0000 >    9.5500   -0.1545    1.0097   64.4820   21.0492    0.0000   54.3285 136.85 136.8  78.0  8     0.0000    0.1910
ST17         ?    ?    ? S      ? 20001213 1510   16.3500 GAU  2.00e-02 -1.00e+00 -1.00e+00 -1.00e+00    1.0000 >   14.8248    1.0007    0.3354   64.4820   21.0492    0.0000   54.3285 136.85 136.8  93.1  9     0.0000    0.2965
ST0          ?    ?    ? P      ? 20001213 1510   10.3400 GAU  2.00e-02 -1.00e+00 -1.00e+00 -1.00e+00    1.0000 >    9.7639    0.0515    1.2647   57.5022   13.8883    0.0000   55.6822 147.18 147.2  72.6  8     0.0000    0.1953
ST0          ?    ?    ? S      ? 20001213 1510   16.5800 GAU  2.00e-02 -1.00e+00 -1.00e+00 -1.00e+00    1.0000 >   15.1572    0.8983    0.3968   57.5022   13.8883    0.0000   55.6822 147.18 147.2  93.0  9     0.0000    0.3031
END_PHASE
END_NLLOC

