NLLOC "./loc/alaska.20001213.151002_006.grid0" "LOCATED" "Location completed."
PUBLIC_ID None
SIGNATURE "NonLinLoc - Yifan Yu   obs:./obs/phase.obs   NLLoc:v7.00.16(17Apr2023)   run:24Aug2023 11h42m44"
COMMENT "2023-8-21 test"
GRID  201 201 41  0 0 0  0.5 0.5 0.5 PROB_DENSITY
SEARCH OCTREE nInitial 400 nEvaluated 20008 smallestNodeSide 0.039062/0.039062/0.019531 oct_tree_integral 7.582166e-01 scatter_volume 7.575209e-01
HYPOCENTER  x 28.3398 y 53.5352 z 11.7676  OT 0.592125  ix -1 iy -1 iz -1 MAXIMUM_LIKELIHOOD
GEOGRAPHIC  OT 2000 12 13  15 10 0.592125  Lat 35.881453 Long -117.685441 Depth 11.767578
QUALITY  Pmax 1.52465e+99 MFmin 52.3384 MFmax 53.9401 RMS 0.148691 Nphs 32 Gap 63.107 Dist 1.80261 Mamp -9.90 0 Mdur -9.90 0
VPVSRATIO  VpVsRatio 1.69718  Npair 11  Diff 4.12
STATISTICS  ExpectX 27.949860 Y 53.391498 Z 11.996588  CovXX 0.360294 XY 0.135367 XZ -0.264298 YY 0.142428 YZ -0.117173 ZZ 0.573149 EllAz1  332.836 Dip1  -1.89579 Len1  0.522457 Az2  241.368 Dip2  -37.7507 Len2  0.842417 Len3  1.677854e+00
STAT_GEOG  ExpectLat 35.880161 Long -117.689774 Depth 11.996588
TRANSFORM  SIMPLE LatOrig 35.400000  LongOrig -118.000000  RotCW 0.000000
QML_OriginQuality  assocPhCt 32  usedPhCt 32  assocStaCt -1  usedStaCt 21  depthPhCt -1  stdErr 0.148691  azGap 63.107  secAzGap 93.8822  gtLevel -  minDist 1.80261 maxDist 49.217 medDist 30.3279
QML_OriginUncertainty  horUnc -1  minHorUnc 0.422487  maxHorUnc 0.98882  azMaxHorUnc 64.4122
QML_ConfidenceEllipsoid  semiMajorAxisLength 1.67785  semiMinorAxisLength 0.522457  semiIntermediateAxisLength 0.842417  majorAxisPlunge -52.1846  majorAxisAzimuth 65.2805  majorAxisRotation 167.716
FOCALMECH  Hyp  35.881453 -117.685441 11.767578 Mech  0 0 0 mf  0 nObs -1
PHASE ID Ins Cmp On Pha  FM Date     HrMn   Sec     Err  ErrMag    Coda      Amp       Per       PriorWt  >   TTpred    Res       Weight    StaLoc(X  Y         Z)        SDist    SAzim  RAz  RDip RQual    Tcorr       TTerr
ST20         ?    ?    ? P      ? 20001213 1510    2.1300 GAU  2.00e-02 -1.00e+00 -1.00e+00 -1.00e+00    1.0000 >    2.1255   -0.5877    0.0718   26.5943   53.9852    0.0000    1.8026 284.46 284.5 169.4  9     0.0000    0.0500
ST12         ?    ?    ? P      ? 20001213 1510    3.1100 GAU  2.00e-02 -1.00e+00 -1.00e+00 -1.00e+00    1.0000 >    2.5397   -0.0218    1.6165   31.4703   60.9238    0.0000    8.0244  22.96  23.0 142.8 10     0.0000    0.0508
ST12         ?    ?    ? S      ? 20001213 1510    4.7200 GAU  2.00e-02 -1.00e+00 -1.00e+00 -1.00e+00    1.0000 >    4.1566   -0.0287    1.4856   31.4703   60.9238    0.0000    8.0244  22.96  23.0 141.3 10     0.0000    0.0831
ST1          ?    ?    ? P      ? 20001213 1510    3.5800 GAU  2.00e-02 -1.00e+00 -1.00e+00 -1.00e+00    1.0000 >    2.8408    0.1471    1.1721   36.2928   46.2238    0.0000   10.8030 132.59 132.6 132.7  9     0.0000    0.0568
ST1          ?    ?    ? S      ? 20001213 1510    5.2000 GAU  2.00e-02 -1.00e+00 -1.00e+00 -1.00e+00    1.0000 >    4.6320   -0.0241    1.4628   36.2928   46.2238    0.0000   10.8030 132.59 132.6 130.3 10     0.0000    0.0926
ST8          ?    ?    ? P      ? 20001213 1510    3.4200 GAU  2.00e-02 -1.00e+00 -1.00e+00 -1.00e+00    1.0000 >    2.8412   -0.0133    1.6262   21.2005   45.4232    0.0000   10.8062 221.35 221.4 132.7  9     0.0000    0.0568
ST8          ?    ?    ? S      ? 20001213 1510    5.2700 GAU  2.00e-02 -1.00e+00 -1.00e+00 -1.00e+00    1.0000 >    4.6326    0.0453    1.5186   21.2005   45.4232    0.0000   10.8062 221.35 221.4 130.3 10     0.0000    0.0927
ST21         ?    ?    ? P      ? 20001213 1510    4.2000 GAU  2.00e-02 -1.00e+00 -1.00e+00 -1.00e+00    1.0000 >    3.3310    0.2769    0.6367   36.1150   41.1978    0.0000   14.5830 147.78 147.8 121.2  9     0.0000    0.0666
ST21         ?    ?    ? S      ? 20001213 1510    6.1600 GAU  2.00e-02 -1.00e+00 -1.00e+00 -1.00e+00    1.0000 >    5.3965    0.1713    1.1218   36.1150   41.1978    0.0000   14.5830 147.78 147.8 119.7  9     0.0000    0.1079
ST3          ?    ?    ? P      ? 20001213 1510    4.1200 GAU  2.00e-02 -1.00e+00 -1.00e+00 -1.00e+00    1.0000 >    3.5056    0.0223    1.6187   17.1949   64.7711    0.0000   15.8258 315.23 315.2 118.4  9     0.0000    0.0701
ST3          ?    ?    ? S      ? 20001213 1510    6.3300 GAU  2.00e-02 -1.00e+00 -1.00e+00 -1.00e+00    1.0000 >    5.6661    0.0718    1.4093   17.1949   64.7711    0.0000   15.8258 315.23 315.2 117.2  9     0.0000    0.1133
ST10         ?    ?    ? P      ? 20001213 1510    4.4300 GAU  2.00e-02 -1.00e+00 -1.00e+00 -1.00e+00    1.0000 >    3.7541    0.0838    1.4772   21.1066   69.5192    0.0000   17.5445 335.65 335.7 114.9  9     0.0000    0.0751
ST23         ?    ?    ? P      ? 20001213 1510    4.7500 GAU  2.00e-02 -1.00e+00 -1.00e+00 -1.00e+00    1.0000 >    4.1918   -0.0339    1.4656   38.6464   35.8493    0.0000   20.4699 149.77 149.8 110.0  9     0.0000    0.0838
ST25         ?    ?    ? S      ? 20001213 1510    7.6200 GAU  2.00e-02 -1.00e+00 -1.00e+00 -1.00e+00    1.0000 >    7.0197    0.0082    1.3259   35.8320   33.0917    0.0000   21.7731 159.87 159.9 108.7  9     0.0000    0.1404
ST5          ?    ?    ? S      ? 20001213 1510    9.2800 GAU  2.00e-02 -1.00e+00 -1.00e+00 -1.00e+00    1.0000 >    8.0989    0.5890    0.3001   45.9261   73.1552    0.0000   26.3482  41.87  41.9 105.0  9     0.0000    0.1620
ST14         ?    ?    ? P      ? 20001213 1510    6.3300 GAU  2.00e-02 -1.00e+00 -1.00e+00 -1.00e+00    1.0000 >    5.7320    0.0059    1.4266   58.1038   47.7138    0.0000   30.3279 101.07 101.1 101.0  9     0.0000    0.1146
ST14         ?    ?    ? S      ? 20001213 1510   10.0800 GAU  2.00e-02 -1.00e+00 -1.00e+00 -1.00e+00    1.0000 >    9.0505    0.4374    0.4984   58.1038   47.7138    0.0000   30.3279 101.07 101.1 102.8  9     0.0000    0.1810
ST15         ?    ?    ? P      ? 20001213 1510    6.2200 GAU  2.00e-02 -1.00e+00 -1.00e+00 -1.00e+00    1.0000 >    5.7971   -0.1693    0.7922   38.9482   24.6853    0.0000   30.7384 159.81 159.8 100.7  9     0.0000    0.1159
ST19         ?    ?    ? S      ? 20001213 1510   10.4700 GAU  2.00e-02 -1.00e+00 -1.00e+00 -1.00e+00    1.0000 >    9.5284    0.3495    0.6728   47.2048   27.2984    0.0000   32.3149 144.28 144.3 101.9  9     0.0000    0.1906
ST13         ?    ?    ? P      ? 20001213 1510    6.7300 GAU  2.00e-02 -1.00e+00 -1.00e+00 -1.00e+00    1.0000 >    6.2820   -0.1441    0.9142   52.0625   29.4778    0.0000   33.7864 135.40 135.4  99.4  9     0.0000    0.1256
ST13         ?    ?    ? S      ? 20001213 1510   10.9800 GAU  2.00e-02 -1.00e+00 -1.00e+00 -1.00e+00    1.0000 >    9.8833    0.5046    0.4222   52.0625   29.4778    0.0000   33.7864 135.40 135.4 101.3  9     0.0000    0.1977
ST9          ?    ?    ? P      ? 20001213 1510    6.6700 GAU  2.00e-02 -1.00e+00 -1.00e+00 -1.00e+00    1.0000 >    6.5590   -0.4811    0.1377    9.8992   23.1731    0.0000   35.5235 211.27 211.3  98.7  9     0.0000    0.1312
ST9          ?    ?    ? S      ? 20001213 1510   11.0800 GAU  2.00e-02 -1.00e+00 -1.00e+00 -1.00e+00    1.0000 >   10.3030    0.1849    1.0018    9.8992   23.1731    0.0000   35.5235 211.27 211.3 100.7  9     0.0000    0.2061
ST6          ?    ?    ? P      ? 20001213 1510    7.2800 GAU  2.00e-02 -1.00e+00 -1.00e+00 -1.00e+00    1.0000 >    6.6716    0.0162    1.3587   64.5535   54.5857    0.0000   36.2289  88.34  88.3  98.5  9     0.0000    0.1334
ST24         ?    ?    ? P      ? 20001213 1510    8.2000 GAU  2.00e-02 -1.00e+00 -1.00e+00 -1.00e+00    1.0000 >    7.5352    0.0727    1.2839   55.9556   22.3725    0.0000   41.6383 138.45 138.5  88.4  8     0.0000    0.1507
ST24         ?    ?    ? S      ? 20001213 1510   13.0800 GAU  2.00e-02 -1.00e+00 -1.00e+00 -1.00e+00    1.0000 >   11.7860    0.7019    0.2542   55.9556   22.3725    0.0000   41.6383 138.45 138.5  98.9  9     0.0000    0.2357
ST2          ?    ?    ? P      ? 20001213 1510    8.5500 GAU  2.00e-02 -1.00e+00 -1.00e+00 -1.00e+00    1.0000 >    7.9184    0.0395    1.2720   36.5585   96.8954    0.0000   44.1323  10.73  10.7  75.8  8     0.0000    0.1584
ST2          ?    ?    ? S      ? 20001213 1510   13.5900 GAU  2.00e-02 -1.00e+00 -1.00e+00 -1.00e+00    1.0000 >   12.3927    0.6052    0.3519   36.5585   96.8954    0.0000   44.1323  10.73  10.7  98.3  9     0.0000    0.2479
ST16         ?    ?    ? P      ? 20001213 1510    8.6400 GAU  2.00e-02 -1.00e+00 -1.00e+00 -1.00e+00    1.0000 >    8.2350   -0.1871    0.7684   39.8239    8.7066    0.0000   46.2762 165.63 165.6  67.7  9     0.0000    0.1647
ST17         ?    ?    ? P      ? 20001213 1510    9.3200 GAU  2.00e-02 -1.00e+00 -1.00e+00 -1.00e+00    1.0000 >    8.5718    0.1561    1.1058   64.4820   21.0492    0.0000   48.5962 131.95 132.0  64.3  9     0.0000    0.1714
ST0          ?    ?    ? P      ? 20001213 1510    9.2800 GAU  2.00e-02 -1.00e+00 -1.00e+00 -1.00e+00    1.0000 >    8.6618    0.0261    1.2187   57.5022   13.8883    0.0000   49.2170 143.66 143.7  64.1 10     0.0000    0.1732
ST0          ?    ?    ? S      ? 20001213 1510   15.0100 GAU  2.00e-02 -1.00e+00 -1.00e+00 -1.00e+00    1.0000 >   13.6318    0.7861    0.2118   57.5022   13.8883    0.0000   49.2170 143.66 143.7  97.4  9     0.0000    0.2726
END_PHASE
END_NLLOC

