NLLOC "./loc/alaska.20001213.151002_031.grid0" "LOCATED" "Location completed."
PUBLIC_ID None
SIGNATURE "NonLinLoc - Yifan Yu   obs:./obs/phase.obs   NLLoc:v7.00.16(17Apr2023)   run:24Aug2023 11h39m33"
COMMENT "2023-8-21 test"
GRID  201 201 41  0 0 0  0.5 0.5 0.5 PROB_DENSITY
SEARCH OCTREE nInitial 400 nEvaluated 20000 smallestNodeSide 0.078125/0.078125/0.039062 oct_tree_integral 3.010433e+00 scatter_volume 3.008932e+00
HYPOCENTER  x 25.2734 y 60.1172 z 13.8867  OT 0.215492  ix -1 iy -1 iz -1 MAXIMUM_LIKELIHOOD
GEOGRAPHIC  OT 2000 12 13  15 10 0.215492  Lat 35.940646 Long -117.719266 Depth 13.886719
QUALITY  Pmax 7.07248e+96 MFmin 51.2816 MFmax 54.8728 RMS 0.2202 Nphs 32 Gap 104.453 Dist 4.54912 Mamp -9.90 0 Mdur -9.90 0
VPVSRATIO  VpVsRatio 1.7152  Npair 11  Diff 5.05
STATISTICS  ExpectX 25.483316 Y 60.111891 Z 13.945674  CovXX 0.797389 XY 0.176464 XZ -0.467091 YY 0.337909 YZ 0.0489375 ZZ 1.44452 EllAz1  332.859 Dip1  -11.9864 Len1  0.912292 Az2  237.217 Dip2  -24.8484 Len2  1.51913 Len3  2.442689e+00
STAT_GEOG  ExpectLat 35.940598 Long -117.716935 Depth 13.945674
TRANSFORM  SIMPLE LatOrig 35.400000  LongOrig -118.000000  RotCW 0.000000
QML_OriginQuality  assocPhCt 32  usedPhCt 32  assocStaCt -1  usedStaCt 21  depthPhCt -1  stdErr 0.2202  azGap 104.453  secAzGap 104.453  gtLevel -  minDist 4.54912 maxDist 55.3499 medDist 29.0149
QML_OriginUncertainty  horUnc -1  minHorUnc 0.799567  maxHorUnc 1.40424  azMaxHorUnc 71.236
QML_ConfidenceEllipsoid  semiMajorAxisLength 2.44269  semiMinorAxisLength 0.912292  semiIntermediateAxisLength 1.51913  majorAxisPlunge -62.0476  majorAxisAzimuth 86.4431  majorAxisRotation 138.6
FOCALMECH  Hyp  35.940646 -117.719266 13.886719 Mech  0 0 0 mf  0 nObs -1
PHASE ID Ins Cmp On Pha  FM Date     HrMn   Sec     Err  ErrMag    Coda      Amp       Per       PriorWt  >   TTpred    Res       Weight    StaLoc(X  Y         Z)        SDist    SAzim  RAz  RDip RQual    Tcorr       TTerr
ST22         ?    ?    ? P      ? 20001213 1510    2.2900 GAU  2.00e-02 -1.00e+00 -1.00e+00 -1.00e+00    1.0000 >    2.5746   -0.5000    0.0345   26.8589   55.8533    0.0000    4.5491 159.60 159.6 159.3  9     0.0000    0.0515
ST22         ?    ?    ? S      ? 20001213 1510    3.0000 GAU  2.00e-02 -1.00e+00 -1.00e+00 -1.00e+00    1.0000 >    4.1868   -1.4023    0.0373   26.8589   55.8533    0.0000    4.5491 159.60 159.6 159.0  9     0.0000    0.0837
ST20         ?    ?    ? S      ? 20001213 1510    3.3600 GAU  2.00e-02 -1.00e+00 -1.00e+00 -1.00e+00    1.0000 >    4.3615   -1.2170    0.0373   26.5943   53.9852    0.0000    6.2726 167.84 167.8 152.7  9     0.0000    0.0872
ST3          ?    ?    ? P      ? 20001213 1510    3.3700 GAU  2.00e-02 -1.00e+00 -1.00e+00 -1.00e+00    1.0000 >    2.9397    0.2148    1.1191   17.1949   64.7711    0.0000    9.3232 299.95 299.9 142.1  9     0.0000    0.0588
ST3          ?    ?    ? S      ? 20001213 1510    4.9000 GAU  2.00e-02 -1.00e+00 -1.00e+00 -1.00e+00    1.0000 >    4.7646   -0.0801    1.1874   17.1949   64.7711    0.0000    9.3232 299.95 299.9 142.6 10     0.0000    0.0953
ST10         ?    ?    ? P      ? 20001213 1510    3.2400 GAU  2.00e-02 -1.00e+00 -1.00e+00 -1.00e+00    1.0000 >    3.0344   -0.0099    1.4503   21.1066   69.5192    0.0000   10.2840 336.10 336.1 139.0  9     0.0000    0.0607
ST10         ?    ?    ? S      ? 20001213 1510    5.1300 GAU  2.00e-02 -1.00e+00 -1.00e+00 -1.00e+00    1.0000 >    4.9128    0.0017    1.3909   21.1066   69.5192    0.0000   10.2840 336.10 336.1 139.8 10     0.0000    0.0983
ST8          ?    ?    ? P      ? 20001213 1510    4.4200 GAU  2.00e-02 -1.00e+00 -1.00e+00 -1.00e+00    1.0000 >    3.6121    0.5924    0.3119   21.2005   45.4232    0.0000   15.2480 195.49 195.5 123.6  9     0.0000    0.0722
ST8          ?    ?    ? S      ? 20001213 1510    6.5200 GAU  2.00e-02 -1.00e+00 -1.00e+00 -1.00e+00    1.0000 >    5.8167    0.4878    0.6286   21.2005   45.4232    0.0000   15.2480 195.49 195.5 125.5 10     0.0000    0.1163
ST21         ?    ?    ? P      ? 20001213 1510    4.7200 GAU  2.00e-02 -1.00e+00 -1.00e+00 -1.00e+00    1.0000 >    4.5235   -0.0190    1.3779   36.1150   41.1978    0.0000   21.8056 150.19 150.2 109.4  9     0.0000    0.0905
ST11         ?    ?    ? P      ? 20001213 1510    5.3200 GAU  2.00e-02 -1.00e+00 -1.00e+00 -1.00e+00    1.0000 >    4.7214    0.3831    0.8586   13.0335   79.7825    0.0000   23.1633 328.10 328.1 106.5  9     0.0000    0.0944
ST5          ?    ?    ? P      ? 20001213 1510    5.5300 GAU  2.00e-02 -1.00e+00 -1.00e+00 -1.00e+00    1.0000 >    4.9056    0.4089    0.8050   45.9261   73.1552    0.0000   24.4239  57.74  57.7 103.3  9     0.0000    0.0981
ST23         ?    ?    ? P      ? 20001213 1510    5.5000 GAU  2.00e-02 -1.00e+00 -1.00e+00 -1.00e+00    1.0000 >    5.3875   -0.1030    1.0816   38.6464   35.8493    0.0000   27.7086 151.14 151.1  92.4  8     0.0000    0.1077
ST23         ?    ?    ? S      ? 20001213 1510    8.9200 GAU  2.00e-02 -1.00e+00 -1.00e+00 -1.00e+00    1.0000 >    8.5721    0.1324    1.2572   38.6464   35.8493    0.0000   27.7086 151.14 151.1 109.0  9     0.0000    0.1714
ST7          ?    ?    ? P      ? 20001213 1510    5.9800 GAU  2.00e-02 -1.00e+00 -1.00e+00 -1.00e+00    1.0000 >    5.3937    0.3709    0.8919   22.5319   32.5023    0.0000   27.7506 185.67 185.7  92.2  8     0.0000    0.1079
ST25         ?    ?    ? P      ? 20001213 1510    5.8300 GAU  2.00e-02 -1.00e+00 -1.00e+00 -1.00e+00    1.0000 >    5.5796    0.0349    1.3855   35.8320   33.0917    0.0000   29.0149 158.66 158.7  87.2  9     0.0000    0.1116
ST25         ?    ?    ? S      ? 20001213 1510    9.3300 GAU  2.00e-02 -1.00e+00 -1.00e+00 -1.00e+00    1.0000 >    8.8772    0.2373    1.1388   35.8320   33.0917    0.0000   29.0149 158.66 158.7 108.0  9     0.0000    0.1775
ST14         ?    ?    ? P      ? 20001213 1510    6.8200 GAU  2.00e-02 -1.00e+00 -1.00e+00 -1.00e+00    1.0000 >    6.4652    0.1394    1.3051   58.1038   47.7138    0.0000   35.0952 110.70 110.7  75.0  8     0.0000    0.1293
ST15         ?    ?    ? P      ? 20001213 1510    7.2600 GAU  2.00e-02 -1.00e+00 -1.00e+00 -1.00e+00    1.0000 >    6.8831    0.1614    1.2725   38.9482   24.6853    0.0000   37.9792 158.90 158.9  74.4  8     0.0000    0.1377
ST2          ?    ?    ? P      ? 20001213 1510    7.5400 GAU  2.00e-02 -1.00e+00 -1.00e+00 -1.00e+00    1.0000 >    6.9543    0.3702    0.9020   36.5585   96.8954    0.0000   38.4706  17.06  17.1  74.4  8     0.0000    0.1391
ST19         ?    ?    ? P      ? 20001213 1510    7.2400 GAU  2.00e-02 -1.00e+00 -1.00e+00 -1.00e+00    1.0000 >    7.0995   -0.0750    1.1259   47.2048   27.2984    0.0000   39.4722 146.25 146.2  74.4  8     0.0000    0.1420
ST19         ?    ?    ? S      ? 20001213 1510   11.5900 GAU  2.00e-02 -1.00e+00 -1.00e+00 -1.00e+00    1.0000 >   11.3609    0.0136    1.1122   47.2048   27.2984    0.0000   39.4722 146.25 146.2 102.9  9     0.0000    0.2272
ST6          ?    ?    ? P      ? 20001213 1510    7.3600 GAU  2.00e-02 -1.00e+00 -1.00e+00 -1.00e+00    1.0000 >    7.1278    0.0167    1.3012   64.5535   54.5857    0.0000   39.6676  98.02  98.0  74.4  8     0.0000    0.1426
ST6          ?    ?    ? S      ? 20001213 1510   11.6400 GAU  2.00e-02 -1.00e+00 -1.00e+00 -1.00e+00    1.0000 >   11.4078    0.0167    1.1132   64.5535   54.5857    0.0000   39.6676  98.02  98.0 102.8  9     0.0000    0.2282
ST13         ?    ?    ? P      ? 20001213 1510    7.4900 GAU  2.00e-02 -1.00e+00 -1.00e+00 -1.00e+00    1.0000 >    7.2773   -0.0028    1.2703   52.0625   29.4778    0.0000   40.6992 138.84 138.8  74.3  8     0.0000    0.1455
ST13         ?    ?    ? S      ? 20001213 1510   12.1500 GAU  2.00e-02 -1.00e+00 -1.00e+00 -1.00e+00    1.0000 >   11.6555    0.2790    1.0230   52.0625   29.4778    0.0000   40.6992 138.84 138.8 102.4  9     0.0000    0.2331
ST18         ?    ?    ? P      ? 20001213 1510    7.8500 GAU  2.00e-02 -1.00e+00 -1.00e+00 -1.00e+00    1.0000 >    7.6330    0.0015    1.2593   45.8666   22.1945    0.0000   43.1533 151.50 151.5  74.3  8     0.0000    0.1527
ST18         ?    ?    ? S      ? 20001213 1510   12.7200 GAU  2.00e-02 -1.00e+00 -1.00e+00 -1.00e+00    1.0000 >   12.2460    0.2585    1.0334   45.8666   22.1945    0.0000   43.1533 151.50 151.5 101.7  9     0.0000    0.2449
ST24         ?    ?    ? P      ? 20001213 1510    8.7500 GAU  2.00e-02 -1.00e+00 -1.00e+00 -1.00e+00    1.0000 >    8.4285    0.1060    1.2735   55.9556   22.3725    0.0000   48.6422 140.89 140.9  74.1  8     0.0000    0.1686
ST4          ?    ?    ? P      ? 20001213 1510    8.8800 GAU  2.00e-02 -1.00e+00 -1.00e+00 -1.00e+00    1.0000 >    8.8278   -0.1633    0.8396   28.7854    8.8400    0.0000   51.3973 176.08 176.1  74.1  8     0.0000    0.1766
ST4          ?    ?    ? S      ? 20001213 1510   14.6400 GAU  2.00e-02 -1.00e+00 -1.00e+00 -1.00e+00    1.0000 >   14.2395    0.1850    1.0279   28.7854    8.8400    0.0000   51.3973 176.08 176.1  99.7  9     0.0000    0.2848
ST17         ?    ?    ? P      ? 20001213 1510    9.8400 GAU  2.00e-02 -1.00e+00 -1.00e+00 -1.00e+00    1.0000 >    9.4006    0.2239    1.1470   64.4820   21.0492    0.0000   55.3499 134.90 134.9  74.0  8     0.0000    0.1880
END_PHASE
END_NLLOC

