NLLOC "./loc/alaska.20001213.151001_008.grid0" "LOCATED" "Location completed."
PUBLIC_ID None
SIGNATURE "NonLinLoc - Yifan Yu   obs:./obs/phase.obs   NLLoc:v7.00.16(17Apr2023)   run:21Aug2023 13h20m26"
COMMENT "2023-8-21 test"
GRID  201 201 41  0 0 0  0.5 0.5 0.5 PROB_DENSITY
SEARCH OCTREE nInitial 400 nEvaluated 9352 smallestNodeSide 0.019531/0.019531/0.009766 oct_tree_integral 4.495520e-02 scatter_volume 4.481802e-02
HYPOCENTER  x 46.0645 y 27.0801 z 0.00488281  OT 1.20938  ix -1 iy -1 iz -1 MAXIMUM_LIKELIHOOD
GEOGRAPHIC  OT 2000 12 13  15 10 1.209385  Lat 35.643537 Long -117.490232 Depth 0.004883
QUALITY  Pmax 1.82379e+177 MFmin 90.8648 MFmax 92.628 RMS 0.231239 Nphs 54 Gap 43.2448 Dist 1.16104 Mamp -9.90 0 Mdur -9.90 0
VPVSRATIO  VpVsRatio 1.70648  Npair 27  Diff 7.67
STATISTICS  ExpectX 46.020697 Y 27.093207 Z 0.492834  CovXX 0.0886576 XY 0.0109293 XZ -0.102855 YY 0.0275112 YZ -0.0159172 ZZ 0.338028 EllAz1  348.977 Dip1  -0.741476 Len1  0.300566 Az2  258.706 Dip2  -20.0183 Len2  0.431013 Len3  1.152043e+00
STAT_GEOG  ExpectLat 35.643655 Long -117.490716 Depth 0.492834
TRANSFORM  SIMPLE LatOrig 35.400000  LongOrig -118.000000  RotCW 0.000000
QML_OriginQuality  assocPhCt 54  usedPhCt 54  assocStaCt -1  usedStaCt 27  depthPhCt -1  stdErr 0.231239  azGap 43.2448  secAzGap 43.2448  gtLevel -  minDist 1.16104 maxDist 70.4595 medDist 23.8892
QML_OriginUncertainty  horUnc -1  minHorUnc 0.24273  maxHorUnc 0.456367  azMaxHorUnc 80.1645
QML_ConfidenceEllipsoid  semiMajorAxisLength 1.15204  semiMinorAxisLength 0.300566  semiIntermediateAxisLength 0.431013  majorAxisPlunge -69.9668  majorAxisAzimuth 81.0106  majorAxisRotation 177.172
FOCALMECH  Hyp  35.643537 -117.490232 0.004883 Mech  0 0 0 mf  0 nObs -1
PHASE ID Ins Cmp On Pha  FM Date     HrMn   Sec     Err  ErrMag    Coda      Amp       Per       PriorWt  >   TTpred    Res       Weight    StaLoc(X  Y         Z)        SDist    SAzim  RAz  RDip RQual    Tcorr       TTerr
ST19         ?    ?    ? P      ? 20001213 1510    1.3100 GAU  2.00e-02 -1.00e+00 -1.00e+00 -1.00e+00    1.0000 >    0.2193   -0.1186    1.5474   47.2048   27.2984    0.0000    1.1610  79.16 259.2 200.0  0     0.0000    0.0500
ST19         ?    ?    ? S      ? 20001213 1510    1.5300 GAU  2.00e-02 -1.00e+00 -1.00e+00 -1.00e+00    1.0000 >    0.3861   -0.0655    2.0626   47.2048   27.2984    0.0000    1.1610  79.16 259.2 200.0  0     0.0000    0.0500
ST18         ?    ?    ? P      ? 20001213 1510    2.1200 GAU  2.00e-02 -1.00e+00 -1.00e+00 -1.00e+00    1.0000 >    0.9226   -0.0120    2.2843   45.8666   22.1945    0.0000    4.8895 182.32   2.3 200.0  0     0.0000    0.0500
ST18         ?    ?    ? S      ? 20001213 1510    2.8900 GAU  2.00e-02 -1.00e+00 -1.00e+00 -1.00e+00    1.0000 >    1.6245    0.0561    2.0087   45.8666   22.1945    0.0000    4.8895 182.32   2.3 200.0  0     0.0000    0.0500
ST13         ?    ?    ? P      ? 20001213 1510    2.4000 GAU  2.00e-02 -1.00e+00 -1.00e+00 -1.00e+00    1.0000 >    1.2188   -0.0282    2.2574   52.0625   29.4778    0.0000    6.4595  68.21 248.2 200.0  0     0.0000    0.0500
ST13         ?    ?    ? S      ? 20001213 1510    3.3900 GAU  2.00e-02 -1.00e+00 -1.00e+00 -1.00e+00    1.0000 >    2.1461    0.0345    2.1573   52.0625   29.4778    0.0000    6.4595  68.21 248.2 200.0  0     0.0000    0.0500
ST15         ?    ?    ? P      ? 20001213 1510    2.5500 GAU  2.00e-02 -1.00e+00 -1.00e+00 -1.00e+00    1.0000 >    1.4167   -0.0761    1.9771   38.9482   24.6853    0.0000    7.5084 251.40  71.4 200.0  0     0.0000    0.0500
ST15         ?    ?    ? S      ? 20001213 1510    3.6000 GAU  2.00e-02 -1.00e+00 -1.00e+00 -1.00e+00    1.0000 >    2.4946   -0.1040    1.7076   38.9482   24.6853    0.0000    7.5084 251.40  71.4 200.0  0     0.0000    0.0500
ST26         ?    ?    ? P      ? 20001213 1510    3.4000 GAU  2.00e-02 -1.00e+00 -1.00e+00 -1.00e+00    1.0000 >    1.8734    0.3172    0.7667   52.5727   19.5815    0.0000    9.9291 139.04 319.0 200.0  0     0.0000    0.0500
ST26         ?    ?    ? S      ? 20001213 1510    5.0300 GAU  2.00e-02 -1.00e+00 -1.00e+00 -1.00e+00    1.0000 >    3.2988    0.5219    0.3574   52.5727   19.5815    0.0000    9.9291 139.04 319.0 200.0  0     0.0000    0.0660
ST24         ?    ?    ? P      ? 20001213 1510    3.6900 GAU  2.00e-02 -1.00e+00 -1.00e+00 -1.00e+00    1.0000 >    2.0669    0.4137    0.5650   55.9556   22.3725    0.0000   10.9543 115.45 295.5 200.0  0     0.0000    0.0500
ST24         ?    ?    ? S      ? 20001213 1510    5.5700 GAU  2.00e-02 -1.00e+00 -1.00e+00 -1.00e+00    1.0000 >    3.6394    0.7212    0.3292   55.9556   22.3725    0.0000   10.9543 115.45 295.5 200.0  0     0.0000    0.0728
ST23         ?    ?    ? P      ? 20001213 1510    3.4000 GAU  2.00e-02 -1.00e+00 -1.00e+00 -1.00e+00    1.0000 >    2.1672    0.0234    2.2138   38.6464   35.8493    0.0000   11.4859 319.77 139.8 200.0  0     0.0000    0.0500
ST23         ?    ?    ? S      ? 20001213 1510    5.0000 GAU  2.00e-02 -1.00e+00 -1.00e+00 -1.00e+00    1.0000 >    3.8160   -0.0254    2.1202   38.6464   35.8493    0.0000   11.4859 319.77 139.8 200.0  0     0.0000    0.0763
ST25         ?    ?    ? P      ? 20001213 1510    3.5100 GAU  2.00e-02 -1.00e+00 -1.00e+00 -1.00e+00    1.0000 >    2.2392    0.0614    1.9658   35.8320   33.0917    0.0000   11.8677 300.43 120.4 200.0  0     0.0000    0.0500
ST25         ?    ?    ? S      ? 20001213 1510    5.1800 GAU  2.00e-02 -1.00e+00 -1.00e+00 -1.00e+00    1.0000 >    3.9428    0.0278    2.0667   35.8320   33.0917    0.0000   11.8677 300.43 120.4 200.0  0     0.0000    0.0789
ST21         ?    ?    ? P      ? 20001213 1510    4.6500 GAU  2.00e-02 -1.00e+00 -1.00e+00 -1.00e+00    1.0000 >    3.2588    0.1818    1.1247   36.1150   41.1978    0.0000   17.2714 324.83 144.8 200.0  0     0.0000    0.0652
ST21         ?    ?    ? S      ? 20001213 1510    7.0600 GAU  2.00e-02 -1.00e+00 -1.00e+00 -1.00e+00    1.0000 >    5.7381    0.1126    1.6117   36.1150   41.1978    0.0000   17.2714 324.83 144.8 200.0  0     0.0000    0.1148
ST0          ?    ?    ? P      ? 20001213 1510    5.3100 GAU  2.00e-02 -1.00e+00 -1.00e+00 -1.00e+00    1.0000 >    3.2943    0.8063    0.2958   57.5022   13.8883    0.0000   17.4598 139.07 319.1 200.0  0     0.0000    0.0659
ST0          ?    ?    ? S      ? 20001213 1510    8.2400 GAU  2.00e-02 -1.00e+00 -1.00e+00 -1.00e+00    1.0000 >    5.8007    1.2300    0.0746   57.5022   13.8883    0.0000   17.4598 139.07 319.1 200.0  0     0.0000    0.1160
ST17         ?    ?    ? P      ? 20001213 1510    5.6500 GAU  2.00e-02 -1.00e+00 -1.00e+00 -1.00e+00    1.0000 >    3.6566    0.7840    0.3212   64.4820   21.0492    0.0000   19.3798 108.13 288.1 200.0  0     0.0000    0.0731
ST17         ?    ?    ? S      ? 20001213 1510    8.8100 GAU  2.00e-02 -1.00e+00 -1.00e+00 -1.00e+00    1.0000 >    6.4385    1.1621    0.0854   64.4820   21.0492    0.0000   19.3798 108.13 288.1 200.0  0     0.0000    0.1288
ST16         ?    ?    ? P      ? 20001213 1510    5.0800 GAU  2.00e-02 -1.00e+00 -1.00e+00 -1.00e+00    1.0000 >    3.6612    0.2094    1.0539   39.8239    8.7066    0.0000   19.4044 198.76  18.8 200.0  0     0.0000    0.0732
ST16         ?    ?    ? S      ? 20001213 1510    7.7100 GAU  2.00e-02 -1.00e+00 -1.00e+00 -1.00e+00    1.0000 >    6.4467    0.0539    1.7658   39.8239    8.7066    0.0000   19.4044 198.76  18.8 200.0  0     0.0000    0.1289
ST1          ?    ?    ? P      ? 20001213 1510    5.5200 GAU  2.00e-02 -1.00e+00 -1.00e+00 -1.00e+00    1.0000 >    4.0554    0.2552    0.9495   36.2928   46.2238    0.0000   21.4934 332.96 153.0 200.0  0     0.0000    0.0811
ST1          ?    ?    ? S      ? 20001213 1510    8.5800 GAU  2.00e-02 -1.00e+00 -1.00e+00 -1.00e+00    1.0000 >    7.1407    0.2299    1.1765   36.2928   46.2238    0.0000   21.4934 332.96 153.0 200.0  0     0.0000    0.1428
ST14         ?    ?    ? P      ? 20001213 1510    5.7600 GAU  2.00e-02 -1.00e+00 -1.00e+00 -1.00e+00    1.0000 >    4.5074    0.0432    1.9603   58.1038   47.7138    0.0000   23.8892  30.26 210.3 200.0  0     0.0000    0.0901
ST14         ?    ?    ? S      ? 20001213 1510    9.0600 GAU  2.00e-02 -1.00e+00 -1.00e+00 -1.00e+00    1.0000 >    7.9367   -0.0861    1.5287   58.1038   47.7138    0.0000   23.8892  30.26 210.3 200.0  0     0.0000    0.1587
ST7          ?    ?    ? P      ? 20001213 1510    6.0900 GAU  2.00e-02 -1.00e+00 -1.00e+00 -1.00e+00    1.0000 >    4.5565    0.3242    0.8196   22.5319   32.5023    0.0000   24.1491 282.98 103.0 200.0  0     0.0000    0.0911
ST7          ?    ?    ? S      ? 20001213 1510    9.8200 GAU  2.00e-02 -1.00e+00 -1.00e+00 -1.00e+00    1.0000 >    8.0230    0.5876    0.4564   22.5319   32.5023    0.0000   24.1491 282.98 103.0 200.0  0     0.0000    0.1605
ST4          ?    ?    ? P      ? 20001213 1510    5.9100 GAU  2.00e-02 -1.00e+00 -1.00e+00 -1.00e+00    1.0000 >    4.7406   -0.0400    1.9671   28.7854    8.8400    0.0000   25.1250 223.45  43.5 200.0  0     0.0000    0.0948
ST4          ?    ?    ? S      ? 20001213 1510    9.0600 GAU  2.00e-02 -1.00e+00 -1.00e+00 -1.00e+00    1.0000 >    8.3472   -0.4966    0.3760   28.7854    8.8400    0.0000   25.1250 223.45  43.5 200.0  0     0.0000    0.1669
ST8          ?    ?    ? P      ? 20001213 1510    7.4200 GAU  2.00e-02 -1.00e+00 -1.00e+00 -1.00e+00    1.0000 >    5.8298    0.3808    0.7271   21.2005   45.4232    0.0000   30.8980 306.42 126.4 200.0  0     0.0000    0.1166
ST8          ?    ?    ? S      ? 20001213 1510   12.0000 GAU  2.00e-02 -1.00e+00 -1.00e+00 -1.00e+00    1.0000 >   10.2651    0.5255    0.5836   21.2005   45.4232    0.0000   30.8980 306.42 126.4 200.0  0     0.0000    0.2053
ST6          ?    ?    ? P      ? 20001213 1510    7.0900 GAU  2.00e-02 -1.00e+00 -1.00e+00 -1.00e+00    1.0000 >    6.2533   -0.3726    0.4569   64.5535   54.5857    0.0000   33.1421  33.91 213.9 200.0  0     0.0000    0.1251
ST6          ?    ?    ? S      ? 20001213 1510   11.2900 GAU  2.00e-02 -1.00e+00 -1.00e+00 -1.00e+00    1.0000 >   11.0107   -0.9301    0.2497   64.5535   54.5857    0.0000   33.1421  33.91 213.9 200.0  0     0.0000    0.2202
ST20         ?    ?    ? P      ? 20001213 1510    7.5000 GAU  2.00e-02 -1.00e+00 -1.00e+00 -1.00e+00    1.0000 >    6.2663    0.0244    1.8275   26.5943   53.9852    0.0000   33.2110 324.11 144.1 200.0  0     0.0000    0.1253
ST20         ?    ?    ? S      ? 20001213 1510   12.0700 GAU  2.00e-02 -1.00e+00 -1.00e+00 -1.00e+00    1.0000 >   11.0336   -0.1730    1.1696   26.5943   53.9852    0.0000   33.2110 324.11 144.1 200.0  0     0.0000    0.2207
ST22         ?    ?    ? P      ? 20001213 1510    7.6600 GAU  2.00e-02 -1.00e+00 -1.00e+00 -1.00e+00    1.0000 >    6.5272   -0.0766    1.6622   26.8589   55.8533    0.0000   34.5941 326.28 146.3 200.0  0     0.0000    0.1305
ST22         ?    ?    ? S      ? 20001213 1510   12.3100 GAU  2.00e-02 -1.00e+00 -1.00e+00 -1.00e+00    1.0000 >   11.4931   -0.3925    0.6477   26.8589   55.8533    0.0000   34.5941 326.28 146.3 200.0  0     0.0000    0.2299
ST9          ?    ?    ? P      ? 20001213 1510    7.9800 GAU  2.00e-02 -1.00e+00 -1.00e+00 -1.00e+00    1.0000 >    6.8634   -0.0928    1.5788    9.8992   23.1731    0.0000   36.3757 263.83  83.8 200.0  0     0.0000    0.1373
ST9          ?    ?    ? S      ? 20001213 1510   13.0500 GAU  2.00e-02 -1.00e+00 -1.00e+00 -1.00e+00    1.0000 >   12.0850   -0.2444    0.9883    9.8992   23.1731    0.0000   36.3757 263.83  83.8 200.0  0     0.0000    0.2417
ST12         ?    ?    ? P      ? 20001213 1510    7.7800 GAU  2.00e-02 -1.00e+00 -1.00e+00 -1.00e+00    1.0000 >    6.9540   -0.3834    0.4726   31.4703   60.9238    0.0000   36.8563 336.67 156.7 200.0  0     0.0000    0.1391
ST12         ?    ?    ? S      ? 20001213 1510   12.4500 GAU  2.00e-02 -1.00e+00 -1.00e+00 -1.00e+00    1.0000 >   12.2446   -1.0040    0.2362   31.4703   60.9238    0.0000   36.8563 336.67 156.7 200.0  0     0.0000    0.2449
ST5          ?    ?    ? P      ? 20001213 1510    9.1500 GAU  2.00e-02 -1.00e+00 -1.00e+00 -1.00e+00    1.0000 >    8.6933   -0.7527    0.2705   45.9261   73.1552    0.0000   46.0754 359.83 179.8 200.0  0     0.0000    0.1739
ST5          ?    ?    ? S      ? 20001213 1510   14.6200 GAU  2.00e-02 -1.00e+00 -1.00e+00 -1.00e+00    1.0000 >   15.3072   -1.8966    0.1107   45.9261   73.1552    0.0000   46.0754 359.83 179.8 200.0  0     0.0000    0.3061
ST3          ?    ?    ? P      ? 20001213 1510    9.3100 GAU  2.00e-02 -1.00e+00 -1.00e+00 -1.00e+00    1.0000 >    8.9565   -0.8559    0.2567   17.1949   64.7711    0.0000   47.4770 322.55 142.5 200.0  0     0.0000    0.1791
ST3          ?    ?    ? S      ? 20001213 1510   15.1300 GAU  2.00e-02 -1.00e+00 -1.00e+00 -1.00e+00    1.0000 >   15.7707   -1.8501    0.1159   17.1949   64.7711    0.0000   47.4770 322.55 142.5 200.0  0     0.0000    0.3154
ST10         ?    ?    ? P      ? 20001213 1510    9.5200 GAU  2.00e-02 -1.00e+00 -1.00e+00 -1.00e+00    1.0000 >    9.2812   -0.9706    0.2357   21.1066   69.5192    0.0000   49.2339 329.54 149.5 200.0  0     0.0000    0.1856
ST10         ?    ?    ? S      ? 20001213 1510   15.5200 GAU  2.00e-02 -1.00e+00 -1.00e+00 -1.00e+00    1.0000 >   16.3429   -2.0323    0.0983   21.1066   69.5192    0.0000   49.2339 329.54 149.5 200.0  0     0.0000    0.3269
ST11         ?    ?    ? P      ? 20001213 1510   11.4400 GAU  2.00e-02 -1.00e+00 -1.00e+00 -1.00e+00    1.0000 >   11.5872   -1.3566    0.1538   13.0335   79.7825    0.0000   62.1979 327.92 147.9 200.0  0     0.0000    0.2317
ST11         ?    ?    ? S      ? 20001213 1510   19.0600 GAU  2.00e-02 -1.00e+00 -1.00e+00 -1.00e+00    1.0000 >   20.4055   -2.5548    0.0498   13.0335   79.7825    0.0000   62.1979 327.92 147.9 200.0  0     0.0000    0.4081
ST2          ?    ?    ? P      ? 20001213 1510   12.6600 GAU  2.00e-02 -1.00e+00 -1.00e+00 -1.00e+00    1.0000 >   12.9233   -1.4727    0.1439   36.5585   96.8954    0.0000   70.4595 352.25 172.2 200.0  0     0.0000    0.2585
ST2          ?    ?    ? S      ? 20001213 1510   20.5500 GAU  2.00e-02 -1.00e+00 -1.00e+00 -1.00e+00    1.0000 >   22.7585   -3.4179    0.0104   36.5585   96.8954    0.0000   70.4595 352.25 172.2 200.0  0     0.0000    0.4552
END_PHASE
END_NLLOC

