NLLOC "./loc/alaska.20001213.151001_005.grid0" "LOCATED" "Location completed."
PUBLIC_ID None
SIGNATURE "NonLinLoc - Yifan Yu   obs:./obs/phase.obs   NLLoc:v7.00.16(17Apr2023)   run:21Aug2023 13h20m23"
COMMENT "2023-8-21 test"
GRID  201 201 41  0 0 0  0.5 0.5 0.5 PROB_DENSITY
SEARCH OCTREE nInitial 400 nEvaluated 8024 smallestNodeSide 0.019531/0.019531/0.009766 oct_tree_integral 4.013858e-02 scatter_volume 3.990218e-02
HYPOCENTER  x 46.7871 y 28.7598 z 0.00488281  OT 1.23743  ix -1 iy -1 iz -1 MAXIMUM_LIKELIHOOD
GEOGRAPHIC  OT 2000 12 13  15 10 1.237426  Lat 35.658642 Long -117.482137 Depth 0.004883
QUALITY  Pmax 1.15396e+179 MFmin 91.0769 MFmax 92.6272 RMS 0.219873 Nphs 54 Gap 47.7237 Dist 1.51989 Mamp -9.90 0 Mdur -9.90 0
VPVSRATIO  VpVsRatio 1.70471  Npair 27  Diff 7.42
STATISTICS  ExpectX 46.797213 Y 28.734453 Z 0.465236  CovXX 0.0132445 XY 0.000706343 XZ 8.29271e-05 YY 0.0135113 YZ -0.00595136 ZZ 0.11796 EllAz1  136.389 Dip1  -2.37075 Len1  0.210044 Az2  226.481 Dip2  -2.22262 Len2  0.221668 Len3  6.462125e-01
STAT_GEOG  ExpectLat 35.658415 Long -117.482027 Depth 0.465236
TRANSFORM  SIMPLE LatOrig 35.400000  LongOrig -118.000000  RotCW 0.000000
QML_OriginQuality  assocPhCt 54  usedPhCt 54  assocStaCt -1  usedStaCt 27  depthPhCt -1  stdErr 0.219873  azGap 47.7237  secAzGap 47.7237  gtLevel -  minDist 1.51989 maxDist 68.8991 medDist 22.0754
QML_OriginUncertainty  horUnc -1  minHorUnc 0.170634  maxHorUnc 0.180063  azMaxHorUnc 39.6528
QML_ConfidenceEllipsoid  semiMajorAxisLength 0.646212  semiMinorAxisLength 0.210044  semiIntermediateAxisLength 0.221668  majorAxisPlunge 86.7494  majorAxisAzimuth 179.589  majorAxisRotation 132.97
FOCALMECH  Hyp  35.658642 -117.482137 0.004883 Mech  0 0 0 mf  0 nObs -1
PHASE ID Ins Cmp On Pha  FM Date     HrMn   Sec     Err  ErrMag    Coda      Amp       Per       PriorWt  >   TTpred    Res       Weight    StaLoc(X  Y         Z)        SDist    SAzim  RAz  RDip RQual    Tcorr       TTerr
ST19         ?    ?    ? P      ? 20001213 1510    1.4400 GAU  2.00e-02 -1.00e+00 -1.00e+00 -1.00e+00    1.0000 >    0.2869   -0.0843    1.6814   47.2048   27.2984    0.0000    1.5199 164.05 344.0 200.0  0     0.0000    0.0500
ST19         ?    ?    ? S      ? 20001213 1510    1.7400 GAU  2.00e-02 -1.00e+00 -1.00e+00 -1.00e+00    1.0000 >    0.5052   -0.0026    2.3319   47.2048   27.2984    0.0000    1.5199 164.05 344.0 200.0  0     0.0000    0.0500
ST13         ?    ?    ? P      ? 20001213 1510    2.1800 GAU  2.00e-02 -1.00e+00 -1.00e+00 -1.00e+00    1.0000 >    1.0046   -0.0620    1.9479   52.0625   29.4778    0.0000    5.3240  82.25 262.2 200.0  0     0.0000    0.0500
ST13         ?    ?    ? S      ? 20001213 1510    3.0200 GAU  2.00e-02 -1.00e+00 -1.00e+00 -1.00e+00    1.0000 >    1.7689    0.0137    2.3152   52.0625   29.4778    0.0000    5.3240  82.25 262.2 200.0  0     0.0000    0.0500
ST18         ?    ?    ? P      ? 20001213 1510    2.4900 GAU  2.00e-02 -1.00e+00 -1.00e+00 -1.00e+00    1.0000 >    1.2509    0.0017    2.3330   45.8666   22.1945    0.0000    6.6294 187.98   8.0 200.0  0     0.0000    0.0500
ST18         ?    ?    ? S      ? 20001213 1510    3.5100 GAU  2.00e-02 -1.00e+00 -1.00e+00 -1.00e+00    1.0000 >    2.2026    0.0700    1.9007   45.8666   22.1945    0.0000    6.6294 187.98   8.0 200.0  0     0.0000    0.0500
ST15         ?    ?    ? P      ? 20001213 1510    2.8800 GAU  2.00e-02 -1.00e+00 -1.00e+00 -1.00e+00    1.0000 >    1.6670   -0.0244    2.2663   38.9482   24.6853    0.0000    8.8346 242.54  62.5 200.0  0     0.0000    0.0500
ST15         ?    ?    ? S      ? 20001213 1510    4.1500 GAU  2.00e-02 -1.00e+00 -1.00e+00 -1.00e+00    1.0000 >    2.9352   -0.0226    2.2097   38.9482   24.6853    0.0000    8.8346 242.54  62.5 200.0  0     0.0000    0.0587
ST23         ?    ?    ? P      ? 20001213 1510    3.2800 GAU  2.00e-02 -1.00e+00 -1.00e+00 -1.00e+00    1.0000 >    2.0368    0.0057    2.3304   38.6464   35.8493    0.0000   10.7950 311.05 131.1 200.0  0     0.0000    0.0500
ST23         ?    ?    ? S      ? 20001213 1510    4.8000 GAU  2.00e-02 -1.00e+00 -1.00e+00 -1.00e+00    1.0000 >    3.5864   -0.0239    2.1002   38.6464   35.8493    0.0000   10.7950 311.05 131.1 200.0  0     0.0000    0.0717
ST26         ?    ?    ? P      ? 20001213 1510    3.5800 GAU  2.00e-02 -1.00e+00 -1.00e+00 -1.00e+00    1.0000 >    2.0471    0.2954    0.7726   52.5727   19.5815    0.0000   10.8496 147.77 327.8 200.0  0     0.0000    0.0500
ST26         ?    ?    ? S      ? 20001213 1510    5.3500 GAU  2.00e-02 -1.00e+00 -1.00e+00 -1.00e+00    1.0000 >    3.6046    0.5080    0.3981   52.5727   19.5815    0.0000   10.8496 147.77 327.8 200.0  0     0.0000    0.0721
ST24         ?    ?    ? P      ? 20001213 1510    3.7400 GAU  2.00e-02 -1.00e+00 -1.00e+00 -1.00e+00    1.0000 >    2.1084    0.3942    0.6083   55.9556   22.3725    0.0000   11.1741 124.86 304.9 200.0  0     0.0000    0.0500
ST24         ?    ?    ? S      ? 20001213 1510    5.6500 GAU  2.00e-02 -1.00e+00 -1.00e+00 -1.00e+00    1.0000 >    3.7124    0.7002    0.3765   55.9556   22.3725    0.0000   11.1741 124.86 304.9 200.0  0     0.0000    0.0742
ST25         ?    ?    ? P      ? 20001213 1510    3.5000 GAU  2.00e-02 -1.00e+00 -1.00e+00 -1.00e+00    1.0000 >    2.2228    0.0398    2.1795   35.8320   33.0917    0.0000   11.7805 291.57 111.6 200.0  0     0.0000    0.0500
ST25         ?    ?    ? S      ? 20001213 1510    5.1700 GAU  2.00e-02 -1.00e+00 -1.00e+00 -1.00e+00    1.0000 >    3.9138    0.0187    2.0800   35.8320   33.0917    0.0000   11.7805 291.57 111.6 200.0  0     0.0000    0.0783
ST21         ?    ?    ? P      ? 20001213 1510    4.4700 GAU  2.00e-02 -1.00e+00 -1.00e+00 -1.00e+00    1.0000 >    3.0923    0.1403    1.2648   36.1150   41.1978    0.0000   16.3890 319.37 139.4 200.0  0     0.0000    0.0618
ST21         ?    ?    ? S      ? 20001213 1510    6.7600 GAU  2.00e-02 -1.00e+00 -1.00e+00 -1.00e+00    1.0000 >    5.4449    0.0777    1.7155   36.1150   41.1978    0.0000   16.3890 319.37 139.4 200.0  0     0.0000    0.1089
ST0          ?    ?    ? P      ? 20001213 1510    5.4300 GAU  2.00e-02 -1.00e+00 -1.00e+00 -1.00e+00    1.0000 >    3.4584    0.7341    0.3576   57.5022   13.8883    0.0000   18.3296 144.23 324.2 200.0  0     0.0000    0.0692
ST0          ?    ?    ? S      ? 20001213 1510    8.4400 GAU  2.00e-02 -1.00e+00 -1.00e+00 -1.00e+00    1.0000 >    6.0896    1.1130    0.0828   57.5022   13.8883    0.0000   18.3296 144.23 324.2 200.0  0     0.0000    0.1218
ST17         ?    ?    ? P      ? 20001213 1510    5.6100 GAU  2.00e-02 -1.00e+00 -1.00e+00 -1.00e+00    1.0000 >    3.6419    0.7307    0.3602   64.4820   21.0492    0.0000   19.3018 113.55 293.5 200.0  0     0.0000    0.0728
ST17         ?    ?    ? S      ? 20001213 1510    8.7300 GAU  2.00e-02 -1.00e+00 -1.00e+00 -1.00e+00    1.0000 >    6.4126    1.0800    0.0942   64.4820   21.0492    0.0000   19.3018 113.55 293.5 200.0  0     0.0000    0.1283
ST1          ?    ?    ? P      ? 20001213 1510    5.3600 GAU  2.00e-02 -1.00e+00 -1.00e+00 -1.00e+00    1.0000 >    3.8443    0.2783    0.8386   36.2928   46.2238    0.0000   20.3746 329.00 149.0 200.0  0     0.0000    0.0769
ST1          ?    ?    ? S      ? 20001213 1510    8.3100 GAU  2.00e-02 -1.00e+00 -1.00e+00 -1.00e+00    1.0000 >    6.7690    0.3036    0.8962   36.2928   46.2238    0.0000   20.3746 329.00 149.0 200.0  0     0.0000    0.1354
ST16         ?    ?    ? P      ? 20001213 1510    5.4700 GAU  2.00e-02 -1.00e+00 -1.00e+00 -1.00e+00    1.0000 >    4.0053    0.2273    0.9494   39.8239    8.7066    0.0000   21.2277 199.15  19.1 200.0  0     0.0000    0.0801
ST16         ?    ?    ? S      ? 20001213 1510    8.3900 GAU  2.00e-02 -1.00e+00 -1.00e+00 -1.00e+00    1.0000 >    7.0524    0.1001    1.5489   39.8239    8.7066    0.0000   21.2277 199.15  19.1 200.0  0     0.0000    0.1410
ST14         ?    ?    ? P      ? 20001213 1510    5.4700 GAU  2.00e-02 -1.00e+00 -1.00e+00 -1.00e+00    1.0000 >    4.1652    0.0674    1.8527   58.1038   47.7138    0.0000   22.0754  30.84 210.8 200.0  0     0.0000    0.0833
ST14         ?    ?    ? S      ? 20001213 1510    8.5800 GAU  2.00e-02 -1.00e+00 -1.00e+00 -1.00e+00    1.0000 >    7.3341    0.0085    1.6419   58.1038   47.7138    0.0000   22.0754  30.84 210.8 200.0  0     0.0000    0.1467
ST7          ?    ?    ? P      ? 20001213 1510    6.2000 GAU  2.00e-02 -1.00e+00 -1.00e+00 -1.00e+00    1.0000 >    4.6306    0.3319    0.7738   22.5319   32.5023    0.0000   24.5422 278.77  98.8 200.0  0     0.0000    0.0926
ST7          ?    ?    ? S      ? 20001213 1510    9.9900 GAU  2.00e-02 -1.00e+00 -1.00e+00 -1.00e+00    1.0000 >    8.1536    0.5990    0.4610   22.5319   32.5023    0.0000   24.5422 278.77  98.8 200.0  0     0.0000    0.1631
ST4          ?    ?    ? P      ? 20001213 1510    6.2300 GAU  2.00e-02 -1.00e+00 -1.00e+00 -1.00e+00    1.0000 >    5.0658   -0.0733    1.6701   28.7854    8.8400    0.0000   26.8488 222.10  42.1 200.0  0     0.0000    0.1013
ST4          ?    ?    ? S      ? 20001213 1510    9.6500 GAU  2.00e-02 -1.00e+00 -1.00e+00 -1.00e+00    1.0000 >    8.9199   -0.5073    0.3632   28.7854    8.8400    0.0000   26.8488 222.10  42.1 200.0  0     0.0000    0.1784
ST8          ?    ?    ? P      ? 20001213 1510    7.3900 GAU  2.00e-02 -1.00e+00 -1.00e+00 -1.00e+00    1.0000 >    5.7612    0.3914    0.6816   21.2005   45.4232    0.0000   30.5343 303.07 123.1 200.0  0     0.0000    0.1152
ST8          ?    ?    ? S      ? 20001213 1510   11.9500 GAU  2.00e-02 -1.00e+00 -1.00e+00 -1.00e+00    1.0000 >   10.1443    0.5683    0.5245   21.2005   45.4232    0.0000   30.5343 303.07 123.1 200.0  0     0.0000    0.2029
ST6          ?    ?    ? P      ? 20001213 1510    6.8200 GAU  2.00e-02 -1.00e+00 -1.00e+00 -1.00e+00    1.0000 >    5.9145   -0.3319    0.4645   64.5535   54.5857    0.0000   31.3468  34.53 214.5 200.0  0     0.0000    0.1183
ST6          ?    ?    ? S      ? 20001213 1510   10.8500 GAU  2.00e-02 -1.00e+00 -1.00e+00 -1.00e+00    1.0000 >   10.4142   -0.8017    0.2623   64.5535   54.5857    0.0000   31.3468  34.53 214.5 200.0  0     0.0000    0.2083
ST20         ?    ?    ? P      ? 20001213 1510    7.3700 GAU  2.00e-02 -1.00e+00 -1.00e+00 -1.00e+00    1.0000 >    6.0966    0.0359    1.7625   26.5943   53.9852    0.0000   32.3121 321.32 141.3 200.0  0     0.0000    0.1219
ST20         ?    ?    ? S      ? 20001213 1510   11.8400 GAU  2.00e-02 -1.00e+00 -1.00e+00 -1.00e+00    1.0000 >   10.7350   -0.1324    1.1781   26.5943   53.9852    0.0000   32.3121 321.32 141.3 200.0  0     0.0000    0.2147
ST22         ?    ?    ? P      ? 20001213 1510    7.5300 GAU  2.00e-02 -1.00e+00 -1.00e+00 -1.00e+00    1.0000 >    6.3459   -0.0533    1.6401   26.8589   55.8533    0.0000   33.6332 323.66 143.7 200.0  0     0.0000    0.1269
ST22         ?    ?    ? S      ? 20001213 1510   12.0900 GAU  2.00e-02 -1.00e+00 -1.00e+00 -1.00e+00    1.0000 >   11.1739   -0.3213    0.7262   26.8589   55.8533    0.0000   33.6332 323.66 143.7 200.0  0     0.0000    0.2235
ST12         ?    ?    ? P      ? 20001213 1510    7.6500 GAU  2.00e-02 -1.00e+00 -1.00e+00 -1.00e+00    1.0000 >    6.7217   -0.3091    0.5628   31.4703   60.9238    0.0000   35.6248 334.54 154.5 200.0  0     0.0000    0.1344
ST12         ?    ?    ? S      ? 20001213 1510   12.2000 GAU  2.00e-02 -1.00e+00 -1.00e+00 -1.00e+00    1.0000 >   11.8355   -0.8729    0.2455   31.4703   60.9238    0.0000   35.6248 334.54 154.5 200.0  0     0.0000    0.2367
ST9          ?    ?    ? P      ? 20001213 1510    8.1200 GAU  2.00e-02 -1.00e+00 -1.00e+00 -1.00e+00    1.0000 >    7.0394   -0.1568    1.1690    9.8992   23.1731    0.0000   37.3086 261.39  81.4 200.0  0     0.0000    0.1408
ST9          ?    ?    ? S      ? 20001213 1510   13.2800 GAU  2.00e-02 -1.00e+00 -1.00e+00 -1.00e+00    1.0000 >   12.3949   -0.3523    0.6927    9.8992   23.1731    0.0000   37.3086 261.39  81.4 200.0  0     0.0000    0.2479
ST5          ?    ?    ? P      ? 20001213 1510    8.9100 GAU  2.00e-02 -1.00e+00 -1.00e+00 -1.00e+00    1.0000 >    8.3781   -0.7055    0.2777   45.9261   73.1552    0.0000   44.4038 358.89 178.9 200.0  0     0.0000    0.1676
ST5          ?    ?    ? S      ? 20001213 1510   14.1900 GAU  2.00e-02 -1.00e+00 -1.00e+00 -1.00e+00    1.0000 >   14.7521   -1.7995    0.1100   45.9261   73.1552    0.0000   44.4038 358.89 178.9 200.0  0     0.0000    0.2950
ST3          ?    ?    ? P      ? 20001213 1510    9.2400 GAU  2.00e-02 -1.00e+00 -1.00e+00 -1.00e+00    1.0000 >    8.7940   -0.7914    0.2596   17.1949   64.7711    0.0000   46.6103 320.59 140.6 200.0  0     0.0000    0.1759
ST3          ?    ?    ? S      ? 20001213 1510   14.9800 GAU  2.00e-02 -1.00e+00 -1.00e+00 -1.00e+00    1.0000 >   15.4845   -1.7419    0.1161   17.1949   64.7711    0.0000   46.6103 320.59 140.6 200.0  0     0.0000    0.3097
ST10         ?    ?    ? P      ? 20001213 1510    9.3900 GAU  2.00e-02 -1.00e+00 -1.00e+00 -1.00e+00    1.0000 >    9.0863   -0.9337    0.2164   21.1066   69.5192    0.0000   48.1749 327.79 147.8 200.0  0     0.0000    0.1817
ST10         ?    ?    ? S      ? 20001213 1510   15.2900 GAU  2.00e-02 -1.00e+00 -1.00e+00 -1.00e+00    1.0000 >   15.9994   -1.9468    0.0954   21.1066   69.5192    0.0000   48.1749 327.79 147.8 200.0  0     0.0000    0.3200
ST11         ?    ?    ? P      ? 20001213 1510   11.3100 GAU  2.00e-02 -1.00e+00 -1.00e+00 -1.00e+00    1.0000 >   11.4140   -1.3414    0.1323   13.0335   79.7825    0.0000   61.1770 326.51 146.5 200.0  0     0.0000    0.2283
ST11         ?    ?    ? S      ? 20001213 1510   18.8400 GAU  2.00e-02 -1.00e+00 -1.00e+00 -1.00e+00    1.0000 >   20.0998   -2.4972    0.0425   13.0335   79.7825    0.0000   61.1770 326.51 146.5 200.0  0     0.0000    0.4020
ST2          ?    ?    ? P      ? 20001213 1510   12.4400 GAU  2.00e-02 -1.00e+00 -1.00e+00 -1.00e+00    1.0000 >   12.6744   -1.4719    0.1291   36.5585   96.8954    0.0000   68.8991 351.46 171.5 200.0  0     0.0000    0.2535
ST2          ?    ?    ? S      ? 20001213 1510   20.1600 GAU  2.00e-02 -1.00e+00 -1.00e+00 -1.00e+00    1.0000 >   22.3210   -3.3984    0.0081   36.5585   96.8954    0.0000   68.8991 351.46 171.5 200.0  0     0.0000    0.4464
END_PHASE
END_NLLOC

