NLLOC "./loc/alaska.20001213.151001_004.grid0" "LOCATED" "Location completed."
PUBLIC_ID None
SIGNATURE "NonLinLoc - Yifan Yu   obs:./obs/phase.obs   NLLoc:v7.00.16(17Apr2023)   run:21Aug2023 13h20m22"
COMMENT "2023-8-21 test"
GRID  201 201 41  0 0 0  0.5 0.5 0.5 PROB_DENSITY
SEARCH OCTREE nInitial 400 nEvaluated 20016 smallestNodeSide 0.039062/0.039062/0.019531 oct_tree_integral 5.833067e-01 scatter_volume 5.833067e-01
HYPOCENTER  x 28.2422 y 53.2422 z 10.3711  OT 1.45583  ix -1 iy -1 iz -1 MAXIMUM_LIKELIHOOD
GEOGRAPHIC  OT 2000 12 13  15 10 1.455829  Lat 35.878818 Long -117.686535 Depth 10.371094
QUALITY  Pmax 1.10158e+193 MFmin 85.1174 MFmax 87.2317 RMS 0.123336 Nphs 54 Gap 72.2649 Dist 1.80764 Mamp -9.90 0 Mdur -9.90 0
VPVSRATIO  VpVsRatio 1.72348  Npair 27  Diff 5.89
STATISTICS  ExpectX 28.179226 Y 53.247611 Z 10.785649  CovXX 0.116335 XY 0.0521099 XZ -0.0970211 YY 0.0651491 YZ -0.011226 ZZ 0.544621 EllAz1  324.178 Dip1  -5.28135 Len1  0.318937 Az2  233.099 Dip2  -11.5161 Len2  0.679351 Len3  1.414182e+00
STAT_GEOG  ExpectLat 35.878867 Long -117.687234 Depth 10.785649
TRANSFORM  SIMPLE LatOrig 35.400000  LongOrig -118.000000  RotCW 0.000000
QML_OriginQuality  assocPhCt 54  usedPhCt 54  assocStaCt -1  usedStaCt 27  depthPhCt -1  stdErr 0.123336  azGap 72.2649  secAzGap 72.2649  gtLevel -  minDist 1.80764 maxDist 49.0395 medDist 30.4978
QML_OriginUncertainty  horUnc -1  minHorUnc 0.274188  maxHorUnc 0.585008  azMaxHorUnc 58.0786
QML_ConfidenceEllipsoid  semiMajorAxisLength 1.41418  semiMinorAxisLength 0.318937  semiIntermediateAxisLength 0.679351  majorAxisPlunge -77.3003  majorAxisAzimuth 78.3954  majorAxisRotation 152.961
FOCALMECH  Hyp  35.878818 -117.686535 10.371094 Mech  0 0 0 mf  0 nObs -1
PHASE ID Ins Cmp On Pha  FM Date     HrMn   Sec     Err  ErrMag    Coda      Amp       Per       PriorWt  >   TTpred    Res       Weight    StaLoc(X  Y         Z)        SDist    SAzim  RAz  RDip RQual    Tcorr       TTerr
ST20         ?    ?    ? P      ? 20001213 1510    1.6700 GAU  2.00e-02 -1.00e+00 -1.00e+00 -1.00e+00    1.0000 >    1.9041   -1.6899    0.0008   26.5943   53.9852    0.0000    1.8076 294.27 294.3 168.0  9     0.0000    0.0500
ST20         ?    ?    ? S      ? 20001213 1510    2.1100 GAU  2.00e-02 -1.00e+00 -1.00e+00 -1.00e+00    1.0000 >    3.3530   -2.6988    0.0000   26.5943   53.9852    0.0000    1.8076 294.27 294.3 168.0  9     0.0000    0.0671
ST22         ?    ?    ? P      ? 20001213 1510    2.1700 GAU  2.00e-02 -1.00e+00 -1.00e+00 -1.00e+00    1.0000 >    1.9522   -1.2380    0.0061   26.8589   55.8533    0.0000    2.9549 332.09 332.1 161.8  9     0.0000    0.0500
ST22         ?    ?    ? S      ? 20001213 1510    2.9300 GAU  2.00e-02 -1.00e+00 -1.00e+00 -1.00e+00    1.0000 >    3.4377   -1.9635    0.0008   26.8589   55.8533    0.0000    2.9549 332.09 332.1 161.8  9     0.0000    0.0688
ST12         ?    ?    ? P      ? 20001213 1510    3.8200 GAU  2.00e-02 -1.00e+00 -1.00e+00 -1.00e+00    1.0000 >    2.3992   -0.0350    1.5804   31.4703   60.9238    0.0000    8.3323  22.79  22.8 136.9 10     0.0000    0.0500
ST12         ?    ?    ? S      ? 20001213 1510    5.5700 GAU  2.00e-02 -1.00e+00 -1.00e+00 -1.00e+00    1.0000 >    4.2249   -0.1108    1.2464   31.4703   60.9238    0.0000    8.3323  22.79  22.8 136.9 10     0.0000    0.0845
ST8          ?    ?    ? P      ? 20001213 1510    4.0900 GAU  2.00e-02 -1.00e+00 -1.00e+00 -1.00e+00    1.0000 >    2.6603   -0.0261    1.5961   21.2005   45.4232    0.0000   10.5224 222.01 222.0 127.4  9     0.0000    0.0532
ST8          ?    ?    ? S      ? 20001213 1510    6.1000 GAU  2.00e-02 -1.00e+00 -1.00e+00 -1.00e+00    1.0000 >    4.6847   -0.0405    1.4544   21.2005   45.4232    0.0000   10.5224 222.01 222.0 127.4  9     0.0000    0.0937
ST1          ?    ?    ? P      ? 20001213 1510    4.1600 GAU  2.00e-02 -1.00e+00 -1.00e+00 -1.00e+00    1.0000 >    2.6808    0.0234    1.6138   36.2928   46.2238    0.0000   10.6804 131.08 131.1 126.8  9     0.0000    0.0536
ST1          ?    ?    ? S      ? 20001213 1510    6.1800 GAU  2.00e-02 -1.00e+00 -1.00e+00 -1.00e+00    1.0000 >    4.7208    0.0033    1.4985   36.2928   46.2238    0.0000   10.6804 131.08 131.1 126.8  9     0.0000    0.0944
ST21         ?    ?    ? P      ? 20001213 1510    4.8300 GAU  2.00e-02 -1.00e+00 -1.00e+00 -1.00e+00    1.0000 >    3.1955    0.1786    0.9870   36.1150   41.1978    0.0000   14.3892 146.83 146.8 115.5  9     0.0000    0.0639
ST21         ?    ?    ? S      ? 20001213 1510    7.3600 GAU  2.00e-02 -1.00e+00 -1.00e+00 -1.00e+00    1.0000 >    5.6273    0.2769    0.6365   36.1150   41.1978    0.0000   14.3892 146.83 146.8 115.5  9     0.0000    0.1125
ST3          ?    ?    ? P      ? 20001213 1510    4.9300 GAU  2.00e-02 -1.00e+00 -1.00e+00 -1.00e+00    1.0000 >    3.4297    0.0444    1.5419   17.1949   64.7711    0.0000   15.9674 316.22 316.2 111.7  9     0.0000    0.0686
ST3          ?    ?    ? S      ? 20001213 1510    7.5200 GAU  2.00e-02 -1.00e+00 -1.00e+00 -1.00e+00    1.0000 >    6.0397    0.0245    1.3997   17.1949   64.7711    0.0000   15.9674 316.22 316.2 111.7  9     0.0000    0.1208
ST10         ?    ?    ? P      ? 20001213 1510    5.2200 GAU  2.00e-02 -1.00e+00 -1.00e+00 -1.00e+00    1.0000 >    3.7049    0.0593    1.4931   21.1066   69.5192    0.0000   17.7724 336.33 336.3 107.9  9     0.0000    0.0741
ST10         ?    ?    ? S      ? 20001213 1510    8.0100 GAU  2.00e-02 -1.00e+00 -1.00e+00 -1.00e+00    1.0000 >    6.5243    0.0299    1.3628   21.1066   69.5192    0.0000   17.7724 336.33 336.3 107.9  9     0.0000    0.1305
ST23         ?    ?    ? P      ? 20001213 1510    5.6600 GAU  2.00e-02 -1.00e+00 -1.00e+00 -1.00e+00    1.0000 >    4.0938    0.1104    1.3061   38.6464   35.8493    0.0000   20.2672 149.11 149.1 103.8  9     0.0000    0.0819
ST23         ?    ?    ? S      ? 20001213 1510    8.8800 GAU  2.00e-02 -1.00e+00 -1.00e+00 -1.00e+00    1.0000 >    7.2092    0.2149    0.8806   38.6464   35.8493    0.0000   20.2672 149.11 149.1 103.8  9     0.0000    0.1442
ST7          ?    ?    ? P      ? 20001213 1510    5.9100 GAU  2.00e-02 -1.00e+00 -1.00e+00 -1.00e+00    1.0000 >    4.2900    0.1641    1.0737   22.5319   32.5023    0.0000   21.5116 195.39 195.4 102.3  9     0.0000    0.0858
ST7          ?    ?    ? S      ? 20001213 1510    9.3700 GAU  2.00e-02 -1.00e+00 -1.00e+00 -1.00e+00    1.0000 >    7.5549    0.3593    0.4396   22.5319   32.5023    0.0000   21.5116 195.39 195.4 102.3  9     0.0000    0.1511
ST25         ?    ?    ? P      ? 20001213 1510    5.8300 GAU  2.00e-02 -1.00e+00 -1.00e+00 -1.00e+00    1.0000 >    4.2933    0.0808    1.4053   35.8320   33.0917    0.0000   21.5325 159.36 159.4 102.3  9     0.0000    0.0859
ST25         ?    ?    ? S      ? 20001213 1510    9.2400 GAU  2.00e-02 -1.00e+00 -1.00e+00 -1.00e+00    1.0000 >    7.5607    0.2235    0.8522   35.8320   33.0917    0.0000   21.5325 159.36 159.4 102.3  9     0.0000    0.1512
ST5          ?    ?    ? P      ? 20001213 1510    6.8500 GAU  2.00e-02 -1.00e+00 -1.00e+00 -1.00e+00    1.0000 >    5.1050    0.2891    0.5772   45.9261   73.1552    0.0000   26.6318  41.61  41.6  98.4  9     0.0000    0.1021
ST5          ?    ?    ? S      ? 20001213 1510   10.6900 GAU  2.00e-02 -1.00e+00 -1.00e+00 -1.00e+00    1.0000 >    8.9903    0.2439    0.7894   45.9261   73.1552    0.0000   26.6318  41.61  41.6  98.4  9     0.0000    0.1798
ST14         ?    ?    ? P      ? 20001213 1510    7.2000 GAU  2.00e-02 -1.00e+00 -1.00e+00 -1.00e+00    1.0000 >    5.7035    0.0406    1.4089   58.1038   47.7138    0.0000   30.3690 100.49 100.5  96.7  9     0.0000    0.1141
ST14         ?    ?    ? S      ? 20001213 1510   11.4300 GAU  2.00e-02 -1.00e+00 -1.00e+00 -1.00e+00    1.0000 >   10.0445   -0.0703    1.1093   58.1038   47.7138    0.0000   30.3690 100.49 100.5  96.8  9     0.0000    0.2009
ST15         ?    ?    ? P      ? 20001213 1510    7.0500 GAU  2.00e-02 -1.00e+00 -1.00e+00 -1.00e+00    1.0000 >    5.7242   -0.1300    1.1513   38.9482   24.6853    0.0000   30.4978 159.45 159.4  96.7  9     0.0000    0.1145
ST15         ?    ?    ? S      ? 20001213 1510   11.4000 GAU  2.00e-02 -1.00e+00 -1.00e+00 -1.00e+00    1.0000 >   10.0809   -0.1367    1.0156   38.9482   24.6853    0.0000   30.4978 159.45 159.4  96.7  9     0.0000    0.2016
ST11         ?    ?    ? P      ? 20001213 1510    7.1600 GAU  2.00e-02 -1.00e+00 -1.00e+00 -1.00e+00    1.0000 >    5.7388   -0.0347    1.3975   13.0335   79.7825    0.0000   30.5890 330.19 330.2  96.7  9     0.0000    0.1148
ST11         ?    ?    ? S      ? 20001213 1510   11.6100 GAU  2.00e-02 -1.00e+00 -1.00e+00 -1.00e+00    1.0000 >   10.1067    0.0475    1.1284   13.0335   79.7825    0.0000   30.5890 330.19 330.2  96.7  9     0.0000    0.2021
ST19         ?    ?    ? P      ? 20001213 1510    7.4300 GAU  2.00e-02 -1.00e+00 -1.00e+00 -1.00e+00    1.0000 >    5.9869   -0.0127    1.4026   47.2048   27.2984    0.0000   32.1350 143.84 143.8  96.2  9     0.0000    0.1197
ST19         ?    ?    ? S      ? 20001213 1510   11.9700 GAU  2.00e-02 -1.00e+00 -1.00e+00 -1.00e+00    1.0000 >   10.5436   -0.0294    1.1128   47.2048   27.2984    0.0000   32.1350 143.84 143.8  96.2  9     0.0000    0.2109
ST13         ?    ?    ? P      ? 20001213 1510    7.6500 GAU  2.00e-02 -1.00e+00 -1.00e+00 -1.00e+00    1.0000 >    6.2298   -0.0356    1.3647   52.0625   29.4778    0.0000   33.6475 134.93 134.9  95.8  9     0.0000    0.1246
ST13         ?    ?    ? S      ? 20001213 1510   12.3100 GAU  2.00e-02 -1.00e+00 -1.00e+00 -1.00e+00    1.0000 >   10.9713   -0.1172    1.0139   52.0625   29.4778    0.0000   33.6475 134.93 134.9  95.8  9     0.0000    0.2194
ST9          ?    ?    ? P      ? 20001213 1510    7.8300 GAU  2.00e-02 -1.00e+00 -1.00e+00 -1.00e+00    1.0000 >    6.4828   -0.1086    1.1987    9.8992   23.1731    0.0000   35.2224 211.38 211.4  95.4  9     0.0000    0.1297
ST9          ?    ?    ? S      ? 20001213 1510   12.6300 GAU  2.00e-02 -1.00e+00 -1.00e+00 -1.00e+00    1.0000 >   11.4170   -0.2429    0.7911    9.8992   23.1731    0.0000   35.2224 211.38 211.4  95.4  9     0.0000    0.2283
ST18         ?    ?    ? P      ? 20001213 1510    7.9300 GAU  2.00e-02 -1.00e+00 -1.00e+00 -1.00e+00    1.0000 >    6.5598   -0.0856    1.2546   45.8666   22.1945    0.0000   35.7012 150.42 150.4  95.3  9     0.0000    0.1312
ST18         ?    ?    ? S      ? 20001213 1510   12.8500 GAU  2.00e-02 -1.00e+00 -1.00e+00 -1.00e+00    1.0000 >   11.5526   -0.1584    0.9359   45.8666   22.1945    0.0000   35.7012 150.42 150.4  95.3  9     0.0000    0.2311
ST6          ?    ?    ? P      ? 20001213 1510    8.1000 GAU  2.00e-02 -1.00e+00 -1.00e+00 -1.00e+00    1.0000 >    6.6618   -0.0176    1.3533   64.5535   54.5857    0.0000   36.3361  87.88  87.9  95.2  9     0.0000    0.1332
ST6          ?    ?    ? S      ? 20001213 1510   12.9000 GAU  2.00e-02 -1.00e+00 -1.00e+00 -1.00e+00    1.0000 >   11.7323   -0.2882    0.7031   64.5535   54.5857    0.0000   36.3361  87.88  87.9  95.2  9     0.0000    0.2346
ST24         ?    ?    ? P      ? 20001213 1510    9.0000 GAU  2.00e-02 -1.00e+00 -1.00e+00 -1.00e+00    1.0000 >    7.4899    0.0542    1.2769   55.9556   22.3725    0.0000   41.4847 138.08 138.1  94.3  9     0.0000    0.1498
ST24         ?    ?    ? S      ? 20001213 1510   14.5800 GAU  2.00e-02 -1.00e+00 -1.00e+00 -1.00e+00    1.0000 >   13.1910   -0.0668    0.9699   55.9556   22.3725    0.0000   41.4847 138.08 138.1  94.3  9     0.0000    0.2638
ST26         ?    ?    ? P      ? 20001213 1510    9.0000 GAU  2.00e-02 -1.00e+00 -1.00e+00 -1.00e+00    1.0000 >    7.4978    0.0464    1.2846   52.5727   19.5815    0.0000   41.5333 144.14 144.1  94.3  9     0.0000    0.1500
ST26         ?    ?    ? S      ? 20001213 1510   14.5800 GAU  2.00e-02 -1.00e+00 -1.00e+00 -1.00e+00    1.0000 >   13.2048   -0.0806    0.9611   52.5727   19.5815    0.0000   41.5333 144.14 144.1  94.3  9     0.0000    0.2641
ST4          ?    ?    ? P      ? 20001213 1510    9.0300 GAU  2.00e-02 -1.00e+00 -1.00e+00 -1.00e+00    1.0000 >    7.9601   -0.3859    0.4401   28.7854    8.8400    0.0000   44.4055 179.30 179.3  93.9  9     0.0000    0.1592
ST4          ?    ?    ? S      ? 20001213 1510   14.7600 GAU  2.00e-02 -1.00e+00 -1.00e+00 -1.00e+00    1.0000 >   14.0191   -0.7149    0.1680   28.7854    8.8400    0.0000   44.4055 179.30 179.3  93.9  9     0.0000    0.2804
ST2          ?    ?    ? P      ? 20001213 1510    9.2600 GAU  2.00e-02 -1.00e+00 -1.00e+00 -1.00e+00    1.0000 >    7.9654   -0.1612    1.0179   36.5585   96.8954    0.0000   44.4383  10.79  10.8  93.9  9     0.0000    0.1593
ST2          ?    ?    ? S      ? 20001213 1510   15.0100 GAU  2.00e-02 -1.00e+00 -1.00e+00 -1.00e+00    1.0000 >   14.0284   -0.4742    0.4169   36.5585   96.8954    0.0000   44.4383  10.79  10.8  93.9  9     0.0000    0.2806
ST16         ?    ?    ? P      ? 20001213 1510    9.4800 GAU  2.00e-02 -1.00e+00 -1.00e+00 -1.00e+00    1.0000 >    8.2195   -0.1953    0.9232   39.8239    8.7066    0.0000   46.0169 165.42 165.4  93.8  9     0.0000    0.1644
ST16         ?    ?    ? S      ? 20001213 1510   15.5300 GAU  2.00e-02 -1.00e+00 -1.00e+00 -1.00e+00    1.0000 >   14.4760   -0.4018    0.5244   39.8239    8.7066    0.0000   46.0169 165.42 165.4  93.8  9     0.0000    0.2895
ST17         ?    ?    ? P      ? 20001213 1510   10.1100 GAU  2.00e-02 -1.00e+00 -1.00e+00 -1.00e+00    1.0000 >    8.6151    0.0390    1.2205   64.4820   21.0492    0.0000   48.4738 131.62 131.6  89.2  9     0.0000    0.1723
ST17         ?    ?    ? S      ? 20001213 1510   16.4200 GAU  2.00e-02 -1.00e+00 -1.00e+00 -1.00e+00    1.0000 >   15.1728   -0.2086    0.7823   64.4820   21.0492    0.0000   48.4738 131.62 131.6  88.8  9     0.0000    0.3035
ST0          ?    ?    ? P      ? 20001213 1510   10.1900 GAU  2.00e-02 -1.00e+00 -1.00e+00 -1.00e+00    1.0000 >    8.7057    0.0285    1.2209   57.5022   13.8883    0.0000   49.0395 143.37 143.4  87.0  8     0.0000    0.1741
ST0          ?    ?    ? S      ? 20001213 1510   16.5200 GAU  2.00e-02 -1.00e+00 -1.00e+00 -1.00e+00    1.0000 >   15.3320   -0.2678    0.7092   57.5022   13.8883    0.0000   49.0395 143.37 143.4  86.5  8     0.0000    0.3066
END_PHASE
END_NLLOC

