NLLOC "./loc/alaska.20001213.151002.grid0" "LOCATED" "Location completed."
PUBLIC_ID None
SIGNATURE "NonLinLoc - Yifan Yu   obs:./obs/phase.obs   NLLoc:v7.00.16(17Apr2023)   run:24Aug2023 11h42m41"
COMMENT "2023-8-21 test"
GRID  201 201 41  0 0 0  0.5 0.5 0.5 PROB_DENSITY
SEARCH OCTREE nInitial 400 nEvaluated 20000 smallestNodeSide 0.156250/0.156250/0.078125 oct_tree_integral 2.327343e+01 scatter_volume 2.327343e+01
HYPOCENTER  x 7.73438 y 79.6094 z 11.3672  OT 59.5695  ix -1 iy -1 iz -1 MAXIMUM_LIKELIHOOD
GEOGRAPHIC  OT 2000 12 13  15 09 59.569514  Lat 36.115943 Long -117.913896 Depth 11.367188
QUALITY  Pmax 1.93339e+103 MFmin 42.9841 MFmax 47.2697 RMS 0.230801 Nphs 34 Gap 241.245 Dist 5.30198 Mamp -9.90 0 Mdur -9.90 0
VPVSRATIO  VpVsRatio 1.75694  Npair 9  Diff 7.88
STATISTICS  ExpectX 8.098796 Y 79.842415 Z 11.529395  CovXX 3.52713 XY 0.619897 XZ 0.831058 YY 1.58916 YZ -0.0045657 ZZ 0.914659 EllAz1  303.588 Dip1  68.089 Len1  1.4974 Az2  349.429 Dip2  -15.6532 Len2  2.28166 Len3  3.720361e+00
STAT_GEOG  ExpectLat 36.118039 Long -117.909837 Depth 11.529395
TRANSFORM  SIMPLE LatOrig 35.400000  LongOrig -118.000000  RotCW 0.000000
QML_OriginQuality  assocPhCt 34  usedPhCt 34  assocStaCt -1  usedStaCt 25  depthPhCt -1  stdErr 0.230801  azGap 241.245  secAzGap 270.326  gtLevel -  minDist 5.30198 maxDist 82.4384 medDist 53.577
QML_OriginUncertainty  horUnc -1  minHorUnc 1.79945  maxHorUnc 2.92052  azMaxHorUnc 73.6957
QML_ConfidenceEllipsoid  semiMajorAxisLength 3.72036  semiMinorAxisLength 1.4974  semiIntermediateAxisLength 2.28166  majorAxisPlunge 14.9387  majorAxisAzimuth 75.1417  majorAxisRotation 104.153
FOCALMECH  Hyp  36.115943 -117.913896 11.367188 Mech  0 0 0 mf  0 nObs -1
PHASE ID Ins Cmp On Pha  FM Date     HrMn   Sec     Err  ErrMag    Coda      Amp       Per       PriorWt  >   TTpred    Res       Weight    StaLoc(X  Y         Z)        SDist    SAzim  RAz  RDip RQual    Tcorr       TTerr
ST11         ?    ?    ? P      ? 20001213 1510    2.4800 GAU  2.00e-02 -1.00e+00 -1.00e+00 -1.00e+00    1.0000 >    2.2491    0.6614    0.3656   13.0335   79.7825    0.0000    5.3020  88.13  88.1 152.6  9     0.0000    0.0500
ST11         ?    ?    ? S      ? 20001213 1510    3.2700 GAU  2.00e-02 -1.00e+00 -1.00e+00 -1.00e+00    1.0000 >    3.7006   -0.0002    1.4462   13.0335   79.7825    0.0000    5.3020  88.13  88.1 151.1  9     0.0000    0.0740
ST10         ?    ?    ? P      ? 20001213 1510    3.1900 GAU  2.00e-02 -1.00e+00 -1.00e+00 -1.00e+00    1.0000 >    3.6105    0.0100    1.4516   21.1066   69.5192    0.0000   16.7519 127.04 127.0 114.8  9     0.0000    0.0722
ST3          ?    ?    ? P      ? 20001213 1510    3.2200 GAU  2.00e-02 -1.00e+00 -1.00e+00 -1.00e+00    1.0000 >    3.7355   -0.0850    1.2734   17.1949   64.7711    0.0000   17.5976 147.48 147.5 113.1  9     0.0000    0.0747
ST12         ?    ?    ? P      ? 20001213 1510    5.1100 GAU  2.00e-02 -1.00e+00 -1.00e+00 -1.00e+00    1.0000 >    5.7012   -0.1608    1.0077   31.4703   60.9238    0.0000   30.2084 128.21 128.2  99.9  9     0.0000    0.1140
ST22         ?    ?    ? P      ? 20001213 1510    5.5000 GAU  2.00e-02 -1.00e+00 -1.00e+00 -1.00e+00    1.0000 >    5.7473    0.1832    1.2600   26.8589   55.8533    0.0000   30.4975 141.16 141.2  99.7  9     0.0000    0.1149
ST20         ?    ?    ? P      ? 20001213 1510    5.8700 GAU  2.00e-02 -1.00e+00 -1.00e+00 -1.00e+00    1.0000 >    5.9575    0.3430    0.9623   26.5943   53.9852    0.0000   31.8166 143.65 143.6  99.1  9     0.0000    0.1191
ST20         ?    ?    ? S      ? 20001213 1510    9.0800 GAU  2.00e-02 -1.00e+00 -1.00e+00 -1.00e+00    1.0000 >    9.3884    0.1221    1.2697   26.5943   53.9852    0.0000   31.8166 143.65 143.6 101.2  9     0.0000    0.1878
ST2          ?    ?    ? S      ? 20001213 1510   11.0500 GAU  2.00e-02 -1.00e+00 -1.00e+00 -1.00e+00    1.0000 >    9.8219    1.6586    0.0076   36.5585   96.8954    0.0000   33.6101  59.05  59.0 100.6  9     0.0000    0.1964
ST8          ?    ?    ? P      ? 20001213 1510    6.8400 GAU  2.00e-02 -1.00e+00 -1.00e+00 -1.00e+00    1.0000 >    6.7448    0.5257    0.6423   21.2005   45.4232    0.0000   36.7428 158.50 158.5  97.4  9     0.0000    0.1349
ST5          ?    ?    ? S      ? 20001213 1510   11.1300 GAU  2.00e-02 -1.00e+00 -1.00e+00 -1.00e+00    1.0000 >   11.0646    0.4959    0.7367   45.9261   73.1552    0.0000   38.7333  99.59  99.6  99.0  9     0.0000    0.2213
ST1          ?    ?    ? P      ? 20001213 1510    7.4300 GAU  2.00e-02 -1.00e+00 -1.00e+00 -1.00e+00    1.0000 >    7.8974   -0.0369    1.2675   36.2928   46.2238    0.0000   43.9338 139.46 139.5  87.8  9     0.0000    0.1579
ST1          ?    ?    ? S      ? 20001213 1510   11.9000 GAU  2.00e-02 -1.00e+00 -1.00e+00 -1.00e+00    1.0000 >   12.3305    0.0000    1.1432   36.2928   46.2238    0.0000   43.9338 139.46 139.5  97.8  9     0.0000    0.2466
ST21         ?    ?    ? P      ? 20001213 1510    8.1700 GAU  2.00e-02 -1.00e+00 -1.00e+00 -1.00e+00    1.0000 >    8.4771    0.1234    1.2956   36.1150   41.1978    0.0000   47.7589 143.54 143.5  69.1  8     0.0000    0.1695
ST21         ?    ?    ? S      ? 20001213 1510   12.8700 GAU  2.00e-02 -1.00e+00 -1.00e+00 -1.00e+00    1.0000 >   13.2636    0.0369    1.1316   36.1150   41.1978    0.0000   47.7589 143.54 143.5  97.1  9     0.0000    0.2653
ST7          ?    ?    ? P      ? 20001213 1510    8.5100 GAU  2.00e-02 -1.00e+00 -1.00e+00 -1.00e+00    1.0000 >    8.7130    0.2275    1.1769   22.5319   32.5023    0.0000   49.3765 162.56 162.6  65.5  9     0.0000    0.1743
ST23         ?    ?    ? S      ? 20001213 1510   14.3400 GAU  2.00e-02 -1.00e+00 -1.00e+00 -1.00e+00    1.0000 >   14.6851    0.0854    1.0954   38.6464   35.8493    0.0000   53.5770 144.76 144.8  96.2  9     0.0000    0.2937
ST25         ?    ?    ? S      ? 20001213 1510   14.6500 GAU  2.00e-02 -1.00e+00 -1.00e+00 -1.00e+00    1.0000 >   14.8728    0.2076    1.0599   35.8320   33.0917    0.0000   54.3450 148.87 148.9  96.1  9     0.0000    0.2975
ST9          ?    ?    ? P      ? 20001213 1510    9.6300 GAU  2.00e-02 -1.00e+00 -1.00e+00 -1.00e+00    1.0000 >    9.7424    0.3181    1.0300    9.8992   23.1731    0.0000   56.4778 177.80 177.8  64.0 10     0.0000    0.1948
ST6          ?    ?    ? P      ? 20001213 1510   10.1500 GAU  2.00e-02 -1.00e+00 -1.00e+00 -1.00e+00    1.0000 >   10.5551    0.0254    1.2253   64.5535   54.5857    0.0000   62.0854 113.77 113.8  64.0 10     0.0000    0.2111
ST19         ?    ?    ? S      ? 20001213 1510   17.2600 GAU  2.00e-02 -1.00e+00 -1.00e+00 -1.00e+00    1.0000 >   17.6112    0.0792    1.0006   47.2048   27.2984    0.0000   65.5313 142.96 143.0  94.9  9     0.0000    0.3522
ST13         ?    ?    ? P      ? 20001213 1510   10.6800 GAU  2.00e-02 -1.00e+00 -1.00e+00 -1.00e+00    1.0000 >   11.2557   -0.1452    0.9818   52.0625   29.4778    0.0000   66.9190 138.52 138.5  64.0 10     0.0000    0.2251
ST13         ?    ?    ? S      ? 20001213 1510   17.4400 GAU  2.00e-02 -1.00e+00 -1.00e+00 -1.00e+00    1.0000 >   17.9513   -0.0808    0.9099   52.0625   29.4778    0.0000   66.9190 138.52 138.5  94.8  9     0.0000    0.3590
ST18         ?    ?    ? P      ? 20001213 1510   11.0500 GAU  2.00e-02 -1.00e+00 -1.00e+00 -1.00e+00    1.0000 >   11.5462   -0.0658    1.1023   45.8666   22.1945    0.0000   68.9241 146.41 146.4  64.0 10     0.0000    0.2309
ST4          ?    ?    ? P      ? 20001213 1510   11.6100 GAU  2.00e-02 -1.00e+00 -1.00e+00 -1.00e+00    1.0000 >   12.2578   -0.2173    0.8286   28.7854    8.8400    0.0000   73.8339 163.43 163.4  63.9 10     0.0000    0.2452
ST4          ?    ?    ? S      ? 20001213 1510   19.3700 GAU  2.00e-02 -1.00e+00 -1.00e+00 -1.00e+00    1.0000 >   19.6463    0.1542    0.9422   28.7854    8.8400    0.0000   73.8339 163.43 163.4  94.3  9     0.0000    0.3929
ST24         ?    ?    ? P      ? 20001213 1510   12.1100 GAU  2.00e-02 -1.00e+00 -1.00e+00 -1.00e+00    1.0000 >   12.4037    0.1367    1.1672   55.9556   22.3725    0.0000   74.8422 139.89 139.9  63.7 10     0.0000    0.2481
ST24         ?    ?    ? S      ? 20001213 1510   19.8700 GAU  2.00e-02 -1.00e+00 -1.00e+00 -1.00e+00    1.0000 >   19.8935    0.4070    0.8032   55.9556   22.3725    0.0000   74.8422 139.89 139.9  94.2  9     0.0000    0.3979
ST26         ?    ?    ? P      ? 20001213 1510   12.1000 GAU  2.00e-02 -1.00e+00 -1.00e+00 -1.00e+00    1.0000 >   12.4158    0.1147    1.1723   52.5727   19.5815    0.0000   74.9254 143.24 143.2  63.7 10     0.0000    0.2483
ST26         ?    ?    ? S      ? 20001213 1510   20.0400 GAU  2.00e-02 -1.00e+00 -1.00e+00 -1.00e+00    1.0000 >   19.9139    0.5566    0.6583   52.5727   19.5815    0.0000   74.9254 143.24 143.2  94.2  9     0.0000    0.3983
ST16         ?    ?    ? P      ? 20001213 1510   12.2700 GAU  2.00e-02 -1.00e+00 -1.00e+00 -1.00e+00    1.0000 >   12.8297   -0.1292    0.9760   39.8239    8.7066    0.0000   77.8264 155.65 155.6  60.4  9     0.0000    0.2566
ST17         ?    ?    ? P      ? 20001213 1510   13.1900 GAU  2.00e-02 -1.00e+00 -1.00e+00 -1.00e+00    1.0000 >   13.3392    0.2813    1.0361   64.4820   21.0492    0.0000   81.5450 135.90 135.9  57.1 10     0.0000    0.2668
ST17         ?    ?    ? S      ? 20001213 1510   21.8600 GAU  2.00e-02 -1.00e+00 -1.00e+00 -1.00e+00    1.0000 >   21.5375    0.7530    0.4632   64.4820   21.0492    0.0000   81.5450 135.90 135.9  93.8  9     0.0000    0.4308
ST0          ?    ?    ? P      ? 20001213 1510   13.2200 GAU  2.00e-02 -1.00e+00 -1.00e+00 -1.00e+00    1.0000 >   13.4601    0.1903    1.1097   57.5022   13.8883    0.0000   82.4384 142.86 142.9  57.0 10     0.0000    0.2692
END_PHASE
END_NLLOC

