NLLOC "./loc/alaska.20001213.151001_012.grid0" "LOCATED" "Location completed."
PUBLIC_ID None
SIGNATURE "NonLinLoc - Yifan Yu   obs:./obs/phase.obs   NLLoc:v7.00.16(17Apr2023)   run:21Aug2023 13h19m34"
COMMENT "2023-8-21 test"
GRID  201 201 41  0 0 0  0.5 0.5 0.5 PROB_DENSITY
SEARCH OCTREE nInitial 400 nEvaluated 20000 smallestNodeSide 0.039062/0.039062/0.019531 oct_tree_integral 8.886639e-01 scatter_volume 8.873823e-01
HYPOCENTER  x 28.7305 y 54.9023 z 11.8652  OT 1.32742  ix -1 iy -1 iz -1 MAXIMUM_LIKELIHOOD
GEOGRAPHIC  OT 2000 12 13  15 10 1.327425  Lat 35.893748 Long -117.681055 Depth 11.865234
QUALITY  Pmax 4.0163e+190 MFmin 83.9973 MFmax 87.2713 RMS 0.153149 Nphs 54 Gap 50.1706 Dist 2.09932 Mamp -9.90 0 Mdur -9.90 0
VPVSRATIO  VpVsRatio 1.7161  Npair 27  Diff 6.11
STATISTICS  ExpectX 28.843887 Y 54.965550 Z 11.514415  CovXX 0.181695 XY 0.0826193 XZ -0.268005 YY 0.0844285 YZ -0.13805 ZZ 0.864988 EllAz1  326.926 Dip1  -2.11408 Len1  0.359952 Az2  236.088 Dip2  -21.6151 Len2  0.621094 Len3  1.864806e+00
STAT_GEOG  ExpectLat 35.894316 Long -117.679794 Depth 11.514415
TRANSFORM  SIMPLE LatOrig 35.400000  LongOrig -118.000000  RotCW 0.000000
QML_OriginQuality  assocPhCt 54  usedPhCt 54  assocStaCt -1  usedStaCt 27  depthPhCt -1  stdErr 0.153149  azGap 50.1706  secAzGap 50.1706  gtLevel -  minDist 2.09932 maxDist 50.0995 medDist 30.2401
QML_OriginUncertainty  horUnc -1  minHorUnc 0.292472  maxHorUnc 0.725634  azMaxHorUnc 60.2415
QML_ConfidenceEllipsoid  semiMajorAxisLength 1.86481  semiMinorAxisLength 0.359952  semiIntermediateAxisLength 0.621094  majorAxisPlunge -68.2713  majorAxisAzimuth 62.2405  majorAxisRotation 172.145
FOCALMECH  Hyp  35.893748 -117.681055 11.865234 Mech  0 0 0 mf  0 nObs -1
PHASE ID Ins Cmp On Pha  FM Date     HrMn   Sec     Err  ErrMag    Coda      Amp       Per       PriorWt  >   TTpred    Res       Weight    StaLoc(X  Y         Z)        SDist    SAzim  RAz  RDip RQual    Tcorr       TTerr
ST22         ?    ?    ? P      ? 20001213 1510    1.7300 GAU  2.00e-02 -1.00e+00 -1.00e+00 -1.00e+00    1.0000 >    2.1503   -1.7477    0.0001   26.8589   55.8533    0.0000    2.0993 296.93 296.9 168.1  9     0.0000    0.0500
ST22         ?    ?    ? S      ? 20001213 1510    2.2000 GAU  2.00e-02 -1.00e+00 -1.00e+00 -1.00e+00    1.0000 >    3.7867   -2.9141    0.0000   26.8589   55.8533    0.0000    2.0993 296.93 296.9 168.1  9     0.0000    0.0757
ST20         ?    ?    ? P      ? 20001213 1510    1.3700 GAU  2.00e-02 -1.00e+00 -1.00e+00 -1.00e+00    1.0000 >    2.1583   -2.1157    0.0000   26.5943   53.9852    0.0000    2.3247 246.76 246.8 167.0  9     0.0000    0.0500
ST20         ?    ?    ? S      ? 20001213 1510    1.6100 GAU  2.00e-02 -1.00e+00 -1.00e+00 -1.00e+00    1.0000 >    3.8007   -3.5182    0.0000   26.5943   53.9852    0.0000    2.3247 246.76 246.8 167.0  9     0.0000    0.0760
ST12         ?    ?    ? P      ? 20001213 1510    3.3100 GAU  2.00e-02 -1.00e+00 -1.00e+00 -1.00e+00    1.0000 >    2.4240   -0.4414    0.4344   31.4703   60.9238    0.0000    6.6155  24.47  24.5 148.4  9     0.0000    0.0500
ST12         ?    ?    ? S      ? 20001213 1510    4.7400 GAU  2.00e-02 -1.00e+00 -1.00e+00 -1.00e+00    1.0000 >    4.2686   -0.8560    0.0720   31.4703   60.9238    0.0000    6.6155  24.47  24.5 148.4  9     0.0000    0.0854
ST1          ?    ?    ? P      ? 20001213 1510    4.2100 GAU  2.00e-02 -1.00e+00 -1.00e+00 -1.00e+00    1.0000 >    2.9364   -0.0538    1.5640   36.2928   46.2238    0.0000   11.5111 138.93 138.9 130.6  9     0.0000    0.0587
ST1          ?    ?    ? S      ? 20001213 1510    6.2600 GAU  2.00e-02 -1.00e+00 -1.00e+00 -1.00e+00    1.0000 >    5.1710   -0.2384    0.9536   36.2928   46.2238    0.0000   11.5111 138.93 138.9 130.6  9     0.0000    0.1034
ST8          ?    ?    ? P      ? 20001213 1510    4.3800 GAU  2.00e-02 -1.00e+00 -1.00e+00 -1.00e+00    1.0000 >    3.0106    0.0419    1.5529   21.2005   45.4232    0.0000   12.1060 218.46 218.5 128.4  9     0.0000    0.0602
ST8          ?    ?    ? S      ? 20001213 1510    6.5800 GAU  2.00e-02 -1.00e+00 -1.00e+00 -1.00e+00    1.0000 >    5.3018   -0.0492    1.4680   21.2005   45.4232    0.0000   12.1060 218.46 218.5 128.5  9     0.0000    0.1060
ST3          ?    ?    ? P      ? 20001213 1510    4.7300 GAU  2.00e-02 -1.00e+00 -1.00e+00 -1.00e+00    1.0000 >    3.4222   -0.0197    1.5993   17.1949   64.7711    0.0000   15.1810 310.55 310.5 120.2  9     0.0000    0.0684
ST3          ?    ?    ? S      ? 20001213 1510    7.1400 GAU  2.00e-02 -1.00e+00 -1.00e+00 -1.00e+00    1.0000 >    6.0267   -0.2141    1.0421   17.1949   64.7711    0.0000   15.1810 310.55 310.5 120.2  9     0.0000    0.1205
ST21         ?    ?    ? P      ? 20001213 1510    4.9200 GAU  2.00e-02 -1.00e+00 -1.00e+00 -1.00e+00    1.0000 >    3.4765    0.1161    1.2192   36.1150   41.1978    0.0000   15.5675 151.68 151.7 119.3  9     0.0000    0.0695
ST21         ?    ?    ? S      ? 20001213 1510    7.5300 GAU  2.00e-02 -1.00e+00 -1.00e+00 -1.00e+00    1.0000 >    6.1222    0.0804    1.2812   36.1150   41.1978    0.0000   15.5675 151.68 151.7 119.3  9     0.0000    0.1224
ST10         ?    ?    ? P      ? 20001213 1510    4.9500 GAU  2.00e-02 -1.00e+00 -1.00e+00 -1.00e+00    1.0000 >    3.6072    0.0154    1.5775   21.1066   69.5192    0.0000   16.4856 332.45 332.5 117.4  9     0.0000    0.0721
ST10         ?    ?    ? S      ? 20001213 1510    7.5300 GAU  2.00e-02 -1.00e+00 -1.00e+00 -1.00e+00    1.0000 >    6.3524   -0.1498    1.2239   21.1066   69.5192    0.0000   16.4856 332.45 332.5 117.4  9     0.0000    0.1270
ST23         ?    ?    ? P      ? 20001213 1510    5.7400 GAU  2.00e-02 -1.00e+00 -1.00e+00 -1.00e+00    1.0000 >    4.3509    0.0617    1.4286   38.6464   35.8493    0.0000   21.4789 152.51 152.5 109.0  9     0.0000    0.0870
ST23         ?    ?    ? S      ? 20001213 1510    9.0200 GAU  2.00e-02 -1.00e+00 -1.00e+00 -1.00e+00    1.0000 >    7.6622    0.0304    1.2952   38.6464   35.8493    0.0000   21.4789 152.51 152.5 109.0  9     0.0000    0.1532
ST25         ?    ?    ? P      ? 20001213 1510    5.9400 GAU  2.00e-02 -1.00e+00 -1.00e+00 -1.00e+00    1.0000 >    4.5753    0.0373    1.4804   35.8320   33.0917    0.0000   22.9377 161.96 162.0 107.2  9     0.0000    0.0915
ST25         ?    ?    ? S      ? 20001213 1510    9.4200 GAU  2.00e-02 -1.00e+00 -1.00e+00 -1.00e+00    1.0000 >    8.0574    0.0352    1.2650   35.8320   33.0917    0.0000   22.9377 161.96 162.0 107.2  9     0.0000    0.1611
ST7          ?    ?    ? P      ? 20001213 1510    6.0800 GAU  2.00e-02 -1.00e+00 -1.00e+00 -1.00e+00    1.0000 >    4.6224    0.1302    1.1397   22.5319   32.5023    0.0000   23.2418 195.47 195.5 106.8  9     0.0000    0.0924
ST7          ?    ?    ? S      ? 20001213 1510    9.6600 GAU  2.00e-02 -1.00e+00 -1.00e+00 -1.00e+00    1.0000 >    8.1403    0.1923    0.8673   22.5319   32.5023    0.0000   23.2418 195.47 195.5 106.8  9     0.0000    0.1628
ST5          ?    ?    ? P      ? 20001213 1510    6.5400 GAU  2.00e-02 -1.00e+00 -1.00e+00 -1.00e+00    1.0000 >    4.9079    0.3047    0.3939   45.9261   73.1552    0.0000   25.0771  43.29  43.3 104.9  9     0.0000    0.0982
ST5          ?    ?    ? S      ? 20001213 1510   10.1100 GAU  2.00e-02 -1.00e+00 -1.00e+00 -1.00e+00    1.0000 >    8.6431    0.1394    1.0171   45.9261   73.1552    0.0000   25.0771  43.29  43.3 105.0  9     0.0000    0.1729
ST11         ?    ?    ? P      ? 20001213 1510    6.9200 GAU  2.00e-02 -1.00e+00 -1.00e+00 -1.00e+00    1.0000 >    5.5909    0.0017    1.4610   13.0335   79.7825    0.0000   29.4179 327.75 327.8 101.7  9     0.0000    0.1118
ST11         ?    ?    ? S      ? 20001213 1510   11.1700 GAU  2.00e-02 -1.00e+00 -1.00e+00 -1.00e+00    1.0000 >    9.8461   -0.0035    1.1964   13.0335   79.7825    0.0000   29.4179 327.75 327.8 101.7  9     0.0000    0.1969
ST14         ?    ?    ? P      ? 20001213 1510    7.0800 GAU  2.00e-02 -1.00e+00 -1.00e+00 -1.00e+00    1.0000 >    5.7211    0.0315    1.4175   58.1038   47.7138    0.0000   30.2401 103.75 103.8 101.3  9     0.0000    0.1144
ST14         ?    ?    ? S      ? 20001213 1510   11.2000 GAU  2.00e-02 -1.00e+00 -1.00e+00 -1.00e+00    1.0000 >   10.0754   -0.2028    1.0342   58.1038   47.7138    0.0000   30.2401 103.75 103.8 101.3  9     0.0000    0.2015
ST15         ?    ?    ? P      ? 20001213 1510    7.1700 GAU  2.00e-02 -1.00e+00 -1.00e+00 -1.00e+00    1.0000 >    5.9841   -0.1415    1.2522   38.9482   24.6853    0.0000   31.8978 161.32 161.3 100.4  9     0.0000    0.1197
ST15         ?    ?    ? S      ? 20001213 1510   11.5900 GAU  2.00e-02 -1.00e+00 -1.00e+00 -1.00e+00    1.0000 >   10.5387   -0.2761    0.8909   38.9482   24.6853    0.0000   31.8978 161.32 161.3 100.5  9     0.0000    0.2108
ST19         ?    ?    ? P      ? 20001213 1510    7.4900 GAU  2.00e-02 -1.00e+00 -1.00e+00 -1.00e+00    1.0000 >    6.1937   -0.0311    1.4260   47.2048   27.2984    0.0000   33.2156 146.21 146.2  99.9  9     0.0000    0.1239
ST19         ?    ?    ? S      ? 20001213 1510   12.0300 GAU  2.00e-02 -1.00e+00 -1.00e+00 -1.00e+00    1.0000 >   10.9078   -0.2052    1.0108   47.2048   27.2984    0.0000   33.2156 146.21 146.2  99.9  9     0.0000    0.2182
ST13         ?    ?    ? P      ? 20001213 1510    7.6900 GAU  2.00e-02 -1.00e+00 -1.00e+00 -1.00e+00    1.0000 >    6.3994   -0.0369    1.4109   52.0625   29.4778    0.0000   34.5078 137.46 137.5  99.4  9     0.0000    0.1280
ST13         ?    ?    ? S      ? 20001213 1510   12.3400 GAU  2.00e-02 -1.00e+00 -1.00e+00 -1.00e+00    1.0000 >   11.2703   -0.2577    0.9170   52.0625   29.4778    0.0000   34.5078 137.46 137.5  99.4  9     0.0000    0.2254
ST6          ?    ?    ? P      ? 20001213 1510    7.9100 GAU  2.00e-02 -1.00e+00 -1.00e+00 -1.00e+00    1.0000 >    6.6094   -0.0268    1.4001   64.5535   54.5857    0.0000   35.8244  90.51  90.5  98.9  9     0.0000    0.1322
ST6          ?    ?    ? S      ? 20001213 1510   12.5300 GAU  2.00e-02 -1.00e+00 -1.00e+00 -1.00e+00    1.0000 >   11.6401   -0.4375    0.5920   64.5535   54.5857    0.0000   35.8244  90.51  90.5  98.9  9     0.0000    0.2328
ST9          ?    ?    ? P      ? 20001213 1510    7.9900 GAU  2.00e-02 -1.00e+00 -1.00e+00 -1.00e+00    1.0000 >    6.7806   -0.1180    1.2863    9.8992   23.1731    0.0000   36.8967 210.69 210.7  98.5  9     0.0000    0.1356
ST9          ?    ?    ? S      ? 20001213 1510   12.8800 GAU  2.00e-02 -1.00e+00 -1.00e+00 -1.00e+00    1.0000 >   11.9416   -0.3890    0.6797    9.8992   23.1731    0.0000   36.8967 210.69 210.7  98.5  9     0.0000    0.2388
ST18         ?    ?    ? P      ? 20001213 1510    8.0200 GAU  2.00e-02 -1.00e+00 -1.00e+00 -1.00e+00    1.0000 >    6.7851   -0.0925    1.3320   45.8666   22.1945    0.0000   36.9249 152.35 152.3  98.5  9     0.0000    0.1357
ST18         ?    ?    ? S      ? 20001213 1510   12.9600 GAU  2.00e-02 -1.00e+00 -1.00e+00 -1.00e+00    1.0000 >   11.9495   -0.3169    0.8072   45.8666   22.1945    0.0000   36.9249 152.35 152.3  98.5  9     0.0000    0.2390
ST24         ?    ?    ? P      ? 20001213 1510    9.0500 GAU  2.00e-02 -1.00e+00 -1.00e+00 -1.00e+00    1.0000 >    7.6566    0.0660    1.2362   55.9556   22.3725    0.0000   42.4194 140.07 140.1  81.8  8     0.0000    0.1531
ST24         ?    ?    ? S      ? 20001213 1510   14.6100 GAU  2.00e-02 -1.00e+00 -1.00e+00 -1.00e+00    1.0000 >   13.4831   -0.2005    0.9476   55.9556   22.3725    0.0000   42.4194 140.07 140.1  81.3  8     0.0000    0.2697
ST26         ?    ?    ? P      ? 20001213 1510    9.0600 GAU  2.00e-02 -1.00e+00 -1.00e+00 -1.00e+00    1.0000 >    7.6863    0.0463    1.2705   52.5727   19.5815    0.0000   42.6147 145.98 146.0  80.7  8     0.0000    0.1537
ST26         ?    ?    ? S      ? 20001213 1510   14.6600 GAU  2.00e-02 -1.00e+00 -1.00e+00 -1.00e+00    1.0000 >   13.5353   -0.2027    0.9438   52.5727   19.5815    0.0000   42.6147 145.98 146.0  80.2  8     0.0000    0.2707
ST2          ?    ?    ? P      ? 20001213 1510    8.9600 GAU  2.00e-02 -1.00e+00 -1.00e+00 -1.00e+00    1.0000 >    7.7017   -0.0691    1.3138   36.5585   96.8954    0.0000   42.7164  10.56  10.6  80.2  8     0.0000    0.1540
ST2          ?    ?    ? S      ? 20001213 1510   14.4800 GAU  2.00e-02 -1.00e+00 -1.00e+00 -1.00e+00    1.0000 >   13.5623   -0.4098    0.6524   36.5585   96.8954    0.0000   42.7164  10.56  10.6  79.6  8     0.0000    0.2712
ST4          ?    ?    ? P      ? 20001213 1510    9.1900 GAU  2.00e-02 -1.00e+00 -1.00e+00 -1.00e+00    1.0000 >    8.1972   -0.3346    0.7545   28.7854    8.8400    0.0000   46.0624 179.93 179.9  66.7  9     0.0000    0.1639
ST4          ?    ?    ? S      ? 20001213 1510   15.0000 GAU  2.00e-02 -1.00e+00 -1.00e+00 -1.00e+00    1.0000 >   14.4337   -0.7611    0.2299   28.7854    8.8400    0.0000   46.0624 179.93 179.9  66.4  9     0.0000    0.2887
ST16         ?    ?    ? P      ? 20001213 1510    9.6000 GAU  2.00e-02 -1.00e+00 -1.00e+00 -1.00e+00    1.0000 >    8.4073   -0.1347    1.1983   39.8239    8.7066    0.0000   47.5091 166.50 166.5  64.7  9     0.0000    0.1681
ST16         ?    ?    ? S      ? 20001213 1510   15.7300 GAU  2.00e-02 -1.00e+00 -1.00e+00 -1.00e+00    1.0000 >   14.8034   -0.4008    0.6668   39.8239    8.7066    0.0000   47.5091 166.50 166.5  64.6  9     0.0000    0.2961
ST17         ?    ?    ? P      ? 20001213 1510   10.1500 GAU  2.00e-02 -1.00e+00 -1.00e+00 -1.00e+00    1.0000 >    8.6577    0.1649    0.9452   64.4820   21.0492    0.0000   49.2362 133.44 133.4  64.1 10     0.0000    0.1732
ST17         ?    ?    ? S      ? 20001213 1510   16.4400 GAU  2.00e-02 -1.00e+00 -1.00e+00 -1.00e+00    1.0000 >   15.2441   -0.1315    0.9412   64.4820   21.0492    0.0000   49.2362 133.44 133.4  64.0 10     0.0000    0.3049
ST0          ?    ?    ? P      ? 20001213 1510   10.2500 GAU  2.00e-02 -1.00e+00 -1.00e+00 -1.00e+00    1.0000 >    8.7828    0.1398    1.0122   57.5022   13.8883    0.0000   50.0995 144.95 145.0  64.0 10     0.0000    0.1757
ST0          ?    ?    ? S      ? 20001213 1510   16.6000 GAU  2.00e-02 -1.00e+00 -1.00e+00 -1.00e+00    1.0000 >   15.4643   -0.1917    0.8981   57.5022   13.8883    0.0000   50.0995 144.95 145.0  63.9 10     0.0000    0.3093
END_PHASE
END_NLLOC

