NLLOC "./loc/alaska.20001213.151002_017.grid0" "LOCATED" "Location completed."
PUBLIC_ID None
SIGNATURE "NonLinLoc - Yifan Yu   obs:./obs/phase.obs   NLLoc:v7.00.16(17Apr2023)   run:24Aug2023 11h42m29"
COMMENT "2023-8-21 test"
GRID  201 201 41  0 0 0  0.5 0.5 0.5 PROB_DENSITY
SEARCH OCTREE nInitial 400 nEvaluated 20000 smallestNodeSide 0.078125/0.078125/0.039062 oct_tree_integral 2.406524e+00 scatter_volume 2.406524e+00
HYPOCENTER  x 30.2734 y 55.1953 z 13.8477  OT 0.474168  ix -1 iy -1 iz -1 MAXIMUM_LIKELIHOOD
GEOGRAPHIC  OT 2000 12 13  15 10 0.474168  Lat 35.896383 Long -117.663915 Depth 13.847656
QUALITY  Pmax 3.4854e+78 MFmin 42.6689 MFmax 45.1534 RMS 0.125027 Nphs 26 Gap 49.9456 Dist 3.47737 Mamp -9.90 0 Mdur -9.90 0
VPVSRATIO  VpVsRatio 1.63326  Npair 6  Diff 2.5
STATISTICS  ExpectX 30.309967 Y 55.204898 Z 13.373616  CovXX 0.273763 XY 0.0423184 XZ -0.243462 YY 0.14539 YZ -0.0549273 ZZ 1.54684 EllAz1  341.715 Dip1  -0.981451 Len1  0.683641 Az2  251.529 Dip2  -10.7521 Len2  0.918814 Len3  2.372419e+00
STAT_GEOG  ExpectLat 35.896469 Long -117.663509 Depth 13.373616
TRANSFORM  SIMPLE LatOrig 35.400000  LongOrig -118.000000  RotCW 0.000000
QML_OriginQuality  assocPhCt 26  usedPhCt 26  assocStaCt -1  usedStaCt 20  depthPhCt -1  stdErr 0.125027  azGap 49.9456  secAzGap 73.6914  gtLevel -  minDist 3.47737 maxDist 48.334 medDist 30.2688
QML_OriginUncertainty  horUnc -1  minHorUnc 0.552448  maxHorUnc 0.811697  azMaxHorUnc 73.3014
QML_ConfidenceEllipsoid  semiMajorAxisLength 2.37242  semiMinorAxisLength 0.683641  semiIntermediateAxisLength 0.918814  majorAxisPlunge -79.2021  majorAxisAzimuth 76.8683  majorAxisRotation 174.361
FOCALMECH  Hyp  35.896383 -117.663915 13.847656 Mech  0 0 0 mf  0 nObs -1
PHASE ID Ins Cmp On Pha  FM Date     HrMn   Sec     Err  ErrMag    Coda      Amp       Per       PriorWt  >   TTpred    Res       Weight    StaLoc(X  Y         Z)        SDist    SAzim  RAz  RDip RQual    Tcorr       TTerr
ST22         ?    ?    ? P      ? 20001213 1510    2.5300 GAU  2.00e-02 -1.00e+00 -1.00e+00 -1.00e+00    1.0000 >    2.5153   -0.4594    0.1612   26.8589   55.8533    0.0000    3.4774 280.91 280.9 163.6  9     0.0000    0.0503
ST20         ?    ?    ? P      ? 20001213 1510    2.6400 GAU  2.00e-02 -1.00e+00 -1.00e+00 -1.00e+00    1.0000 >    2.5337   -0.3679    0.2737   26.5943   53.9852    0.0000    3.8730 251.79 251.8 162.0  9     0.0000    0.0507
ST1          ?    ?    ? P      ? 20001213 1510    3.4900 GAU  2.00e-02 -1.00e+00 -1.00e+00 -1.00e+00    1.0000 >    3.0834   -0.0675    1.2296   36.2928   46.2238    0.0000   10.8037 146.14 146.1 137.5  9     0.0000    0.0617
ST1          ?    ?    ? S      ? 20001213 1510    5.1600 GAU  2.00e-02 -1.00e+00 -1.00e+00 -1.00e+00    1.0000 >    4.9895   -0.3037    0.4141   36.2928   46.2238    0.0000   10.8037 146.14 146.1 138.1 10     0.0000    0.0998
ST8          ?    ?    ? P      ? 20001213 1510    3.9800 GAU  2.00e-02 -1.00e+00 -1.00e+00 -1.00e+00    1.0000 >    3.3688    0.1371    1.1228   21.2005   45.4232    0.0000   13.3346 222.88 222.9 129.4  9     0.0000    0.0674
ST3          ?    ?    ? P      ? 20001213 1510    4.1900 GAU  2.00e-02 -1.00e+00 -1.00e+00 -1.00e+00    1.0000 >    3.7346   -0.0187    1.3652   17.1949   64.7711    0.0000   16.2094 306.21 306.2 121.4  9     0.0000    0.0747
ST10         ?    ?    ? P      ? 20001213 1510    4.3100 GAU  2.00e-02 -1.00e+00 -1.00e+00 -1.00e+00    1.0000 >    3.8415   -0.0057    1.3810   21.1066   69.5192    0.0000   17.0060 327.38 327.4 119.5  9     0.0000    0.0768
ST25         ?    ?    ? P      ? 20001213 1510    5.1900 GAU  2.00e-02 -1.00e+00 -1.00e+00 -1.00e+00    1.0000 >    4.6648    0.0510    1.3365   35.8320   33.0917    0.0000   22.7919 165.88 165.9 107.8  9     0.0000    0.0933
ST25         ?    ?    ? S      ? 20001213 1510    7.8500 GAU  2.00e-02 -1.00e+00 -1.00e+00 -1.00e+00    1.0000 >    7.4385   -0.0627    1.0950   35.8320   33.0917    0.0000   22.7919 165.88 165.9 113.4  9     0.0000    0.1488
ST5          ?    ?    ? P      ? 20001213 1510    5.4600 GAU  2.00e-02 -1.00e+00 -1.00e+00 -1.00e+00    1.0000 >    4.8159    0.1700    0.9864   45.9261   73.1552    0.0000   23.8236  41.07  41.1 105.4  9     0.0000    0.0963
ST5          ?    ?    ? S      ? 20001213 1510    8.4700 GAU  2.00e-02 -1.00e+00 -1.00e+00 -1.00e+00    1.0000 >    7.6728    0.3230    0.4933   45.9261   73.1552    0.0000   23.8236  41.07  41.1 112.3  9     0.0000    0.1535
ST7          ?    ?    ? P      ? 20001213 1510    5.3700 GAU  2.00e-02 -1.00e+00 -1.00e+00 -1.00e+00    1.0000 >    4.8384    0.0575    1.3191   22.5319   32.5023    0.0000   23.9771 198.84 198.8 105.0  9     0.0000    0.0968
ST7          ?    ?    ? S      ? 20001213 1510    8.3500 GAU  2.00e-02 -1.00e+00 -1.00e+00 -1.00e+00    1.0000 >    7.7078    0.1680    0.9488   22.5319   32.5023    0.0000   23.9771 198.84 198.8 112.1  9     0.0000    0.1542
ST14         ?    ?    ? P      ? 20001213 1510    5.9300 GAU  2.00e-02 -1.00e+00 -1.00e+00 -1.00e+00    1.0000 >    5.5518   -0.0960    1.0716   58.1038   47.7138    0.0000   28.8184 105.05 105.0  88.5  9     0.0000    0.1110
ST15         ?    ?    ? P      ? 20001213 1510    6.4200 GAU  2.00e-02 -1.00e+00 -1.00e+00 -1.00e+00    1.0000 >    5.9783   -0.0324    1.2204   38.9482   24.6853    0.0000   31.7193 164.13 164.1  78.9  8     0.0000    0.1196
ST13         ?    ?    ? S      ? 20001213 1510   10.6100 GAU  2.00e-02 -1.00e+00 -1.00e+00 -1.00e+00    1.0000 >    9.9817    0.1541    0.9083   52.0625   29.4778    0.0000   33.7069 139.73 139.7 105.2  9     0.0000    0.1996
ST6          ?    ?    ? P      ? 20001213 1510    6.8600 GAU  2.00e-02 -1.00e+00 -1.00e+00 -1.00e+00    1.0000 >    6.3505    0.0353    1.2443   64.5535   54.5857    0.0000   34.2855  91.02  91.0  74.9  8     0.0000    0.1270
ST18         ?    ?    ? P      ? 20001213 1510    7.1700 GAU  2.00e-02 -1.00e+00 -1.00e+00 -1.00e+00    1.0000 >    6.6714    0.0244    1.2254   45.8666   22.1945    0.0000   36.4993 154.71 154.7  73.5  8     0.0000    0.1334
ST18         ?    ?    ? S      ? 20001213 1510   11.1800 GAU  2.00e-02 -1.00e+00 -1.00e+00 -1.00e+00    1.0000 >   10.6469    0.0589    0.9873   45.8666   22.1945    0.0000   36.4993 154.71 154.7 104.0  9     0.0000    0.2129
ST9          ?    ?    ? P      ? 20001213 1510    7.3700 GAU  2.00e-02 -1.00e+00 -1.00e+00 -1.00e+00    1.0000 >    6.8823    0.0135    1.2105    9.8992   23.1731    0.0000   37.9544 212.47 212.5  73.4  8     0.0000    0.1376
ST9          ?    ?    ? S      ? 20001213 1510   11.5400 GAU  2.00e-02 -1.00e+00 -1.00e+00 -1.00e+00    1.0000 >   10.9949    0.0709    0.9638    9.8992   23.1731    0.0000   37.9544 212.47 212.5 103.4  9     0.0000    0.2199
ST26         ?    ?    ? P      ? 20001213 1510    7.9900 GAU  2.00e-02 -1.00e+00 -1.00e+00 -1.00e+00    1.0000 >    7.4714    0.0445    1.1697   52.5727   19.5815    0.0000   42.0191 147.95 147.9  73.2  8     0.0000    0.1494
ST2          ?    ?    ? P      ? 20001213 1510    7.9200 GAU  2.00e-02 -1.00e+00 -1.00e+00 -1.00e+00    1.0000 >    7.4934   -0.0476    1.1177   36.5585   96.8954    0.0000   42.1711   8.57   8.6  73.2  8     0.0000    0.1499
ST4          ?    ?    ? S      ? 20001213 1510   13.3700 GAU  2.00e-02 -1.00e+00 -1.00e+00 -1.00e+00    1.0000 >   13.0228   -0.1269    0.8161   28.7854    8.8400    0.0000   46.3792 181.84 181.8 100.7  9     0.0000    0.2605
ST16         ?    ?    ? P      ? 20001213 1510    8.6900 GAU  2.00e-02 -1.00e+00 -1.00e+00 -1.00e+00    1.0000 >    8.2599   -0.0440    1.0856   39.8239    8.7066    0.0000   47.4596 168.39 168.4  73.1  8     0.0000    0.1652
ST17         ?    ?    ? P      ? 20001213 1510    9.0600 GAU  2.00e-02 -1.00e+00 -1.00e+00 -1.00e+00    1.0000 >    8.3866    0.1992    0.8525   64.4820   21.0492    0.0000   48.3340 134.95 134.9  73.1  8     0.0000    0.1677
END_PHASE
END_NLLOC

