NLLOC "./loc/alaska.20001213.151002_012.grid0" "LOCATED" "Location completed."
PUBLIC_ID None
SIGNATURE "NonLinLoc - Yifan Yu   obs:./obs/phase.obs   NLLoc:v7.00.16(17Apr2023)   run:24Aug2023 11h42m40"
COMMENT "2023-8-21 test"
GRID  201 201 41  0 0 0  0.5 0.5 0.5 PROB_DENSITY
SEARCH OCTREE nInitial 400 nEvaluated 20008 smallestNodeSide 0.078125/0.078125/0.039062 oct_tree_integral 1.210072e+00 scatter_volume 1.200043e+00
HYPOCENTER  x 25.2734 y 54.8828 z 15.2148  OT 0.452256  ix -1 iy -1 iz -1 MAXIMUM_LIKELIHOOD
GEOGRAPHIC  OT 2000 12 13  15 10 0.452256  Lat 35.893572 Long -117.719433 Depth 15.214844
QUALITY  Pmax 4.73517e+98 MFmin 51.357 MFmax 53.5436 RMS 0.173679 Nphs 32 Gap 114.886 Dist 1.597 Mamp -9.90 0 Mdur -9.90 0
VPVSRATIO  VpVsRatio 1.6997  Npair 9  Diff 4.51
STATISTICS  ExpectX 25.177712 Y 54.962143 Z 15.097324  CovXX 0.239531 XY -0.013198 XZ -0.0294558 YY 0.132353 YZ -0.0975367 ZZ 0.562313 EllAz1  8.59634 Dip1  12.5268 Len1  0.618703 Az2  279.134 Dip2  -2.41888 Len2  0.921187 Len3  1.437475e+00
STAT_GEOG  ExpectLat 35.894286 Long -117.720493 Depth 15.097324
TRANSFORM  SIMPLE LatOrig 35.400000  LongOrig -118.000000  RotCW 0.000000
QML_OriginQuality  assocPhCt 32  usedPhCt 32  assocStaCt -1  usedStaCt 23  depthPhCt -1  stdErr 0.173679  azGap 114.886  secAzGap 127.957  gtLevel -  minDist 1.597 maxDist 52.1464 medDist 33.1495
QML_OriginUncertainty  horUnc -1  minHorUnc 0.548387  maxHorUnc 0.744717  azMaxHorUnc 96.9178
QML_ConfidenceEllipsoid  semiMajorAxisLength 1.43747  semiMinorAxisLength 0.618703  semiIntermediateAxisLength 0.921187  majorAxisPlunge -77.2343  majorAxisAzimuth 19.8797  majorAxisRotation 260.041
FOCALMECH  Hyp  35.893572 -117.719433 15.214844 Mech  0 0 0 mf  0 nObs -1
PHASE ID Ins Cmp On Pha  FM Date     HrMn   Sec     Err  ErrMag    Coda      Amp       Per       PriorWt  >   TTpred    Res       Weight    StaLoc(X  Y         Z)        SDist    SAzim  RAz  RDip RQual    Tcorr       TTerr
ST20         ?    ?    ? P      ? 20001213 1510    2.4300 GAU  2.00e-02 -1.00e+00 -1.00e+00 -1.00e+00    1.0000 >    2.6506   -0.6728    0.2208   26.5943   53.9852    0.0000    1.5970 124.20 124.2 171.6  9     0.0000    0.0530
ST20         ?    ?    ? S      ? 20001213 1510    3.1800 GAU  2.00e-02 -1.00e+00 -1.00e+00 -1.00e+00    1.0000 >    4.3185   -1.5908    0.0000   26.5943   53.9852    0.0000    1.5970 124.20 124.2 171.5  9     0.0000    0.0864
ST22         ?    ?    ? P      ? 20001213 1510    2.3900 GAU  2.00e-02 -1.00e+00 -1.00e+00 -1.00e+00    1.0000 >    2.6565   -0.7188    0.1935   26.8589   55.8533    0.0000    1.8589  58.53  58.5 170.6  9     0.0000    0.0531
ST8          ?    ?    ? P      ? 20001213 1510    3.6500 GAU  2.00e-02 -1.00e+00 -1.00e+00 -1.00e+00    1.0000 >    3.1805    0.0173    1.6098   21.2005   45.4232    0.0000   10.2992 203.29 203.3 139.5 10     0.0000    0.0636
ST8          ?    ?    ? S      ? 20001213 1510    5.6000 GAU  2.00e-02 -1.00e+00 -1.00e+00 -1.00e+00    1.0000 >    5.1703   -0.0226    1.4526   21.2005   45.4232    0.0000   10.2992 203.29 203.3 142.8 10     0.0000    0.1034
ST3          ?    ?    ? P      ? 20001213 1510    3.4200 GAU  2.00e-02 -1.00e+00 -1.00e+00 -1.00e+00    1.0000 >    3.4308   -0.4630    0.1383   17.1949   64.7711    0.0000   12.7688 320.75 320.8 131.8 10     0.0000    0.0686
ST1          ?    ?    ? P      ? 20001213 1510    3.9900 GAU  2.00e-02 -1.00e+00 -1.00e+00 -1.00e+00    1.0000 >    3.5693   -0.0316    1.5441   36.2928   46.2238    0.0000   14.0145 128.16 128.2 127.8  9     0.0000    0.0714
ST10         ?    ?    ? S      ? 20001213 1510    5.8800 GAU  2.00e-02 -1.00e+00 -1.00e+00 -1.00e+00    1.0000 >    6.0095   -0.5818    0.2214   21.1066   69.5192    0.0000   15.2179 344.11 344.1 129.3 10     0.0000    0.1202
ST21         ?    ?    ? S      ? 20001213 1510    6.8800 GAU  2.00e-02 -1.00e+00 -1.00e+00 -1.00e+00    1.0000 >    6.4501   -0.0224    1.3598   36.1150   41.1978    0.0000   17.4591 141.61 141.6 124.7 10     0.0000    0.1290
ST7          ?    ?    ? P      ? 20001213 1510    5.2000 GAU  2.00e-02 -1.00e+00 -1.00e+00 -1.00e+00    1.0000 >    4.6764    0.0713    1.4318   22.5319   32.5023    0.0000   22.5478 186.98 187.0 106.5  9     0.0000    0.0935
ST7          ?    ?    ? S      ? 20001213 1510    8.2600 GAU  2.00e-02 -1.00e+00 -1.00e+00 -1.00e+00    1.0000 >    7.5277    0.2801    0.7649   22.5319   32.5023    0.0000   22.5478 186.98 187.0 117.1 10     0.0000    0.1506
ST25         ?    ?    ? P      ? 20001213 1510    5.3500 GAU  2.00e-02 -1.00e+00 -1.00e+00 -1.00e+00    1.0000 >    4.9106   -0.0129    1.4849   35.8320   33.0917    0.0000   24.2144 154.15 154.1 103.7  9     0.0000    0.0982
ST5          ?    ?    ? P      ? 20001213 1510    5.8100 GAU  2.00e-02 -1.00e+00 -1.00e+00 -1.00e+00    1.0000 >    5.3890   -0.0313    1.4220   45.9261   73.1552    0.0000   27.5756  48.50  48.5 100.1  9     0.0000    0.1078
ST5          ?    ?    ? S      ? 20001213 1510    9.2500 GAU  2.00e-02 -1.00e+00 -1.00e+00 -1.00e+00    1.0000 >    8.6558    0.1419    1.1150   45.9261   73.1552    0.0000   27.5756  48.50  48.5 111.9  9     0.0000    0.1731
ST11         ?    ?    ? P      ? 20001213 1510    5.8700 GAU  2.00e-02 -1.00e+00 -1.00e+00 -1.00e+00    1.0000 >    5.4133    0.0044    1.4598   13.0335   79.7825    0.0000   27.7454 333.82 333.8 100.0  9     0.0000    0.1083
ST11         ?    ?    ? S      ? 20001213 1510    9.2000 GAU  2.00e-02 -1.00e+00 -1.00e+00 -1.00e+00    1.0000 >    8.6947    0.0531    1.2271   13.0335   79.7825    0.0000   27.7454 333.82 333.8 111.8  9     0.0000    0.1739
ST15         ?    ?    ? P      ? 20001213 1510    6.5600 GAU  2.00e-02 -1.00e+00 -1.00e+00 -1.00e+00    1.0000 >    6.1898   -0.0821    1.2434   38.9482   24.6853    0.0000   33.1495 155.64 155.6  96.9  9     0.0000    0.1238
ST14         ?    ?    ? P      ? 20001213 1510    6.6600 GAU  2.00e-02 -1.00e+00 -1.00e+00 -1.00e+00    1.0000 >    6.2553   -0.0476    1.3303   58.1038   47.7138    0.0000   33.6040 102.32 102.3  96.8  9     0.0000    0.1251
ST9          ?    ?    ? P      ? 20001213 1510    6.9800 GAU  2.00e-02 -1.00e+00 -1.00e+00 -1.00e+00    1.0000 >    6.4912    0.0365    1.3771    9.8992   23.1731    0.0000   35.2403 205.87 205.9  96.2  9     0.0000    0.1298
ST19         ?    ?    ? P      ? 20001213 1510    6.9000 GAU  2.00e-02 -1.00e+00 -1.00e+00 -1.00e+00    1.0000 >    6.4913   -0.0435    1.3231   47.2048   27.2984    0.0000   35.2404 141.51 141.5  96.2  9     0.0000    0.1298
ST19         ?    ?    ? S      ? 20001213 1510   11.1400 GAU  2.00e-02 -1.00e+00 -1.00e+00 -1.00e+00    1.0000 >   10.4377    0.2501    0.8493   47.2048   27.2984    0.0000   35.2404 141.51 141.5 106.9  9     0.0000    0.2088
ST13         ?    ?    ? P      ? 20001213 1510    6.9800 GAU  2.00e-02 -1.00e+00 -1.00e+00 -1.00e+00    1.0000 >    6.7336   -0.2059    0.7766   52.0625   29.4778    0.0000   36.9197 133.48 133.5  95.7  9     0.0000    0.1347
ST13         ?    ?    ? S      ? 20001213 1510   11.4200 GAU  2.00e-02 -1.00e+00 -1.00e+00 -1.00e+00    1.0000 >   10.8341    0.1336    1.0444   52.0625   29.4778    0.0000   36.9197 133.48 133.5 106.1  9     0.0000    0.2167
ST18         ?    ?    ? P      ? 20001213 1510    7.3400 GAU  2.00e-02 -1.00e+00 -1.00e+00 -1.00e+00    1.0000 >    6.9812   -0.0934    1.1736   45.8666   22.1945    0.0000   38.6342 147.79 147.8  95.3  9     0.0000    0.1396
ST2          ?    ?    ? P      ? 20001213 1510    8.1900 GAU  2.00e-02 -1.00e+00 -1.00e+00 -1.00e+00    1.0000 >    7.6847    0.0531    1.2885   36.5585   96.8954    0.0000   43.5018  15.04  15.0  94.4  9     0.0000    0.1537
ST2          ?    ?    ? S      ? 20001213 1510   13.1900 GAU  2.00e-02 -1.00e+00 -1.00e+00 -1.00e+00    1.0000 >   12.4010    0.3368    0.6652   36.5585   96.8954    0.0000   43.5018  15.04  15.0 103.5  9     0.0000    0.2480
ST26         ?    ?    ? P      ? 20001213 1510    8.5500 GAU  2.00e-02 -1.00e+00 -1.00e+00 -1.00e+00    1.0000 >    7.8472    0.2506    0.8533   52.5727   19.5815    0.0000   44.6255 142.28 142.3  94.2  9     0.0000    0.1569
ST24         ?    ?    ? P      ? 20001213 1510    8.5500 GAU  2.00e-02 -1.00e+00 -1.00e+00 -1.00e+00    1.0000 >    7.8583    0.2394    0.8851   55.9556   22.3725    0.0000   44.7026 136.66 136.7  94.2  9     0.0000    0.1572
ST4          ?    ?    ? P      ? 20001213 1510    8.3500 GAU  2.00e-02 -1.00e+00 -1.00e+00 -1.00e+00    1.0000 >    8.0715   -0.1738    0.9017   28.7854    8.8400    0.0000   46.1766 175.64 175.6  94.0  9     0.0000    0.1614
ST4          ?    ?    ? S      ? 20001213 1510   13.6100 GAU  2.00e-02 -1.00e+00 -1.00e+00 -1.00e+00    1.0000 >   13.0422    0.1156    0.9734   28.7854    8.8400    0.0000   46.1766 175.64 175.6 102.7  9     0.0000    0.2608
ST17         ?    ?    ? P      ? 20001213 1510    9.6500 GAU  2.00e-02 -1.00e+00 -1.00e+00 -1.00e+00    1.0000 >    8.8835    0.3143    0.6931   64.4820   21.0492    0.0000   51.7882 130.79 130.8  93.4  9     0.0000    0.1777
ST0          ?    ?    ? P      ? 20001213 1510    9.5900 GAU  2.00e-02 -1.00e+00 -1.00e+00 -1.00e+00    1.0000 >    8.9353    0.2024    0.9760   57.5022   13.8883    0.0000   52.1464 141.83 141.8  93.3  9     0.0000    0.1787
END_PHASE
END_NLLOC

