NLLOC "./loc/alaska.20001213.151001_009.grid0" "LOCATED" "Location completed."
PUBLIC_ID None
SIGNATURE "NonLinLoc - Yifan Yu   obs:./obs/phase.obs   NLLoc:v7.00.16(17Apr2023)   run:21Aug2023 13h20m27"
COMMENT "2023-8-21 test"
GRID  201 201 41  0 0 0  0.5 0.5 0.5 PROB_DENSITY
SEARCH OCTREE nInitial 400 nEvaluated 20016 smallestNodeSide 0.039062/0.039062/0.019531 oct_tree_integral 1.009895e+00 scatter_volume 1.005228e+00
HYPOCENTER  x 28.3398 y 58.0273 z 13.7988  OT 1.21348  ix -1 iy -1 iz -1 MAXIMUM_LIKELIHOOD
GEOGRAPHIC  OT 2000 12 13  15 10 1.213480  Lat 35.921852 Long -117.685280 Depth 13.798828
QUALITY  Pmax 2.59038e+185 MFmin 82.1061 MFmax 86.9397 RMS 0.225594 Nphs 54 Gap 86.9155 Dist 2.63054 Mamp -9.90 0 Mdur -9.90 0
VPVSRATIO  VpVsRatio 1.71019  Npair 27  Diff 6.32
STATISTICS  ExpectX 28.363163 Y 58.016236 Z 13.676370  CovXX 0.221211 XY -0.0175468 XZ -0.0690955 YY 0.109625 YZ -0.044891 ZZ 0.434494 EllAz1  13.674 Dip1  10.0772 Len1  0.585595 Az2  286.111 Dip2  -13.4535 Len2  0.859088 Len3  1.273051e+00
STAT_GEOG  ExpectLat 35.921752 Long -117.685021 Depth 13.676370
TRANSFORM  SIMPLE LatOrig 35.400000  LongOrig -118.000000  RotCW 0.000000
QML_OriginQuality  assocPhCt 54  usedPhCt 54  assocStaCt -1  usedStaCt 27  depthPhCt -1  stdErr 0.225594  azGap 86.9155  secAzGap 86.9155  gtLevel -  minDist 2.63054 maxDist 52.9027 medDist 31.5002
QML_OriginUncertainty  horUnc -1  minHorUnc 0.495923  maxHorUnc 0.717622  azMaxHorUnc 98.7291
QML_ConfidenceEllipsoid  semiMajorAxisLength 1.27305  semiMinorAxisLength 0.585595  semiIntermediateAxisLength 0.859088  majorAxisPlunge -73.0755  majorAxisAzimuth 67.9389  majorAxisRotation 222.163
FOCALMECH  Hyp  35.921852 -117.685280 13.798828 Mech  0 0 0 mf  0 nObs -1
PHASE ID Ins Cmp On Pha  FM Date     HrMn   Sec     Err  ErrMag    Coda      Amp       Per       PriorWt  >   TTpred    Res       Weight    StaLoc(X  Y         Z)        SDist    SAzim  RAz  RDip RQual    Tcorr       TTerr
ST22         ?    ?    ? P      ? 20001213 1510    1.4000 GAU  2.00e-02 -1.00e+00 -1.00e+00 -1.00e+00    1.0000 >    2.4742   -2.2877    0.0478   26.8589   55.8533    0.0000    2.6305 214.26 214.3 167.1  9     0.0000    0.0500
ST22         ?    ?    ? S      ? 20001213 1510    1.6500 GAU  2.00e-02 -1.00e+00 -1.00e+00 -1.00e+00    1.0000 >    4.3573   -3.9208    0.0000   26.8589   55.8533    0.0000    2.6305 214.26 214.3 167.1  9     0.0000    0.0871
ST12         ?    ?    ? P      ? 20001213 1510    2.5600 GAU  2.00e-02 -1.00e+00 -1.00e+00 -1.00e+00    1.0000 >    2.5461   -1.1995    0.0064   31.4703   60.9238    0.0000    4.2649  47.22  47.2 160.5  9     0.0000    0.0509
ST12         ?    ?    ? S      ? 20001213 1510    3.5300 GAU  2.00e-02 -1.00e+00 -1.00e+00 -1.00e+00    1.0000 >    4.4838   -2.1672    0.0486   31.4703   60.9238    0.0000    4.2649  47.22  47.2 160.5  9     0.0000    0.0897
ST20         ?    ?    ? P      ? 20001213 1510    1.9300 GAU  2.00e-02 -1.00e+00 -1.00e+00 -1.00e+00    1.0000 >    2.5533   -1.8368    0.0008   26.5943   53.9852    0.0000    4.4029 203.36 203.4 159.9  9     0.0000    0.0511
ST20         ?    ?    ? S      ? 20001213 1510    2.5200 GAU  2.00e-02 -1.00e+00 -1.00e+00 -1.00e+00    1.0000 >    4.4965   -3.1900    0.0000   26.5943   53.9852    0.0000    4.4029 203.36 203.4 159.9  9     0.0000    0.0899
ST3          ?    ?    ? P      ? 20001213 1510    4.1900 GAU  2.00e-02 -1.00e+00 -1.00e+00 -1.00e+00    1.0000 >    3.3265   -0.3500    0.7976   17.1949   64.7711    0.0000   13.0264 301.18 301.2 130.5  9     0.0000    0.0665
ST3          ?    ?    ? S      ? 20001213 1510    6.2200 GAU  2.00e-02 -1.00e+00 -1.00e+00 -1.00e+00    1.0000 >    5.8582   -0.8517    0.1194   17.1949   64.7711    0.0000   13.0264 301.18 301.2 130.5  9     0.0000    0.1172
ST10         ?    ?    ? P      ? 20001213 1510    4.3100 GAU  2.00e-02 -1.00e+00 -1.00e+00 -1.00e+00    1.0000 >    3.3931   -0.2966    0.9233   21.1066   69.5192    0.0000   13.5787 327.81 327.8 128.8  9     0.0000    0.0679
ST10         ?    ?    ? S      ? 20001213 1510    6.4700 GAU  2.00e-02 -1.00e+00 -1.00e+00 -1.00e+00    1.0000 >    5.9755   -0.7190    0.2071   21.1066   69.5192    0.0000   13.5787 327.81 327.8 128.8  9     0.0000    0.1195
ST1          ?    ?    ? P      ? 20001213 1510    4.6500 GAU  2.00e-02 -1.00e+00 -1.00e+00 -1.00e+00    1.0000 >    3.4741   -0.0376    1.6063   36.2928   46.2238    0.0000   14.2328 146.03 146.0 126.8  9     0.0000    0.0695
ST1          ?    ?    ? S      ? 20001213 1510    6.9800 GAU  2.00e-02 -1.00e+00 -1.00e+00 -1.00e+00    1.0000 >    6.1181   -0.3516    0.8216   36.2928   46.2238    0.0000   14.2328 146.03 146.0 126.8  9     0.0000    0.1224
ST8          ?    ?    ? P      ? 20001213 1510    4.8500 GAU  2.00e-02 -1.00e+00 -1.00e+00 -1.00e+00    1.0000 >    3.5058    0.1307    1.3196   21.2005   45.4232    0.0000   14.4857 209.53 209.5 126.1  9     0.0000    0.0701
ST8          ?    ?    ? S      ? 20001213 1510    7.3900 GAU  2.00e-02 -1.00e+00 -1.00e+00 -1.00e+00    1.0000 >    6.1740    0.0026    1.5099   21.2005   45.4232    0.0000   14.4857 209.53 209.5 126.1  9     0.0000    0.1235
ST21         ?    ?    ? P      ? 20001213 1510    5.3600 GAU  2.00e-02 -1.00e+00 -1.00e+00 -1.00e+00    1.0000 >    4.0488    0.0977    1.4436   36.1150   41.1978    0.0000   18.5388 155.20 155.2 116.6  9     0.0000    0.0810
ST21         ?    ?    ? S      ? 20001213 1510    8.2700 GAU  2.00e-02 -1.00e+00 -1.00e+00 -1.00e+00    1.0000 >    7.1302   -0.0737    1.4298   36.1150   41.1978    0.0000   18.5388 155.20 155.2 116.6  9     0.0000    0.1426
ST5          ?    ?    ? P      ? 20001213 1510    6.1400 GAU  2.00e-02 -1.00e+00 -1.00e+00 -1.00e+00    1.0000 >    4.7214    0.2051    0.9683   45.9261   73.1552    0.0000   23.1977  49.30  49.3 107.5  9     0.0000    0.0944
ST5          ?    ?    ? S      ? 20001213 1510    9.4700 GAU  2.00e-02 -1.00e+00 -1.00e+00 -1.00e+00    1.0000 >    8.3146   -0.0581    1.3899   45.9261   73.1552    0.0000   23.1977  49.30  49.3 107.4  9     0.0000    0.1663
ST23         ?    ?    ? P      ? 20001213 1510    6.1200 GAU  2.00e-02 -1.00e+00 -1.00e+00 -1.00e+00    1.0000 >    4.9065    0.0000    1.5779   38.6464   35.8493    0.0000   24.4559 155.07 155.1 104.3  9     0.0000    0.0981
ST23         ?    ?    ? S      ? 20001213 1510    9.6400 GAU  2.00e-02 -1.00e+00 -1.00e+00 -1.00e+00    1.0000 >    8.6406   -0.2141    1.1553   38.6464   35.8493    0.0000   24.4559 155.07 155.1 104.2  9     0.0000    0.1728
ST25         ?    ?    ? P      ? 20001213 1510    6.3700 GAU  2.00e-02 -1.00e+00 -1.00e+00 -1.00e+00    1.0000 >    5.1401    0.0164    1.5599   35.8320   33.0917    0.0000   26.0369 163.28 163.3  99.5  9     0.0000    0.1028
ST25         ?    ?    ? S      ? 20001213 1510   10.1100 GAU  2.00e-02 -1.00e+00 -1.00e+00 -1.00e+00    1.0000 >    9.0519   -0.1554    1.2544   35.8320   33.0917    0.0000   26.0369 163.28 163.3  99.3  8     0.0000    0.1810
ST7          ?    ?    ? P      ? 20001213 1510    6.4800 GAU  2.00e-02 -1.00e+00 -1.00e+00 -1.00e+00    1.0000 >    5.1610    0.1056    1.3797   22.5319   32.5023    0.0000   26.1774 192.82 192.8  99.0  9     0.0000    0.1032
ST7          ?    ?    ? S      ? 20001213 1510   10.3200 GAU  2.00e-02 -1.00e+00 -1.00e+00 -1.00e+00    1.0000 >    9.0885    0.0180    1.3406   22.5319   32.5023    0.0000   26.1774 192.82 192.8  98.8  8     0.0000    0.1818
ST11         ?    ?    ? P      ? 20001213 1510    6.3500 GAU  2.00e-02 -1.00e+00 -1.00e+00 -1.00e+00    1.0000 >    5.2236   -0.0871    1.4708   13.0335   79.7825    0.0000   26.6002 324.87 324.9  97.6  8     0.0000    0.1045
ST11         ?    ?    ? S      ? 20001213 1510   10.2200 GAU  2.00e-02 -1.00e+00 -1.00e+00 -1.00e+00    1.0000 >    9.1988   -0.1923    1.1883   13.0335   79.7825    0.0000   26.6002 324.87 324.9  97.4  8     0.0000    0.1840
ST14         ?    ?    ? P      ? 20001213 1510    7.1700 GAU  2.00e-02 -1.00e+00 -1.00e+00 -1.00e+00    1.0000 >    5.9497    0.0068    1.5207   58.1038   47.7138    0.0000   31.5002 109.11 109.1  79.6  8     0.0000    0.1190
ST14         ?    ?    ? S      ? 20001213 1510   11.2900 GAU  2.00e-02 -1.00e+00 -1.00e+00 -1.00e+00    1.0000 >   10.4768   -0.4003    0.7594   58.1038   47.7138    0.0000   31.5002 109.11 109.1  79.4  8     0.0000    0.2095
ST15         ?    ?    ? P      ? 20001213 1510    7.5900 GAU  2.00e-02 -1.00e+00 -1.00e+00 -1.00e+00    1.0000 >    6.4560   -0.0795    1.4482   38.9482   24.6853    0.0000   34.9890 162.35 162.4  73.0  8     0.0000    0.1291
ST15         ?    ?    ? S      ? 20001213 1510   12.2800 GAU  2.00e-02 -1.00e+00 -1.00e+00 -1.00e+00    1.0000 >   11.3678   -0.3013    0.9552   38.9482   24.6853    0.0000   34.9890 162.35 162.4  72.8  8     0.0000    0.2274
ST19         ?    ?    ? P      ? 20001213 1510    7.8200 GAU  2.00e-02 -1.00e+00 -1.00e+00 -1.00e+00    1.0000 >    6.6109   -0.0043    1.4878   47.2048   27.2984    0.0000   36.0577 148.45 148.5  72.4  8     0.0000    0.1322
ST19         ?    ?    ? S      ? 20001213 1510   12.5700 GAU  2.00e-02 -1.00e+00 -1.00e+00 -1.00e+00    1.0000 >   11.6405   -0.2839    0.9840   47.2048   27.2984    0.0000   36.0577 148.45 148.5  72.3  8     0.0000    0.2328
ST6          ?    ?    ? P      ? 20001213 1510    7.8900 GAU  2.00e-02 -1.00e+00 -1.00e+00 -1.00e+00    1.0000 >    6.6571    0.0194    1.4733   64.5535   54.5857    0.0000   36.3768  95.43  95.4  72.3  8     0.0000    0.1331
ST6          ?    ?    ? S      ? 20001213 1510   12.4400 GAU  2.00e-02 -1.00e+00 -1.00e+00 -1.00e+00    1.0000 >   11.7219   -0.4953    0.5983   64.5535   54.5857    0.0000   36.3768  95.43  95.4  72.2  8     0.0000    0.2344
ST13         ?    ?    ? P      ? 20001213 1510    8.0100 GAU  2.00e-02 -1.00e+00 -1.00e+00 -1.00e+00    1.0000 >    6.7647    0.0318    1.4557   52.0625   29.4778    0.0000   37.1193 140.28 140.3  72.1  8     0.0000    0.1353
ST13         ?    ?    ? S      ? 20001213 1510   12.8400 GAU  2.00e-02 -1.00e+00 -1.00e+00 -1.00e+00    1.0000 >   11.9113   -0.2847    0.9794   52.0625   29.4778    0.0000   37.1193 140.28 140.3  72.1  8     0.0000    0.2382
ST9          ?    ?    ? P      ? 20001213 1510    8.3300 GAU  2.00e-02 -1.00e+00 -1.00e+00 -1.00e+00    1.0000 >    7.0999    0.0166    1.4505    9.8992   23.1731    0.0000   39.4320 207.88 207.9  72.0  8     0.0000    0.1420
ST9          ?    ?    ? S      ? 20001213 1510   13.3700 GAU  2.00e-02 -1.00e+00 -1.00e+00 -1.00e+00    1.0000 >   12.5012   -0.3447    0.8706    9.8992   23.1731    0.0000   39.4320 207.88 207.9  72.0  8     0.0000    0.2500
ST2          ?    ?    ? P      ? 20001213 1510    8.4100 GAU  2.00e-02 -1.00e+00 -1.00e+00 -1.00e+00    1.0000 >    7.1427    0.0538    1.4058   36.5585   96.8954    0.0000   39.7275  11.94  11.9  72.0  8     0.0000    0.1429
ST2          ?    ?    ? S      ? 20001213 1510   13.5700 GAU  2.00e-02 -1.00e+00 -1.00e+00 -1.00e+00    1.0000 >   12.5766   -0.2201    1.0662   36.5585   96.8954    0.0000   39.7275  11.94  11.9  71.9  8     0.0000    0.2515
ST18         ?    ?    ? P      ? 20001213 1510    8.3800 GAU  2.00e-02 -1.00e+00 -1.00e+00 -1.00e+00    1.0000 >    7.1662    0.0003    1.4558   45.8666   22.1945    0.0000   39.8896 153.94 153.9  72.0  8     0.0000    0.1433
ST18         ?    ?    ? S      ? 20001213 1510   13.5400 GAU  2.00e-02 -1.00e+00 -1.00e+00 -1.00e+00    1.0000 >   12.6180   -0.2915    0.9595   45.8666   22.1945    0.0000   39.8896 153.94 153.9  71.9  8     0.0000    0.2524
ST24         ?    ?    ? P      ? 20001213 1510    9.3600 GAU  2.00e-02 -1.00e+00 -1.00e+00 -1.00e+00    1.0000 >    7.9212    0.2253    0.9098   55.9556   22.3725    0.0000   45.0988 142.24 142.2  71.9  8     0.0000    0.1584
ST24         ?    ?    ? S      ? 20001213 1510   15.1000 GAU  2.00e-02 -1.00e+00 -1.00e+00 -1.00e+00    1.0000 >   13.9469   -0.0604    1.1308   55.9556   22.3725    0.0000   45.0988 142.24 142.2  71.8  8     0.0000    0.2789
ST26         ?    ?    ? P      ? 20001213 1510    9.3900 GAU  2.00e-02 -1.00e+00 -1.00e+00 -1.00e+00    1.0000 >    7.9715    0.2051    0.9769   52.5727   19.5815    0.0000   45.4457 147.78 147.8  71.9  8     0.0000    0.1594
ST26         ?    ?    ? S      ? 20001213 1510   15.2000 GAU  2.00e-02 -1.00e+00 -1.00e+00 -1.00e+00    1.0000 >   14.0354   -0.0489    1.1272   52.5727   19.5815    0.0000   45.4457 147.78 147.8  71.8  8     0.0000    0.2807
ST4          ?    ?    ? P      ? 20001213 1510    9.6100 GAU  2.00e-02 -1.00e+00 -1.00e+00 -1.00e+00    1.0000 >    8.5140   -0.1175    1.3258   28.7854    8.8400    0.0000   49.1894 179.48 179.5  71.8  8     0.0000    0.1703
ST4          ?    ?    ? S      ? 20001213 1510   15.6700 GAU  2.00e-02 -1.00e+00 -1.00e+00 -1.00e+00    1.0000 >   14.9904   -0.5339    0.5776   28.7854    8.8400    0.0000   49.1894 179.48 179.5  71.7  8     0.0000    0.2998
ST16         ?    ?    ? P      ? 20001213 1510   10.0200 GAU  2.00e-02 -1.00e+00 -1.00e+00 -1.00e+00    1.0000 >    8.7243    0.0823    1.2775   39.8239    8.7066    0.0000   50.6401 166.89 166.9  71.8  8     0.0000    0.1745
ST16         ?    ?    ? S      ? 20001213 1510   16.3900 GAU  2.00e-02 -1.00e+00 -1.00e+00 -1.00e+00    1.0000 >   15.3605   -0.1840    1.0246   39.8239    8.7066    0.0000   50.6401 166.89 166.9  71.7  8     0.0000    0.3072
ST17         ?    ?    ? P      ? 20001213 1510   10.4500 GAU  2.00e-02 -1.00e+00 -1.00e+00 -1.00e+00    1.0000 >    8.8789    0.3576    0.5195   64.4820   21.0492    0.0000   51.7072 135.66 135.7  71.8  8     0.0000    0.1776
ST17         ?    ?    ? S      ? 20001213 1510   16.8700 GAU  2.00e-02 -1.00e+00 -1.00e+00 -1.00e+00    1.0000 >   15.6327    0.0238    1.0413   64.4820   21.0492    0.0000   51.7072 135.66 135.7  71.7  8     0.0000    0.3127
ST0          ?    ?    ? P      ? 20001213 1510   10.5900 GAU  2.00e-02 -1.00e+00 -1.00e+00 -1.00e+00    1.0000 >    9.0522    0.3243    0.6149   57.5022   13.8883    0.0000   52.9027 146.55 146.5  71.8  8     0.0000    0.1810
ST0          ?    ?    ? S      ? 20001213 1510   17.1600 GAU  2.00e-02 -1.00e+00 -1.00e+00 -1.00e+00    1.0000 >   15.9377    0.0089    1.0370   57.5022   13.8883    0.0000   52.9027 146.55 146.5  71.7  8     0.0000    0.3188
END_PHASE
END_NLLOC

