NLLOC "./loc/alaska.20001213.151002_001.grid0" "LOCATED" "Location completed."
PUBLIC_ID None
SIGNATURE "NonLinLoc - Yifan Yu   obs:./obs/phase.obs   NLLoc:v7.00.16(17Apr2023)   run:24Aug2023 11h42m42"
COMMENT "2023-8-21 test"
GRID  201 201 41  0 0 0  0.5 0.5 0.5 PROB_DENSITY
SEARCH OCTREE nInitial 400 nEvaluated 20000 smallestNodeSide 0.078125/0.078125/0.039062 oct_tree_integral 3.781198e+00 scatter_volume 3.758306e+00
HYPOCENTER  x 28.7891 y 53.1641 z 11.2305  OT 0.650915  ix -1 iy -1 iz -1 MAXIMUM_LIKELIHOOD
GEOGRAPHIC  OT 2000 12 13  15 10 0.650915  Lat 35.878115 Long -117.680468 Depth 11.230469
QUALITY  Pmax 1.0713e+103 MFmin 53.1721 MFmax 54.9464 RMS 0.155815 Nphs 33 Gap 66.0823 Dist 2.34333 Mamp -9.90 0 Mdur -9.90 0
VPVSRATIO  VpVsRatio 1.69424  Npair 11  Diff 3.93
STATISTICS  ExpectX 28.647730 Y 53.292665 Z 11.740138  CovXX 0.293415 XY -0.0125695 XZ -0.119394 YY 0.195303 YZ 0.215069 ZZ 1.44893 EllAz1  356.596 Dip1  -9.75556 Len1  0.749199 Az2  265.726 Dip2  -5.04546 Len2  0.99756 Len3  2.298584e+00
STAT_GEOG  ExpectLat 35.879272 Long -117.682032 Depth 11.740138
TRANSFORM  SIMPLE LatOrig 35.400000  LongOrig -118.000000  RotCW 0.000000
QML_OriginQuality  assocPhCt 33  usedPhCt 33  assocStaCt -1  usedStaCt 22  depthPhCt -1  stdErr 0.155815  azGap 66.0823  secAzGap 99.9007  gtLevel -  minDist 2.34333 maxDist 48.6521 medDist 28.0741
QML_OriginUncertainty  horUnc -1  minHorUnc 0.667497  maxHorUnc 0.823711  azMaxHorUnc 97.1858
QML_ConfidenceEllipsoid  semiMajorAxisLength 2.29858  semiMinorAxisLength 0.749199  semiIntermediateAxisLength 0.99756  majorAxisPlunge -78.9942  majorAxisAzimuth 148.729  majorAxisRotation 115.696
FOCALMECH  Hyp  35.878115 -117.680468 11.230469 Mech  0 0 0 mf  0 nObs -1
PHASE ID Ins Cmp On Pha  FM Date     HrMn   Sec     Err  ErrMag    Coda      Amp       Per       PriorWt  >   TTpred    Res       Weight    StaLoc(X  Y         Z)        SDist    SAzim  RAz  RDip RQual    Tcorr       TTerr
ST20         ?    ?    ? P      ? 20001213 1510    2.7600 GAU  2.00e-02 -1.00e+00 -1.00e+00 -1.00e+00    1.0000 >    2.0590    0.0501    1.4762   26.5943   53.9852    0.0000    2.3433 290.51 290.5 166.2  9     0.0000    0.0500
ST22         ?    ?    ? S      ? 20001213 1510    3.8000 GAU  2.00e-02 -1.00e+00 -1.00e+00 -1.00e+00    1.0000 >    3.4661   -0.3170    0.6189   26.8589   55.8533    0.0000    3.3102 324.33 324.3 160.0  9     0.0000    0.0693
ST12         ?    ?    ? P      ? 20001213 1510    3.1200 GAU  2.00e-02 -1.00e+00 -1.00e+00 -1.00e+00    1.0000 >    2.4905   -0.0214    1.5265   31.4703   60.9238    0.0000    8.2099  19.06  19.1 140.4 10     0.0000    0.0500
ST12         ?    ?    ? S      ? 20001213 1510    4.5400 GAU  2.00e-02 -1.00e+00 -1.00e+00 -1.00e+00    1.0000 >    4.0847   -0.1956    0.9758   31.4703   60.9238    0.0000    8.2099  19.06  19.1 138.9 10     0.0000    0.0817
ST1          ?    ?    ? P      ? 20001213 1510    3.3100 GAU  2.00e-02 -1.00e+00 -1.00e+00 -1.00e+00    1.0000 >    2.7130   -0.0540    1.4385   36.2928   46.2238    0.0000   10.2212 132.77 132.8 132.8  9     0.0000    0.0543
ST8          ?    ?    ? S      ? 20001213 1510    5.7600 GAU  2.00e-02 -1.00e+00 -1.00e+00 -1.00e+00    1.0000 >    4.5555    0.5535    0.2240   21.2005   45.4232    0.0000   10.8401 224.43 224.4 128.0  9     0.0000    0.0911
ST21         ?    ?    ? P      ? 20001213 1510    3.9800 GAU  2.00e-02 -1.00e+00 -1.00e+00 -1.00e+00    1.0000 >    3.2098    0.1193    1.1779   36.1150   41.1978    0.0000   14.0307 148.52 148.5 120.4  9     0.0000    0.0642
ST21         ?    ?    ? S      ? 20001213 1510    5.9300 GAU  2.00e-02 -1.00e+00 -1.00e+00 -1.00e+00    1.0000 >    5.2129    0.0662    1.3356   36.1150   41.1978    0.0000   14.0307 148.52 148.5 118.9  9     0.0000    0.1043
ST10         ?    ?    ? S      ? 20001213 1510    6.8500 GAU  2.00e-02 -1.00e+00 -1.00e+00 -1.00e+00    1.0000 >    6.1164    0.0827    1.2556   21.1066   69.5192    0.0000   18.0696 334.84 334.8 111.4  9     0.0000    0.1223
ST23         ?    ?    ? P      ? 20001213 1510    4.7600 GAU  2.00e-02 -1.00e+00 -1.00e+00 -1.00e+00    1.0000 >    4.0796    0.0295    1.4658   38.6464   35.8493    0.0000   19.9241 150.35 150.3 108.6  9     0.0000    0.0816
ST25         ?    ?    ? P      ? 20001213 1510    4.9200 GAU  2.00e-02 -1.00e+00 -1.00e+00 -1.00e+00    1.0000 >    4.2876   -0.0185    1.4658   35.8320   33.0917    0.0000   21.2722 160.67 160.7 106.7  9     0.0000    0.0858
ST25         ?    ?    ? S      ? 20001213 1510    7.3000 GAU  2.00e-02 -1.00e+00 -1.00e+00 -1.00e+00    1.0000 >    6.8611   -0.2120    0.9709   35.8320   33.0917    0.0000   21.2722 160.67 160.7 107.6  9     0.0000    0.1372
ST7          ?    ?    ? P      ? 20001213 1510    4.9800 GAU  2.00e-02 -1.00e+00 -1.00e+00 -1.00e+00    1.0000 >    4.3367   -0.0076    1.4696   22.5319   32.5023    0.0000   21.5884 196.85 196.8 106.3  9     0.0000    0.0867
ST7          ?    ?    ? S      ? 20001213 1510    7.7400 GAU  2.00e-02 -1.00e+00 -1.00e+00 -1.00e+00    1.0000 >    6.9354    0.1536    1.0376   22.5319   32.5023    0.0000   21.5884 196.85 196.8 107.3  9     0.0000    0.1387
ST5          ?    ?    ? P      ? 20001213 1510    5.8500 GAU  2.00e-02 -1.00e+00 -1.00e+00 -1.00e+00    1.0000 >    5.0816    0.1175    1.1820   45.9261   73.1552    0.0000   26.3311  40.60  40.6 101.7  9     0.0000    0.1016
ST5          ?    ?    ? S      ? 20001213 1510    9.1100 GAU  2.00e-02 -1.00e+00 -1.00e+00 -1.00e+00    1.0000 >    8.0621    0.3970    0.4558   45.9261   73.1552    0.0000   26.3311  40.60  40.6 103.7  9     0.0000    0.1612
ST14         ?    ?    ? P      ? 20001213 1510    6.1500 GAU  2.00e-02 -1.00e+00 -1.00e+00 -1.00e+00    1.0000 >    5.6352   -0.1362    1.1819   58.1038   47.7138    0.0000   29.8171 100.53 100.5  99.7  9     0.0000    0.1127
ST19         ?    ?    ? P      ? 20001213 1510    6.3000 GAU  2.00e-02 -1.00e+00 -1.00e+00 -1.00e+00    1.0000 >    5.9437   -0.2947    0.7256   47.2048   27.2984    0.0000   31.7517 144.55 144.6  98.8  9     0.0000    0.1189
ST19         ?    ?    ? S      ? 20001213 1510   10.0800 GAU  2.00e-02 -1.00e+00 -1.00e+00 -1.00e+00    1.0000 >    9.3663    0.0627    1.1471   47.2048   27.2984    0.0000   31.7517 144.55 144.6 101.0  9     0.0000    0.1873
ST13         ?    ?    ? P      ? 20001213 1510    6.5900 GAU  2.00e-02 -1.00e+00 -1.00e+00 -1.00e+00    1.0000 >    6.1762   -0.2371    0.8955   52.0625   29.4778    0.0000   33.2068 135.50 135.5  98.2  9     0.0000    0.1235
ST18         ?    ?    ? S      ? 20001213 1510   11.0900 GAU  2.00e-02 -1.00e+00 -1.00e+00 -1.00e+00    1.0000 >   10.2415    0.1976    0.8998   45.8666   22.1945    0.0000   35.3660 151.13 151.1  99.7  9     0.0000    0.2048
ST9          ?    ?    ? P      ? 20001213 1510    7.0000 GAU  2.00e-02 -1.00e+00 -1.00e+00 -1.00e+00    1.0000 >    6.5341   -0.1850    1.0455    9.8992   23.1731    0.0000   35.4442 212.20 212.2  97.5  9     0.0000    0.1307
ST9          ?    ?    ? S      ? 20001213 1510   10.9700 GAU  2.00e-02 -1.00e+00 -1.00e+00 -1.00e+00    1.0000 >   10.2605    0.0586    1.1132    9.8992   23.1731    0.0000   35.4442 212.20 212.2  99.7  9     0.0000    0.2052
ST6          ?    ?    ? P      ? 20001213 1510    7.1200 GAU  2.00e-02 -1.00e+00 -1.00e+00 -1.00e+00    1.0000 >    6.5899   -0.1208    1.2059   64.5535   54.5857    0.0000   35.7927  87.72  87.7  97.4  9     0.0000    0.1318
ST6          ?    ?    ? S      ? 20001213 1510   11.2800 GAU  2.00e-02 -1.00e+00 -1.00e+00 -1.00e+00    1.0000 >   10.3450    0.2841    0.7240   64.5535   54.5857    0.0000   35.7927  87.72  87.7  99.6  9     0.0000    0.2069
ST24         ?    ?    ? P      ? 20001213 1510    8.0300 GAU  2.00e-02 -1.00e+00 -1.00e+00 -1.00e+00    1.0000 >    7.4348   -0.0557    1.2752   55.9556   22.3725    0.0000   41.0627 138.58 138.6  96.0  9     0.0000    0.1487
ST24         ?    ?    ? S      ? 20001213 1510   12.8300 GAU  2.00e-02 -1.00e+00 -1.00e+00 -1.00e+00    1.0000 >   11.6263    0.5527    0.3147   55.9556   22.3725    0.0000   41.0627 138.58 138.6  98.2  9     0.0000    0.2325
ST4          ?    ?    ? S      ? 20001213 1510   13.0600 GAU  2.00e-02 -1.00e+00 -1.00e+00 -1.00e+00    1.0000 >   12.4212   -0.0121    1.0511   28.7854    8.8400    0.0000   44.3241 180.00 180.0  97.5  9     0.0000    0.2484
ST2          ?    ?    ? P      ? 20001213 1510    8.1300 GAU  2.00e-02 -1.00e+00 -1.00e+00 -1.00e+00    1.0000 >    7.9719   -0.4928    0.2839   36.5585   96.8954    0.0000   44.4161  10.07  10.1  88.7  8     0.0000    0.1594
ST2          ?    ?    ? S      ? 20001213 1510   13.4800 GAU  2.00e-02 -1.00e+00 -1.00e+00 -1.00e+00    1.0000 >   12.4437    0.3854    0.5638   36.5585   96.8954    0.0000   44.4161  10.07  10.1  97.5  9     0.0000    0.2489
ST16         ?    ?    ? P      ? 20001213 1510    8.4900 GAU  2.00e-02 -1.00e+00 -1.00e+00 -1.00e+00    1.0000 >    8.1890   -0.3499    0.6082   39.8239    8.7066    0.0000   45.8065 166.06 166.1  82.1  8     0.0000    0.1638
ST0          ?    ?    ? P      ? 20001213 1510    9.2500 GAU  2.00e-02 -1.00e+00 -1.00e+00 -1.00e+00    1.0000 >    8.6168   -0.0177    1.2308   57.5022   13.8883    0.0000   48.6521 143.83 143.8  69.0  8     0.0000    0.1723
ST0          ?    ?    ? S      ? 20001213 1510   14.4600 GAU  2.00e-02 -1.00e+00 -1.00e+00 -1.00e+00    1.0000 >   13.4777    0.3314    0.6570   57.5022   13.8883    0.0000   48.6521 143.83 143.8  96.7  9     0.0000    0.2696
END_PHASE
END_NLLOC

