NLLOC "./loc/alaska.20001213.151002_009.grid0" "LOCATED" "Location completed."
PUBLIC_ID None
SIGNATURE "NonLinLoc - Yifan Yu   obs:./obs/phase.obs   NLLoc:v7.00.16(17Apr2023)   run:24Aug2023 11h42m45"
COMMENT "2023-8-21 test"
GRID  201 201 41  0 0 0  0.5 0.5 0.5 PROB_DENSITY
SEARCH OCTREE nInitial 400 nEvaluated 20000 smallestNodeSide 0.078125/0.078125/0.039062 oct_tree_integral 4.274248e+00 scatter_volume 4.274248e+00
HYPOCENTER  x 27.8906 y 59.6094 z 15.2734  OT 0.262716  ix -1 iy -1 iz -1 MAXIMUM_LIKELIHOOD
GEOGRAPHIC  OT 2000 12 13  15 10 0.262716  Lat 35.936079 Long -117.690213 Depth 15.273438
QUALITY  Pmax 2.06689e+103 MFmin 53.8119 MFmax 58.0005 RMS 0.235554 Nphs 34 Gap 89.4829 Dist 3.81339 Mamp -9.90 0 Mdur -9.90 0
VPVSRATIO  VpVsRatio 1.73449  Npair 11  Diff 5.42
STATISTICS  ExpectX 28.030532 Y 59.557694 Z 14.908495  CovXX 0.385249 XY -0.0348614 XZ -0.159285 YY 0.25587 YZ 0.0232335 ZZ 1.79916 EllAz1  14.9039 Dip1  0.683409 Len1  0.933532 Az2  284.981 Dip2  -6.40997 Len2  1.15216 Len3  2.532830e+00
STAT_GEOG  ExpectLat 35.935614 Long -117.688661 Depth 14.908495
TRANSFORM  SIMPLE LatOrig 35.400000  LongOrig -118.000000  RotCW 0.000000
QML_OriginQuality  assocPhCt 34  usedPhCt 34  assocStaCt -1  usedStaCt 23  depthPhCt -1  stdErr 0.235554  azGap 89.4829  secAzGap 119.326  gtLevel -  minDist 3.81339 maxDist 54.4726 medDist 36.6328
QML_OriginUncertainty  horUnc -1  minHorUnc 0.753838  maxHorUnc 0.952  azMaxHorUnc 104.16
QML_ConfidenceEllipsoid  semiMajorAxisLength 2.53283  semiMinorAxisLength 0.933532  semiIntermediateAxisLength 1.15216  majorAxisPlunge -83.5534  majorAxisAzimuth 98.844  majorAxisRotation 186.255
FOCALMECH  Hyp  35.936079 -117.690213 15.273438 Mech  0 0 0 mf  0 nObs -1
PHASE ID Ins Cmp On Pha  FM Date     HrMn   Sec     Err  ErrMag    Coda      Amp       Per       PriorWt  >   TTpred    Res       Weight    StaLoc(X  Y         Z)        SDist    SAzim  RAz  RDip RQual    Tcorr       TTerr
ST12         ?    ?    ? P      ? 20001213 1510    2.5600 GAU  2.00e-02 -1.00e+00 -1.00e+00 -1.00e+00    1.0000 >    2.7306   -0.4333    0.2065   31.4703   60.9238    0.0000    3.8134  69.84  69.8 162.8  9     0.0000    0.0546
ST12         ?    ?    ? S      ? 20001213 1510    3.0500 GAU  2.00e-02 -1.00e+00 -1.00e+00 -1.00e+00    1.0000 >    4.4523   -1.6651    0.0794   31.4703   60.9238    0.0000    3.8134  69.84  69.8 163.3  9     0.0000    0.0890
ST22         ?    ?    ? P      ? 20001213 1510    2.0900 GAU  2.00e-02 -1.00e+00 -1.00e+00 -1.00e+00    1.0000 >    2.7341   -0.9068    0.0002   26.8589   55.8533    0.0000    3.8952 195.36 195.4 162.4  9     0.0000    0.0547
ST22         ?    ?    ? S      ? 20001213 1510    2.9200 GAU  2.00e-02 -1.00e+00 -1.00e+00 -1.00e+00    1.0000 >    4.4580   -1.8008    0.0659   26.8589   55.8533    0.0000    3.8952 195.36 195.4 163.1  9     0.0000    0.0892
ST20         ?    ?    ? P      ? 20001213 1510    2.7100 GAU  2.00e-02 -1.00e+00 -1.00e+00 -1.00e+00    1.0000 >    2.8326   -0.3854    0.2532   26.5943   53.9852    0.0000    5.7716 192.98 193.0 155.3  9     0.0000    0.0567
ST20         ?    ?    ? S      ? 20001213 1510    3.4800 GAU  2.00e-02 -1.00e+00 -1.00e+00 -1.00e+00    1.0000 >    4.6178   -1.4005    0.0157   26.5943   53.9852    0.0000    5.7716 192.98 193.0 156.7  9     0.0000    0.0924
ST3          ?    ?    ? P      ? 20001213 1510    3.5900 GAU  2.00e-02 -1.00e+00 -1.00e+00 -1.00e+00    1.0000 >    3.3423   -0.0150    1.4781   17.1949   64.7711    0.0000   11.8761 295.76 295.8 134.7 10     0.0000    0.0668
ST10         ?    ?    ? P      ? 20001213 1510    3.5700 GAU  2.00e-02 -1.00e+00 -1.00e+00 -1.00e+00    1.0000 >    3.3559   -0.0486    1.3733   21.1066   69.5192    0.0000   12.0095 325.61 325.6 134.2 10     0.0000    0.0671
ST8          ?    ?    ? P      ? 20001213 1510    4.4600 GAU  2.00e-02 -1.00e+00 -1.00e+00 -1.00e+00    1.0000 >    3.7722    0.4251    0.6668   21.2005   45.4232    0.0000   15.6846 205.25 205.2 122.9  9     0.0000    0.0754
ST8          ?    ?    ? S      ? 20001213 1510    6.5900 GAU  2.00e-02 -1.00e+00 -1.00e+00 -1.00e+00    1.0000 >    6.1080    0.2193    1.2810   21.2005   45.4232    0.0000   15.6846 205.25 205.2 128.4 10     0.0000    0.1222
ST5          ?    ?    ? P      ? 20001213 1510    5.1700 GAU  2.00e-02 -1.00e+00 -1.00e+00 -1.00e+00    1.0000 >    4.6801    0.2272    1.2633   45.9261   73.1552    0.0000   22.5559  53.09  53.1 106.8  9     0.0000    0.0936
ST5          ?    ?    ? S      ? 20001213 1510    8.1600 GAU  2.00e-02 -1.00e+00 -1.00e+00 -1.00e+00    1.0000 >    7.5360    0.3613    0.9127   45.9261   73.1552    0.0000   22.5559  53.09  53.1 117.2 10     0.0000    0.1507
ST23         ?    ?    ? S      ? 20001213 1510    8.6000 GAU  2.00e-02 -1.00e+00 -1.00e+00 -1.00e+00    1.0000 >    8.3217    0.0156    1.3166   38.6464   35.8493    0.0000   26.0812 155.64 155.6 113.3  9     0.0000    0.1664
ST7          ?    ?    ? P      ? 20001213 1510    5.8200 GAU  2.00e-02 -1.00e+00 -1.00e+00 -1.00e+00    1.0000 >    5.3986    0.1587    1.4039   22.5319   32.5023    0.0000   27.6316 191.18 191.2 100.3  9     0.0000    0.1080
ST25         ?    ?    ? P      ? 20001213 1510    5.7000 GAU  2.00e-02 -1.00e+00 -1.00e+00 -1.00e+00    1.0000 >    5.4057    0.0316    1.4721   35.8320   33.0917    0.0000   27.6813 163.33 163.3 100.3  9     0.0000    0.1081
ST14         ?    ?    ? P      ? 20001213 1510    6.3000 GAU  2.00e-02 -1.00e+00 -1.00e+00 -1.00e+00    1.0000 >    6.0931   -0.0558    1.2618   58.1038   47.7138    0.0000   32.4706 111.49 111.5  97.4  9     0.0000    0.1219
ST15         ?    ?    ? P      ? 20001213 1510    6.9100 GAU  2.00e-02 -1.00e+00 -1.00e+00 -1.00e+00    1.0000 >    6.6931   -0.0458    1.2694   38.9482   24.6853    0.0000   36.6328 162.43 162.4  96.0  9     0.0000    0.1339
ST15         ?    ?    ? S      ? 20001213 1510   11.1100 GAU  2.00e-02 -1.00e+00 -1.00e+00 -1.00e+00    1.0000 >   10.7703    0.0770    1.2440   38.9482   24.6853    0.0000   36.6328 162.43 162.4 106.3  9     0.0000    0.2154
ST6          ?    ?    ? P      ? 20001213 1510    7.0000 GAU  2.00e-02 -1.00e+00 -1.00e+00 -1.00e+00    1.0000 >    6.7468   -0.0095    1.3496   64.5535   54.5857    0.0000   37.0054  97.80  97.8  95.9  9     0.0000    0.1349
ST6          ?    ?    ? S      ? 20001213 1510   11.3000 GAU  2.00e-02 -1.00e+00 -1.00e+00 -1.00e+00    1.0000 >   10.8584    0.1789    1.2040   64.5535   54.5857    0.0000   37.0054  97.80  97.8 106.1  9     0.0000    0.2172
ST19         ?    ?    ? P      ? 20001213 1510    6.9900 GAU  2.00e-02 -1.00e+00 -1.00e+00 -1.00e+00    1.0000 >    6.8389   -0.1117    1.0639   47.2048   27.2984    0.0000   37.6435 149.13 149.1  95.7  9     0.0000    0.1368
ST2          ?    ?    ? P      ? 20001213 1510    7.5000 GAU  2.00e-02 -1.00e+00 -1.00e+00 -1.00e+00    1.0000 >    6.9309    0.3064    1.0633   36.5585   96.8954    0.0000   38.2803  13.09  13.1  95.5  9     0.0000    0.1386
ST13         ?    ?    ? P      ? 20001213 1510    7.2500 GAU  2.00e-02 -1.00e+00 -1.00e+00 -1.00e+00    1.0000 >    6.9812    0.0061    1.3659   52.0625   29.4778    0.0000   38.6289 141.26 141.3  95.4  9     0.0000    0.1396
ST13         ?    ?    ? S      ? 20001213 1510   11.5200 GAU  2.00e-02 -1.00e+00 -1.00e+00 -1.00e+00    1.0000 >   11.2430    0.0143    1.1858   52.0625   29.4778    0.0000   38.6289 141.26 141.3 105.4  9     0.0000    0.2249
ST9          ?    ?    ? P      ? 20001213 1510    7.7400 GAU  2.00e-02 -1.00e+00 -1.00e+00 -1.00e+00    1.0000 >    7.2711    0.2061    1.2894    9.8992   23.1731    0.0000   40.6362 206.28 206.3  95.0  9     0.0000    0.1454
ST18         ?    ?    ? P      ? 20001213 1510    7.6600 GAU  2.00e-02 -1.00e+00 -1.00e+00 -1.00e+00    1.0000 >    7.3973    0.0000    1.3369   45.8666   22.1945    0.0000   41.5091 154.34 154.3  94.9  9     0.0000    0.1479
ST18         ?    ?    ? S      ? 20001213 1510   12.4500 GAU  2.00e-02 -1.00e+00 -1.00e+00 -1.00e+00    1.0000 >   11.9283    0.2590    1.0687   45.8666   22.1945    0.0000   41.5091 154.34 154.3 104.2  9     0.0000    0.2386
ST26         ?    ?    ? P      ? 20001213 1510    8.6100 GAU  2.00e-02 -1.00e+00 -1.00e+00 -1.00e+00    1.0000 >    8.1949    0.1523    1.3372   52.5727   19.5815    0.0000   47.0259 148.34 148.3  94.0  9     0.0000    0.1639
ST4          ?    ?    ? P      ? 20001213 1510    8.9900 GAU  2.00e-02 -1.00e+00 -1.00e+00 -1.00e+00    1.0000 >    8.7377   -0.0104    1.2615   28.7854    8.8400    0.0000   50.7773 178.99 179.0  93.6  9     0.0000    0.1748
ST4          ?    ?    ? S      ? 20001213 1510   14.5100 GAU  2.00e-02 -1.00e+00 -1.00e+00 -1.00e+00    1.0000 >   14.1522    0.0951    1.0964   28.7854    8.8400    0.0000   50.7773 178.99 179.0 101.5  9     0.0000    0.2830
ST16         ?    ?    ? P      ? 20001213 1510    9.3400 GAU  2.00e-02 -1.00e+00 -1.00e+00 -1.00e+00    1.0000 >    8.9556    0.1217    1.3264   39.8239    8.7066    0.0000   52.2829 166.81 166.8  93.4  9     0.0000    0.1791
ST16         ?    ?    ? S      ? 20001213 1510   15.2500 GAU  2.00e-02 -1.00e+00 -1.00e+00 -1.00e+00    1.0000 >   14.5154    0.4719    0.6686   39.8239    8.7066    0.0000   52.2829 166.81 166.8 101.1  9     0.0000    0.2903
ST17         ?    ?    ? P      ? 20001213 1510    9.7600 GAU  2.00e-02 -1.00e+00 -1.00e+00 -1.00e+00    1.0000 >    9.0823    0.4150    0.7733   64.4820   21.0492    0.0000   53.1584 136.50 136.5  93.3  9     0.0000    0.1816
ST0          ?    ?    ? P      ? 20001213 1510    9.8400 GAU  2.00e-02 -1.00e+00 -1.00e+00 -1.00e+00    1.0000 >    9.2725    0.3048    1.0452   57.5022   13.8883    0.0000   54.4726 147.07 147.1  93.2  9     0.0000    0.1855
END_PHASE
END_NLLOC

