NLLOC "./loc/alaska.20001213.151001_015.grid0" "LOCATED" "Location completed."
PUBLIC_ID None
SIGNATURE "NonLinLoc - Yifan Yu   obs:./obs/phase.obs   NLLoc:v7.00.16(17Apr2023)   run:21Aug2023 13h19m37"
COMMENT "2023-8-21 test"
GRID  201 201 41  0 0 0  0.5 0.5 0.5 PROB_DENSITY
SEARCH OCTREE nInitial 400 nEvaluated 20016 smallestNodeSide 0.039062/0.039062/0.019531 oct_tree_integral 4.041703e-01 scatter_volume 4.015785e-01
HYPOCENTER  x 29.0234 y 53.7891 z 9.94141  OT 1.47504  ix -1 iy -1 iz -1 MAXIMUM_LIKELIHOOD
GEOGRAPHIC  OT 2000 12 13  15 10 1.475044  Lat 35.883736 Long -117.677844 Depth 9.941406
QUALITY  Pmax 2.10741e+193 MFmin 85.2618 MFmax 87.2709 RMS 0.120082 Nphs 54 Gap 51.5375 Dist 2.43703 Mamp -9.90 0 Mdur -9.90 0
VPVSRATIO  VpVsRatio 1.72385  Npair 27  Diff 5.89
STATISTICS  ExpectX 28.883447 Y 53.700773 Z 10.405831  CovXX 0.112982 XY 0.0532995 XZ -0.13017 YY 0.0587913 YZ -0.0498396 ZZ 0.542572 EllAz1  323.933 Dip1  -4.01189 Len1  0.292853 Az2  232.708 Dip2  -16.9498 Len2  0.605047 Len3  1.438678e+00
STAT_GEOG  ExpectLat 35.882942 Long -117.679401 Depth 10.405831
TRANSFORM  SIMPLE LatOrig 35.400000  LongOrig -118.000000  RotCW 0.000000
QML_OriginQuality  assocPhCt 54  usedPhCt 54  assocStaCt -1  usedStaCt 27  depthPhCt -1  stdErr 0.120082  azGap 51.5375  secAzGap 51.5375  gtLevel -  minDist 2.43703 maxDist 49.0215 medDist 30.5178
QML_OriginUncertainty  horUnc -1  minHorUnc 0.244988  maxHorUnc 0.578843  azMaxHorUnc 58.4734
QML_ConfidenceEllipsoid  semiMajorAxisLength 1.43868  semiMinorAxisLength 0.292853  semiIntermediateAxisLength 0.605047  majorAxisPlunge -72.5537  majorAxisAzimuth 66.8279  majorAxisRotation 163.691
FOCALMECH  Hyp  35.883736 -117.677844 9.941406 Mech  0 0 0 mf  0 nObs -1
PHASE ID Ins Cmp On Pha  FM Date     HrMn   Sec     Err  ErrMag    Coda      Amp       Per       PriorWt  >   TTpred    Res       Weight    StaLoc(X  Y         Z)        SDist    SAzim  RAz  RDip RQual    Tcorr       TTerr
ST20         ?    ?    ? P      ? 20001213 1510    1.6300 GAU  2.00e-02 -1.00e+00 -1.00e+00 -1.00e+00    1.0000 >    1.8610   -1.7060    0.0020   26.5943   53.9852    0.0000    2.4370 274.62 274.6 164.0  9     0.0000    0.0500
ST20         ?    ?    ? S      ? 20001213 1510    2.0500 GAU  2.00e-02 -1.00e+00 -1.00e+00 -1.00e+00    1.0000 >    3.2770   -2.7021    0.0000   26.5943   53.9852    0.0000    2.4370 274.62 274.6 164.0  9     0.0000    0.0655
ST22         ?    ?    ? P      ? 20001213 1510    2.1300 GAU  2.00e-02 -1.00e+00 -1.00e+00 -1.00e+00    1.0000 >    1.8879   -1.2330    0.0118   26.8589   55.8533    0.0000    2.9910 313.64 313.6 160.9  9     0.0000    0.0500
ST22         ?    ?    ? S      ? 20001213 1510    2.8500 GAU  2.00e-02 -1.00e+00 -1.00e+00 -1.00e+00    1.0000 >    3.3245   -1.9496    0.0017   26.8589   55.8533    0.0000    2.9910 313.64 313.6 160.9  9     0.0000    0.0665
ST12         ?    ?    ? P      ? 20001213 1510    3.7200 GAU  2.00e-02 -1.00e+00 -1.00e+00 -1.00e+00    1.0000 >    2.2619   -0.0170    1.6868   31.4703   60.9238    0.0000    7.5426  18.93  18.9 138.6 10     0.0000    0.0500
ST12         ?    ?    ? S      ? 20001213 1510    5.4000 GAU  2.00e-02 -1.00e+00 -1.00e+00 -1.00e+00    1.0000 >    3.9832   -0.0582    1.4817   31.4703   60.9238    0.0000    7.5426  18.93  18.9 138.6 10     0.0000    0.0797
ST1          ?    ?    ? P      ? 20001213 1510    4.0900 GAU  2.00e-02 -1.00e+00 -1.00e+00 -1.00e+00    1.0000 >    2.6150   -0.0000    1.6955   36.2928   46.2238    0.0000   10.4918 136.14 136.1 125.3  9     0.0000    0.0523
ST1          ?    ?    ? S      ? 20001213 1510    6.0500 GAU  2.00e-02 -1.00e+00 -1.00e+00 -1.00e+00    1.0000 >    4.6048   -0.0299    1.5069   36.2928   46.2238    0.0000   10.4918 136.14 136.1 125.3  9     0.0000    0.0921
ST8          ?    ?    ? P      ? 20001213 1510    4.2100 GAU  2.00e-02 -1.00e+00 -1.00e+00 -1.00e+00    1.0000 >    2.7447   -0.0097    1.6805   21.2005   45.4232    0.0000   11.4536 223.08 223.1 121.8  9     0.0000    0.0549
ST8          ?    ?    ? S      ? 20001213 1510    6.2800 GAU  2.00e-02 -1.00e+00 -1.00e+00 -1.00e+00    1.0000 >    4.8333   -0.0283    1.4910   21.2005   45.4232    0.0000   11.4536 223.08 223.1 121.9  9     0.0000    0.0967
ST21         ?    ?    ? P      ? 20001213 1510    4.7800 GAU  2.00e-02 -1.00e+00 -1.00e+00 -1.00e+00    1.0000 >    3.1758    0.1292    1.1352   36.1150   41.1978    0.0000   14.4510 150.61 150.6 113.0  9     0.0000    0.0635
ST21         ?    ?    ? S      ? 20001213 1510    7.2800 GAU  2.00e-02 -1.00e+00 -1.00e+00 -1.00e+00    1.0000 >    5.5924    0.2125    0.7639   36.1150   41.1978    0.0000   14.4510 150.61 150.6 113.0  9     0.0000    0.1118
ST3          ?    ?    ? P      ? 20001213 1510    4.9300 GAU  2.00e-02 -1.00e+00 -1.00e+00 -1.00e+00    1.0000 >    3.4317    0.0233    1.6124   17.1949   64.7711    0.0000   16.1406 312.87 312.9 108.8  9     0.0000    0.0686
ST3          ?    ?    ? S      ? 20001213 1510    7.5200 GAU  2.00e-02 -1.00e+00 -1.00e+00 -1.00e+00    1.0000 >    6.0430    0.0019    1.4060   17.1949   64.7711    0.0000   16.1406 312.87 312.9 108.8  9     0.0000    0.1209
ST10         ?    ?    ? P      ? 20001213 1510    5.1800 GAU  2.00e-02 -1.00e+00 -1.00e+00 -1.00e+00    1.0000 >    3.6593    0.0456    1.5420   21.1066   69.5192    0.0000   17.6100 333.28 333.3 105.5  9     0.0000    0.0732
ST10         ?    ?    ? S      ? 20001213 1510    7.9500 GAU  2.00e-02 -1.00e+00 -1.00e+00 -1.00e+00    1.0000 >    6.4440    0.0310    1.3528   21.1066   69.5192    0.0000   17.6100 333.28 333.3 105.5  9     0.0000    0.1289
ST23         ?    ?    ? P      ? 20001213 1510    5.6400 GAU  2.00e-02 -1.00e+00 -1.00e+00 -1.00e+00    1.0000 >    4.0928    0.0722    1.4206   38.6464   35.8493    0.0000   20.3577 151.79 151.8 101.2  9     0.0000    0.0819
ST23         ?    ?    ? S      ? 20001213 1510    8.8400 GAU  2.00e-02 -1.00e+00 -1.00e+00 -1.00e+00    1.0000 >    7.2074    0.1576    0.9878   38.6464   35.8493    0.0000   20.3577 151.79 151.8 101.2  9     0.0000    0.1441
ST25         ?    ?    ? P      ? 20001213 1510    5.8200 GAU  2.00e-02 -1.00e+00 -1.00e+00 -1.00e+00    1.0000 >    4.3205    0.0244    1.5360   35.8320   33.0917    0.0000   21.7885 161.79 161.8  99.7  9     0.0000    0.0864
ST25         ?    ?    ? S      ? 20001213 1510    9.2200 GAU  2.00e-02 -1.00e+00 -1.00e+00 -1.00e+00    1.0000 >    7.6085    0.1364    1.0458   35.8320   33.0917    0.0000   21.7885 161.79 161.8  99.7  9     0.0000    0.1522
ST7          ?    ?    ? P      ? 20001213 1510    5.9400 GAU  2.00e-02 -1.00e+00 -1.00e+00 -1.00e+00    1.0000 >    4.3949    0.0701    1.4116   22.5319   32.5023    0.0000   22.2545 196.96 197.0  99.3  9     0.0000    0.0879
ST7          ?    ?    ? S      ? 20001213 1510    9.4100 GAU  2.00e-02 -1.00e+00 -1.00e+00 -1.00e+00    1.0000 >    7.7395    0.1954    0.8554   22.5319   32.5023    0.0000   22.2545 196.96 197.0  99.3  9     0.0000    0.1548
ST5          ?    ?    ? P      ? 20001213 1510    6.7900 GAU  2.00e-02 -1.00e+00 -1.00e+00 -1.00e+00    1.0000 >    4.9471    0.3678    0.2513   45.9261   73.1552    0.0000   25.7051  41.11  41.1  97.1  9     0.0000    0.0989
ST5          ?    ?    ? S      ? 20001213 1510   10.5600 GAU  2.00e-02 -1.00e+00 -1.00e+00 -1.00e+00    1.0000 >    8.7122    0.3728    0.3688   45.9261   73.1552    0.0000   25.7051  41.11  41.1  97.1  9     0.0000    0.1742
ST14         ?    ?    ? P      ? 20001213 1510    7.1200 GAU  2.00e-02 -1.00e+00 -1.00e+00 -1.00e+00    1.0000 >    5.5898    0.0551    1.3756   58.1038   47.7138    0.0000   29.7082 101.80 101.8  95.5  9     0.0000    0.1118
ST14         ?    ?    ? S      ? 20001213 1510   11.3000 GAU  2.00e-02 -1.00e+00 -1.00e+00 -1.00e+00    1.0000 >    9.8442   -0.0193    1.1406   58.1038   47.7138    0.0000   29.7082 101.80 101.8  95.6  9     0.0000    0.1969
ST11         ?    ?    ? P      ? 20001213 1510    7.1500 GAU  2.00e-02 -1.00e+00 -1.00e+00 -1.00e+00    1.0000 >    5.7200   -0.0450    1.4001   13.0335   79.7825    0.0000   30.5178 328.40 328.4  95.3  9     0.0000    0.1144
ST11         ?    ?    ? S      ? 20001213 1510   11.5500 GAU  2.00e-02 -1.00e+00 -1.00e+00 -1.00e+00    1.0000 >   10.0734    0.0015    1.1253   13.0335   79.7825    0.0000   30.5178 328.40 328.4  95.4  9     0.0000    0.2015
ST15         ?    ?    ? P      ? 20001213 1510    7.0300 GAU  2.00e-02 -1.00e+00 -1.00e+00 -1.00e+00    1.0000 >    5.7572   -0.2023    0.9101   38.9482   24.6853    0.0000   30.7495 161.17 161.2  95.3  9     0.0000    0.1151
ST15         ?    ?    ? S      ? 20001213 1510   11.3800 GAU  2.00e-02 -1.00e+00 -1.00e+00 -1.00e+00    1.0000 >   10.1391   -0.2341    0.8403   38.9482   24.6853    0.0000   30.7495 161.17 161.2  95.3  9     0.0000    0.2028
ST19         ?    ?    ? P      ? 20001213 1510    7.4100 GAU  2.00e-02 -1.00e+00 -1.00e+00 -1.00e+00    1.0000 >    5.9792   -0.0442    1.3829   47.2048   27.2984    0.0000   32.1297 145.54 145.5  94.9  9     0.0000    0.1196
ST19         ?    ?    ? S      ? 20001213 1510   11.9300 GAU  2.00e-02 -1.00e+00 -1.00e+00 -1.00e+00    1.0000 >   10.5300   -0.0750    1.0785   47.2048   27.2984    0.0000   32.1297 145.54 145.5  95.0  9     0.0000    0.2106
ST13         ?    ?    ? P      ? 20001213 1510    7.6200 GAU  2.00e-02 -1.00e+00 -1.00e+00 -1.00e+00    1.0000 >    6.1986   -0.0537    1.3536   52.0625   29.4778    0.0000   33.4938 136.54 136.5  94.6  9     0.0000    0.1240
ST13         ?    ?    ? S      ? 20001213 1510   12.2700 GAU  2.00e-02 -1.00e+00 -1.00e+00 -1.00e+00    1.0000 >   10.9165   -0.1216    1.0149   52.0625   29.4778    0.0000   33.4938 136.54 136.5  94.6  9     0.0000    0.2183
ST6          ?    ?    ? P      ? 20001213 1510    8.0200 GAU  2.00e-02 -1.00e+00 -1.00e+00 -1.00e+00    1.0000 >    6.5278    0.0172    1.3596   64.5535   54.5857    0.0000   35.5390  88.72  88.7  94.2  9     0.0000    0.1306
ST6          ?    ?    ? S      ? 20001213 1510   12.7500 GAU  2.00e-02 -1.00e+00 -1.00e+00 -1.00e+00    1.0000 >   11.4963   -0.2213    0.8485   64.5535   54.5857    0.0000   35.5390  88.72  88.7  94.2  9     0.0000    0.2299
ST18         ?    ?    ? P      ? 20001213 1510    7.9200 GAU  2.00e-02 -1.00e+00 -1.00e+00 -1.00e+00    1.0000 >    6.5704   -0.1254    1.1669   45.8666   22.1945    0.0000   35.8037 151.94 151.9  94.2  9     0.0000    0.1314
ST18         ?    ?    ? S      ? 20001213 1510   12.8100 GAU  2.00e-02 -1.00e+00 -1.00e+00 -1.00e+00    1.0000 >   11.5713   -0.2364    0.8212   45.8666   22.1945    0.0000   35.8037 151.94 151.9  94.2  9     0.0000    0.2314
ST9          ?    ?    ? P      ? 20001213 1510    7.8700 GAU  2.00e-02 -1.00e+00 -1.00e+00 -1.00e+00    1.0000 >    6.6178   -0.2228    0.8576    9.8992   23.1731    0.0000   36.0982 211.99 212.0  94.1  9     0.0000    0.1324
ST9          ?    ?    ? S      ? 20001213 1510   12.7000 GAU  2.00e-02 -1.00e+00 -1.00e+00 -1.00e+00    1.0000 >   11.6548   -0.4298    0.4748    9.8992   23.1731    0.0000   36.0982 211.99 212.0  94.1  9     0.0000    0.2331
ST24         ?    ?    ? P      ? 20001213 1510    8.9800 GAU  2.00e-02 -1.00e+00 -1.00e+00 -1.00e+00    1.0000 >    7.4684    0.0365    1.2711   55.9556   22.3725    0.0000   41.3805 139.39 139.4  93.4  9     0.0000    0.1494
ST24         ?    ?    ? S      ? 20001213 1510   14.5400 GAU  2.00e-02 -1.00e+00 -1.00e+00 -1.00e+00    1.0000 >   13.1531   -0.0881    0.9523   55.9556   22.3725    0.0000   41.3805 139.39 139.4  93.4  9     0.0000    0.2631
ST26         ?    ?    ? P      ? 20001213 1510    8.9800 GAU  2.00e-02 -1.00e+00 -1.00e+00 -1.00e+00    1.0000 >    7.4925    0.0125    1.2896   52.5727   19.5815    0.0000   41.5298 145.46 145.5  93.4  9     0.0000    0.1498
ST26         ?    ?    ? S      ? 20001213 1510   14.5500 GAU  2.00e-02 -1.00e+00 -1.00e+00 -1.00e+00    1.0000 >   13.1954   -0.1205    0.9289   52.5727   19.5815    0.0000   41.5298 145.46 145.5  93.4  9     0.0000    0.2639
ST2          ?    ?    ? P      ? 20001213 1510    9.2100 GAU  2.00e-02 -1.00e+00 -1.00e+00 -1.00e+00    1.0000 >    7.8517   -0.1168    1.1452   36.5585   96.8954    0.0000   43.7599   9.92   9.9  93.2  9     0.0000    0.1570
ST2          ?    ?    ? S      ? 20001213 1510   14.9100 GAU  2.00e-02 -1.00e+00 -1.00e+00 -1.00e+00    1.0000 >   13.8282   -0.3933    0.5572   36.5585   96.8954    0.0000   43.7599   9.92   9.9  93.2  9     0.0000    0.2766
ST4          ?    ?    ? P      ? 20001213 1510    9.0600 GAU  2.00e-02 -1.00e+00 -1.00e+00 -1.00e+00    1.0000 >    8.0434   -0.4585    0.3537   28.7854    8.8400    0.0000   44.9497 180.30 180.3  93.1  9     0.0000    0.1609
ST4          ?    ?    ? S      ? 20001213 1510   14.8000 GAU  2.00e-02 -1.00e+00 -1.00e+00 -1.00e+00    1.0000 >   14.1658   -0.8409    0.1195   28.7854    8.8400    0.0000   44.9497 180.30 180.3  93.1  9     0.0000    0.2833
ST16         ?    ?    ? P      ? 20001213 1510    9.4700 GAU  2.00e-02 -1.00e+00 -1.00e+00 -1.00e+00    1.0000 >    8.2704   -0.2754    0.7351   39.8239    8.7066    0.0000   46.3582 166.53 166.5  92.9  9     0.0000    0.1654
ST16         ?    ?    ? S      ? 20001213 1510   15.5200 GAU  2.00e-02 -1.00e+00 -1.00e+00 -1.00e+00    1.0000 >   14.5656   -0.5206    0.3906   39.8239    8.7066    0.0000   46.3582 166.53 166.5  92.9  9     0.0000    0.2913
ST17         ?    ?    ? P      ? 20001213 1510   10.0900 GAU  2.00e-02 -1.00e+00 -1.00e+00 -1.00e+00    1.0000 >    8.5771    0.0378    1.1957   64.4820   21.0492    0.0000   48.2618 132.72 132.7  92.8  9     0.0000    0.1715
ST17         ?    ?    ? S      ? 20001213 1510   16.3700 GAU  2.00e-02 -1.00e+00 -1.00e+00 -1.00e+00    1.0000 >   15.1059   -0.2109    0.7889   64.4820   21.0492    0.0000   48.2618 132.72 132.7  92.8  9     0.0000    0.3021
ST0          ?    ?    ? P      ? 20001213 1510   10.1700 GAU  2.00e-02 -1.00e+00 -1.00e+00 -1.00e+00    1.0000 >    8.6996   -0.0046    1.2115   57.5022   13.8883    0.0000   49.0215 144.48 144.5  92.5  9     0.0000    0.1740
ST0          ?    ?    ? S      ? 20001213 1510   16.4800 GAU  2.00e-02 -1.00e+00 -1.00e+00 -1.00e+00    1.0000 >   15.3215   -0.3166    0.6627   57.5022   13.8883    0.0000   49.0215 144.48 144.5  92.4  9     0.0000    0.3064
END_PHASE
END_NLLOC

