NLLOC "./loc/alaska.20001213.151002_019.grid0" "LOCATED" "Location completed."
PUBLIC_ID None
SIGNATURE "NonLinLoc - Yifan Yu   obs:./obs/phase.obs   NLLoc:v7.00.16(17Apr2023)   run:24Aug2023 11h42m30"
COMMENT "2023-8-21 test"
GRID  201 201 41  0 0 0  0.5 0.5 0.5 PROB_DENSITY
SEARCH OCTREE nInitial 400 nEvaluated 20000 smallestNodeSide 0.078125/0.078125/0.039062 oct_tree_integral 4.188070e+00 scatter_volume 4.167146e+00
HYPOCENTER  x 28.3594 y 58.9844 z 16.0547  OT 0.596357  ix -1 iy -1 iz -1 MAXIMUM_LIKELIHOOD
GEOGRAPHIC  OT 2000 12 13  15 10 0.596357  Lat 35.930458 Long -117.685029 Depth 16.054688
QUALITY  Pmax 5.06011e+66 MFmin 37.1364 MFmax 40.1568 RMS 0.132209 Nphs 24 Gap 115.785 Dist 3.47206 Mamp -9.90 0 Mdur -9.90 0
VPVSRATIO  VpVsRatio 1.83233  Npair 4  Diff 2.35
STATISTICS  ExpectX 28.563752 Y 59.102712 Z 15.579614  CovXX 0.407427 XY 0.0613692 XZ -0.321663 YY 0.230458 YZ -0.195679 ZZ 1.39737 EllAz1  355.873 Dip1  8.16141 Len1  0.835803 Az2  268.351 Dip2  -16.7768 Len2  1.04976 Len3  2.320324e+00
STAT_GEOG  ExpectLat 35.931523 Long -117.682755 Depth 15.579614
TRANSFORM  SIMPLE LatOrig 35.400000  LongOrig -118.000000  RotCW 0.000000
QML_OriginQuality  assocPhCt 24  usedPhCt 24  assocStaCt -1  usedStaCt 20  depthPhCt -1  stdErr 0.132209  azGap 115.785  secAzGap 117.625  gtLevel -  minDist 3.47206 maxDist 52.3824 medDist 29.4619
QML_OriginUncertainty  horUnc -1  minHorUnc 0.697063  maxHorUnc 0.990575  azMaxHorUnc 72.6282
QML_ConfidenceEllipsoid  semiMajorAxisLength 2.32032  semiMinorAxisLength 0.835803  semiIntermediateAxisLength 1.04976  majorAxisPlunge -71.2363  majorAxisAzimuth 60.9025  majorAxisRotation 211.805
FOCALMECH  Hyp  35.930458 -117.685029 16.054688 Mech  0 0 0 mf  0 nObs -1
PHASE ID Ins Cmp On Pha  FM Date     HrMn   Sec     Err  ErrMag    Coda      Amp       Per       PriorWt  >   TTpred    Res       Weight    StaLoc(X  Y         Z)        SDist    SAzim  RAz  RDip RQual    Tcorr       TTerr
ST22         ?    ?    ? S      ? 20001213 1510    2.9000 GAU  2.00e-02 -1.00e+00 -1.00e+00 -1.00e+00    1.0000 >    4.6147   -2.3111    0.0018   26.8589   55.8533    0.0000    3.4721 205.60 205.6 165.3  9     0.0000    0.0923
ST12         ?    ?    ? S      ? 20001213 1510    3.3100 GAU  2.00e-02 -1.00e+00 -1.00e+00 -1.00e+00    1.0000 >    4.6274   -1.9138    0.0018   31.4703   60.9238    0.0000    3.6660  58.06  58.1 164.7  9     0.0000    0.0925
ST10         ?    ?    ? S      ? 20001213 1510    5.0500 GAU  2.00e-02 -1.00e+00 -1.00e+00 -1.00e+00    1.0000 >    5.7197   -1.2660    0.0000   21.1066   69.5192    0.0000   12.7900 325.45 325.5 138.2 10     0.0000    0.1144
ST1          ?    ?    ? P      ? 20001213 1510    4.1000 GAU  2.00e-02 -1.00e+00 -1.00e+00 -1.00e+00    1.0000 >    3.7599   -0.2563    0.7479   36.2928   46.2238    0.0000   15.0257 148.13 148.1 127.9 10     0.0000    0.0752
ST1          ?    ?    ? S      ? 20001213 1510    6.3300 GAU  2.00e-02 -1.00e+00 -1.00e+00 -1.00e+00    1.0000 >    6.1076   -0.3740    0.3913   36.2928   46.2238    0.0000   15.0257 148.13 148.1 131.8 10     0.0000    0.1222
ST8          ?    ?    ? P      ? 20001213 1510    4.4200 GAU  2.00e-02 -1.00e+00 -1.00e+00 -1.00e+00    1.0000 >    3.7956    0.0280    1.5799   21.2005   45.4232    0.0000   15.3348 207.83 207.8 127.1 10     0.0000    0.0759
ST21         ?    ?    ? P      ? 20001213 1510    4.9100 GAU  2.00e-02 -1.00e+00 -1.00e+00 -1.00e+00    1.0000 >    4.2976    0.0160    1.5786   36.1150   41.1978    0.0000   19.4039 156.44 156.4 116.9  9     0.0000    0.0860
ST21         ?    ?    ? S      ? 20001213 1510    7.5300 GAU  2.00e-02 -1.00e+00 -1.00e+00 -1.00e+00    1.0000 >    6.9624   -0.0287    1.4405   36.1150   41.1978    0.0000   19.4039 156.44 156.4 123.5 10     0.0000    0.1392
ST5          ?    ?    ? S      ? 20001213 1510    8.4400 GAU  2.00e-02 -1.00e+00 -1.00e+00 -1.00e+00    1.0000 >    7.6295    0.2142    0.9087   45.9261   73.1552    0.0000   22.5700  51.11  51.1 118.9 10     0.0000    0.1526
ST11         ?    ?    ? S      ? 20001213 1510    8.8800 GAU  2.00e-02 -1.00e+00 -1.00e+00 -1.00e+00    1.0000 >    8.3455   -0.0619    1.3333   13.0335   79.7825    0.0000   25.8349 323.61 323.6 115.3 10     0.0000    0.1669
ST25         ?    ?    ? P      ? 20001213 1510    5.7700 GAU  2.00e-02 -1.00e+00 -1.00e+00 -1.00e+00    1.0000 >    5.3261   -0.1525    1.2356   35.8320   33.0917    0.0000   26.9495 163.90 163.9 104.6  9     0.0000    0.1065
ST25         ?    ?    ? S      ? 20001213 1510    9.3100 GAU  2.00e-02 -1.00e+00 -1.00e+00 -1.00e+00    1.0000 >    8.5948    0.1189    1.1753   35.8320   33.0917    0.0000   26.9495 163.90 163.9 114.2 10     0.0000    0.1719
ST7          ?    ?    ? P      ? 20001213 1510    5.9300 GAU  2.00e-02 -1.00e+00 -1.00e+00 -1.00e+00    1.0000 >    5.3495   -0.0159    1.5400   22.5319   32.5023    0.0000   27.1156 192.41 192.4 104.4  9     0.0000    0.1070
ST14         ?    ?    ? P      ? 20001213 1510    6.5000 GAU  2.00e-02 -1.00e+00 -1.00e+00 -1.00e+00    1.0000 >    6.0157   -0.1120    1.3558   58.1038   47.7138    0.0000   31.8081 110.75 110.8 100.5  9     0.0000    0.1203
ST15         ?    ?    ? S      ? 20001213 1510   11.2900 GAU  2.00e-02 -1.00e+00 -1.00e+00 -1.00e+00    1.0000 >   10.6535    0.0402    1.2012   38.9482   24.6853    0.0000   35.8964 162.84 162.8 107.9 10     0.0000    0.2131
ST6          ?    ?    ? P      ? 20001213 1510    7.3200 GAU  2.00e-02 -1.00e+00 -1.00e+00 -1.00e+00    1.0000 >    6.6822    0.0415    1.4167   64.5535   54.5857    0.0000   36.4604  96.93  96.9  98.3  9     0.0000    0.1336
ST19         ?    ?    ? P      ? 20001213 1510    7.2300 GAU  2.00e-02 -1.00e+00 -1.00e+00 -1.00e+00    1.0000 >    6.7405   -0.1069    1.3418   47.2048   27.2984    0.0000   36.8667 149.26 149.3  98.1  9     0.0000    0.1348
ST19         ?    ?    ? S      ? 20001213 1510   11.8100 GAU  2.00e-02 -1.00e+00 -1.00e+00 -1.00e+00    1.0000 >   10.8810    0.3326    0.6310   47.2048   27.2984    0.0000   36.8667 149.26 149.3 107.4  9     0.0000    0.2176
ST13         ?    ?    ? P      ? 20001213 1510    7.3800 GAU  2.00e-02 -1.00e+00 -1.00e+00 -1.00e+00    1.0000 >    6.8816   -0.0979    1.3558   52.0625   29.4778    0.0000   37.8480 141.22 141.2  97.8  9     0.0000    0.1376
ST2          ?    ?    ? P      ? 20001213 1510    7.6100 GAU  2.00e-02 -1.00e+00 -1.00e+00 -1.00e+00    1.0000 >    7.0167   -0.0031    1.4381   36.5585   96.8954    0.0000   38.7875  12.20  12.2  97.4  9     0.0000    0.1403
ST9          ?    ?    ? S      ? 20001213 1510   12.5100 GAU  2.00e-02 -1.00e+00 -1.00e+00 -1.00e+00    1.0000 >   11.6882    0.2254    0.8742    9.8992   23.1731    0.0000   40.2893 207.27 207.3 105.9  9     0.0000    0.2338
ST24         ?    ?    ? S      ? 20001213 1510   14.3600 GAU  2.00e-02 -1.00e+00 -1.00e+00 -1.00e+00    1.0000 >   13.0105    0.7531    0.1065   55.9556   22.3725    0.0000   45.8474 142.99 143.0 103.8  9     0.0000    0.2602
ST16         ?    ?    ? P      ? 20001213 1510    9.5200 GAU  2.00e-02 -1.00e+00 -1.00e+00 -1.00e+00    1.0000 >    8.8603    0.0633    1.2691   39.8239    8.7066    0.0000   51.5683 167.15 167.2  94.9  9     0.0000    0.1772
ST17         ?    ?    ? P      ? 20001213 1510    9.7300 GAU  2.00e-02 -1.00e+00 -1.00e+00 -1.00e+00    1.0000 >    8.9780    0.1557    1.0753   64.4820   21.0492    0.0000   52.3824 136.40 136.4  94.7  9     0.0000    0.1796
END_PHASE
END_NLLOC

