NLLOC "./loc/alaska.20001213.151001_007.grid0" "LOCATED" "Location completed."
PUBLIC_ID None
SIGNATURE "NonLinLoc - Yifan Yu   obs:./obs/phase.obs   NLLoc:v7.00.16(17Apr2023)   run:21Aug2023 13h20m25"
COMMENT "2023-8-21 test"
GRID  201 201 41  0 0 0  0.5 0.5 0.5 PROB_DENSITY
SEARCH OCTREE nInitial 400 nEvaluated 20008 smallestNodeSide 0.039062/0.039062/0.019531 oct_tree_integral 2.515839e-01 scatter_volume 2.484637e-01
HYPOCENTER  x 60.1758 y 21.5039 z 8.03711  OT 1.20283  ix -1 iy -1 iz -1 MAXIMUM_LIKELIHOOD
GEOGRAPHIC  OT 2000 12 13  15 10 1.202833  Lat 35.593389 Long -117.334488 Depth 8.037109
QUALITY  Pmax 4.72428e+188 MFmin 80.1885 MFmax 88.6399 RMS 0.198128 Nphs 54 Gap 103.317 Dist 4.30859 Mamp -9.90 0 Mdur -9.90 0
VPVSRATIO  VpVsRatio 1.69143  Npair 27  Diff 8.34
STATISTICS  ExpectX 60.164970 Y 21.570381 Z 8.048926  CovXX 0.0534306 XY 0.00233145 XZ 0.0223895 YY 0.0840685 YZ -0.00738703 ZZ 0.0952329 EllAz1  277.84 Dip1  23.964 Len1  0.389893 Az2  192.679 Dip2  -10.748 Len2  0.541793 Len3  6.131784e-01
STAT_GEOG  ExpectLat 35.593987 Long -117.334603 Depth 8.048926
TRANSFORM  SIMPLE LatOrig 35.400000  LongOrig -118.000000  RotCW 0.000000
QML_OriginQuality  assocPhCt 54  usedPhCt 54  assocStaCt -1  usedStaCt 27  depthPhCt -1  stdErr 0.198128  azGap 103.317  secAzGap 103.317  gtLevel -  minDist 4.30859 maxDist 79.0041 medDist 33.3702
QML_OriginUncertainty  horUnc -1  minHorUnc 0.349978  maxHorUnc 0.440185  azMaxHorUnc 4.32683
QML_ConfidenceEllipsoid  semiMajorAxisLength 0.613178  semiMinorAxisLength 0.389893  semiIntermediateAxisLength 0.541793  majorAxisPlunge -63.4531  majorAxisAzimuth 305.009  majorAxisRotation 254.585
FOCALMECH  Hyp  35.593389 -117.334488 8.037109 Mech  0 0 0 mf  0 nObs -1
PHASE ID Ins Cmp On Pha  FM Date     HrMn   Sec     Err  ErrMag    Coda      Amp       Per       PriorWt  >   TTpred    Res       Weight    StaLoc(X  Y         Z)        SDist    SAzim  RAz  RDip RQual    Tcorr       TTerr
ST24         ?    ?    ? P      ? 20001213 1510    1.9000 GAU  2.00e-02 -1.00e+00 -1.00e+00 -1.00e+00    1.0000 >    1.6813   -0.9841    0.1467   55.9556   22.3725    0.0000    4.3086 281.63 281.6 151.6  9     0.0000    0.0500
ST24         ?    ?    ? S      ? 20001213 1510    2.5300 GAU  2.00e-02 -1.00e+00 -1.00e+00 -1.00e+00    1.0000 >    2.9606   -1.6335    0.0689   55.9556   22.3725    0.0000    4.3086 281.63 281.6 151.6  9     0.0000    0.0592
ST17         ?    ?    ? P      ? 20001213 1510    2.8700 GAU  2.00e-02 -1.00e+00 -1.00e+00 -1.00e+00    1.0000 >    1.6831   -0.0160    1.8195   64.4820   21.0492    0.0000    4.3301  96.03  96.0 151.5  9     0.0000    0.0500
ST17         ?    ?    ? S      ? 20001213 1510    4.1800 GAU  2.00e-02 -1.00e+00 -1.00e+00 -1.00e+00    1.0000 >    2.9638    0.0133    1.7928   64.4820   21.0492    0.0000    4.3301  96.03  96.0 151.5  9     0.0000    0.0593
ST26         ?    ?    ? P      ? 20001213 1510    2.7900 GAU  2.00e-02 -1.00e+00 -1.00e+00 -1.00e+00    1.0000 >    2.0618   -0.4747    0.3999   52.5727   19.5815    0.0000    7.8424 255.81 255.8 134.0  9     0.0000    0.0500
ST26         ?    ?    ? S      ? 20001213 1510    4.0200 GAU  2.00e-02 -1.00e+00 -1.00e+00 -1.00e+00    1.0000 >    3.6307   -0.8135    0.1755   52.5727   19.5815    0.0000    7.8424 255.81 255.8 134.0  9     0.0000    0.0726
ST0          ?    ?    ? P      ? 20001213 1510    3.2500 GAU  2.00e-02 -1.00e+00 -1.00e+00 -1.00e+00    1.0000 >    2.0914   -0.0443    1.7199   57.5022   13.8883    0.0000    8.0713 199.34 199.3 132.9  9     0.0000    0.0500
ST0          ?    ?    ? S      ? 20001213 1510    4.7400 GAU  2.00e-02 -1.00e+00 -1.00e+00 -1.00e+00    1.0000 >    3.6828   -0.1456    1.1507   57.5022   13.8883    0.0000    8.0713 199.34 199.3 132.9  9     0.0000    0.0737
ST13         ?    ?    ? P      ? 20001213 1510    3.7600 GAU  2.00e-02 -1.00e+00 -1.00e+00 -1.00e+00    1.0000 >    2.5620   -0.0049    1.8307   52.0625   29.4778    0.0000   11.3758 314.50 314.5 122.4  9     0.0000    0.0512
ST13         ?    ?    ? S      ? 20001213 1510    5.7200 GAU  2.00e-02 -1.00e+00 -1.00e+00 -1.00e+00    1.0000 >    4.5115    0.0057    1.6497   52.0625   29.4778    0.0000   11.3758 314.50 314.5 122.4  9     0.0000    0.0902
ST19         ?    ?    ? P      ? 20001213 1510    4.2300 GAU  2.00e-02 -1.00e+00 -1.00e+00 -1.00e+00    1.0000 >    3.0044    0.0228    1.7744   47.2048   27.2984    0.0000   14.2064 294.07 294.1 116.4  9     0.0000    0.0601
ST19         ?    ?    ? S      ? 20001213 1510    6.4500 GAU  2.00e-02 -1.00e+00 -1.00e+00 -1.00e+00    1.0000 >    5.2905   -0.0433    1.5348   47.2048   27.2984    0.0000   14.2064 294.07 294.1 116.4  9     0.0000    0.1058
ST18         ?    ?    ? P      ? 20001213 1510    4.2700 GAU  2.00e-02 -1.00e+00 -1.00e+00 -1.00e+00    1.0000 >    3.0236    0.0436    1.7114   45.8666   22.1945    0.0000   14.3258 272.76 272.8 116.1  9     0.0000    0.0605
ST18         ?    ?    ? S      ? 20001213 1510    6.4800 GAU  2.00e-02 -1.00e+00 -1.00e+00 -1.00e+00    1.0000 >    5.3243   -0.0471    1.5248   45.8666   22.1945    0.0000   14.3258 272.76 272.8 116.1  9     0.0000    0.1065
ST15         ?    ?    ? P      ? 20001213 1510    5.4700 GAU  2.00e-02 -1.00e+00 -1.00e+00 -1.00e+00    1.0000 >    4.2154    0.0518    1.5940   38.9482   24.6853    0.0000   21.4647 278.52 278.5 106.6  9     0.0000    0.0843
ST15         ?    ?    ? S      ? 20001213 1510    8.5400 GAU  2.00e-02 -1.00e+00 -1.00e+00 -1.00e+00    1.0000 >    7.4230   -0.0858    1.3154   38.9482   24.6853    0.0000   21.4647 278.52 278.5 106.6  9     0.0000    0.1485
ST16         ?    ?    ? P      ? 20001213 1510    6.0800 GAU  2.00e-02 -1.00e+00 -1.00e+00 -1.00e+00    1.0000 >    4.6587    0.2184    0.7419   39.8239    8.7066    0.0000   24.0410 237.84 237.8 104.0  9     0.0000    0.0932
ST16         ?    ?    ? S      ? 20001213 1510    9.5000 GAU  2.00e-02 -1.00e+00 -1.00e+00 -1.00e+00    1.0000 >    8.2037    0.0935    1.2080   39.8239    8.7066    0.0000   24.0410 237.84 237.8 104.0  9     0.0000    0.1641
ST23         ?    ?    ? P      ? 20001213 1510    6.3000 GAU  2.00e-02 -1.00e+00 -1.00e+00 -1.00e+00    1.0000 >    4.9757    0.1214    1.2544   38.6464   35.8493    0.0000   25.8709 303.68 303.7 101.5  9     0.0000    0.0995
ST23         ?    ?    ? S      ? 20001213 1510    9.9100 GAU  2.00e-02 -1.00e+00 -1.00e+00 -1.00e+00    1.0000 >    8.7619   -0.0548    1.2794   38.6464   35.8493    0.0000   25.8709 303.68 303.7 101.6  9     0.0000    0.1752
ST14         ?    ?    ? P      ? 20001213 1510    6.3600 GAU  2.00e-02 -1.00e+00 -1.00e+00 -1.00e+00    1.0000 >    5.0487    0.1085    1.3145   58.1038   47.7138    0.0000   26.2917 355.48 355.5 100.3  8     0.0000    0.1010
ST14         ?    ?    ? S      ? 20001213 1510   10.0800 GAU  2.00e-02 -1.00e+00 -1.00e+00 -1.00e+00    1.0000 >    8.8904   -0.0132    1.2870   58.1038   47.7138    0.0000   26.2917 355.48 355.5 100.3  8     0.0000    0.1778
ST25         ?    ?    ? P      ? 20001213 1510    6.4300 GAU  2.00e-02 -1.00e+00 -1.00e+00 -1.00e+00    1.0000 >    5.1647    0.0624    1.4881   35.8320   33.0917    0.0000   26.9610 295.45 295.5  97.8  8     0.0000    0.1033
ST25         ?    ?    ? S      ? 20001213 1510   10.1600 GAU  2.00e-02 -1.00e+00 -1.00e+00 -1.00e+00    1.0000 >    9.0948   -0.1376    1.1484   35.8320   33.0917    0.0000   26.9610 295.45 295.5  97.9  8     0.0000    0.1819
ST21         ?    ?    ? P      ? 20001213 1510    7.1700 GAU  2.00e-02 -1.00e+00 -1.00e+00 -1.00e+00    1.0000 >    5.8739    0.0933    1.3391   36.1150   41.1978    0.0000   31.0929 309.30 309.3  78.8  8     0.0000    0.1175
ST21         ?    ?    ? S      ? 20001213 1510   11.3600 GAU  2.00e-02 -1.00e+00 -1.00e+00 -1.00e+00    1.0000 >   10.3441   -0.1870    1.0266   36.1150   41.1978    0.0000   31.0929 309.30 309.3  78.9  8     0.0000    0.2069
ST6          ?    ?    ? P      ? 20001213 1510    7.4200 GAU  2.00e-02 -1.00e+00 -1.00e+00 -1.00e+00    1.0000 >    6.2437   -0.0265    1.4811   64.5535   54.5857    0.0000   33.3702   7.54   7.5  68.5  9     0.0000    0.1249
ST6          ?    ?    ? S      ? 20001213 1510   11.9200 GAU  2.00e-02 -1.00e+00 -1.00e+00 -1.00e+00    1.0000 >   10.9957   -0.2785    0.8514   64.5535   54.5857    0.0000   33.3702   7.54   7.5  68.6  9     0.0000    0.2199
ST4          ?    ?    ? P      ? 20001213 1510    7.5000 GAU  2.00e-02 -1.00e+00 -1.00e+00 -1.00e+00    1.0000 >    6.3209   -0.0237    1.4769   28.7854    8.8400    0.0000   33.8486 248.03 248.0  67.1  9     0.0000    0.1264
ST4          ?    ?    ? S      ? 20001213 1510   11.9400 GAU  2.00e-02 -1.00e+00 -1.00e+00 -1.00e+00    1.0000 >   11.1317   -0.3946    0.6461   28.7854    8.8400    0.0000   33.8486 248.03 248.0  67.2  9     0.0000    0.2226
ST1          ?    ?    ? P      ? 20001213 1510    7.7200 GAU  2.00e-02 -1.00e+00 -1.00e+00 -1.00e+00    1.0000 >    6.4054    0.1117    1.2465   36.2928   46.2238    0.0000   34.3725 315.99 316.0  66.0  9     0.0000    0.1281
ST1          ?    ?    ? S      ? 20001213 1510   12.2500 GAU  2.00e-02 -1.00e+00 -1.00e+00 -1.00e+00    1.0000 >   11.2806   -0.2335    0.9310   36.2928   46.2238    0.0000   34.3725 315.99 316.0  66.1  9     0.0000    0.2256
ST7          ?    ?    ? P      ? 20001213 1510    8.5200 GAU  2.00e-02 -1.00e+00 -1.00e+00 -1.00e+00    1.0000 >    7.1870    0.1302    1.1499   22.5319   32.5023    0.0000   39.2176 286.29 286.3  64.6 10     0.0000    0.1437
ST7          ?    ?    ? S      ? 20001213 1510   13.8600 GAU  2.00e-02 -1.00e+00 -1.00e+00 -1.00e+00    1.0000 >   12.6572    0.0000    1.0682   22.5319   32.5023    0.0000   39.2176 286.29 286.3  64.6 10     0.0000    0.2531
ST8          ?    ?    ? P      ? 20001213 1510    9.7700 GAU  2.00e-02 -1.00e+00 -1.00e+00 -1.00e+00    1.0000 >    8.2373    0.3299    0.4621   21.2005   45.4232    0.0000   45.7297 301.54 301.5  64.6 10     0.0000    0.1647
ST8          ?    ?    ? S      ? 20001213 1510   15.9000 GAU  2.00e-02 -1.00e+00 -1.00e+00 -1.00e+00    1.0000 >   14.5072    0.1900    0.8027   21.2005   45.4232    0.0000   45.7297 301.54 301.5  64.6 10     0.0000    0.2901
ST20         ?    ?    ? P      ? 20001213 1510    9.6400 GAU  2.00e-02 -1.00e+00 -1.00e+00 -1.00e+00    1.0000 >    8.3970    0.0402    1.2899   26.5943   53.9852    0.0000   46.7199 314.05 314.0  64.6 10     0.0000    0.1679
ST20         ?    ?    ? S      ? 20001213 1510   15.6200 GAU  2.00e-02 -1.00e+00 -1.00e+00 -1.00e+00    1.0000 >   14.7885   -0.3713    0.7100   26.5943   53.9852    0.0000   46.7199 314.05 314.0  64.6 10     0.0000    0.2958
ST22         ?    ?    ? P      ? 20001213 1510    9.7900 GAU  2.00e-02 -1.00e+00 -1.00e+00 -1.00e+00    1.0000 >    8.5797    0.0074    1.3036   26.8589   55.8533    0.0000   47.8529 315.87 315.9  64.6 10     0.0000    0.1716
ST22         ?    ?    ? S      ? 20001213 1510   15.8300 GAU  2.00e-02 -1.00e+00 -1.00e+00 -1.00e+00    1.0000 >   15.1103   -0.4832    0.5732   26.8589   55.8533    0.0000   47.8529 315.87 315.9  64.6 10     0.0000    0.3022
ST12         ?    ?    ? P      ? 20001213 1510    9.7400 GAU  2.00e-02 -1.00e+00 -1.00e+00 -1.00e+00    1.0000 >    8.7267   -0.1895    1.0451   31.4703   60.9238    0.0000   48.7640 323.94 323.9  64.6 10     0.0000    0.1745
ST12         ?    ?    ? S      ? 20001213 1510   15.6200 GAU  2.00e-02 -1.00e+00 -1.00e+00 -1.00e+00    1.0000 >   15.3692   -0.9520    0.2249   31.4703   60.9238    0.0000   48.7640 323.94 323.9  64.6 10     0.0000    0.3074
ST9          ?    ?    ? P      ? 20001213 1510   10.1800 GAU  2.00e-02 -1.00e+00 -1.00e+00 -1.00e+00    1.0000 >    8.9751    0.0020    1.2784    9.8992   23.1731    0.0000   50.3043 271.90 271.9  64.6 10     0.0000    0.1795
ST9          ?    ?    ? S      ? 20001213 1510   16.6300 GAU  2.00e-02 -1.00e+00 -1.00e+00 -1.00e+00    1.0000 >   15.8068   -0.3796    0.6992    9.8992   23.1731    0.0000   50.3043 271.90 271.9  64.6 10     0.0000    0.3161
ST5          ?    ?    ? P      ? 20001213 1510   10.4600 GAU  2.00e-02 -1.00e+00 -1.00e+00 -1.00e+00    1.0000 >    9.5036   -0.2465    0.9132   45.9261   73.1552    0.0000   53.5809 344.58 344.6  64.6 10     0.0000    0.1901
ST5          ?    ?    ? S      ? 20001213 1510   16.7600 GAU  2.00e-02 -1.00e+00 -1.00e+00 -1.00e+00    1.0000 >   16.7376   -1.1805    0.1621   45.9261   73.1552    0.0000   53.5809 344.58 344.6  64.6 10     0.0000    0.3348
ST3          ?    ?    ? P      ? 20001213 1510   11.4700 GAU  2.00e-02 -1.00e+00 -1.00e+00 -1.00e+00    1.0000 >   10.6632   -0.3960    0.6356   17.1949   64.7711    0.0000   60.9869 315.19 315.2  54.9 10     0.0000    0.2133
ST3          ?    ?    ? S      ? 20001213 1510   18.6800 GAU  2.00e-02 -1.00e+00 -1.00e+00 -1.00e+00    1.0000 >   18.7759   -1.2987    0.1437   17.1949   64.7711    0.0000   60.9869 315.19 315.2  54.8 10     0.0000    0.3755
ST10         ?    ?    ? P      ? 20001213 1510   11.5900 GAU  2.00e-02 -1.00e+00 -1.00e+00 -1.00e+00    1.0000 >   10.7963   -0.4092    0.6165   21.1066   69.5192    0.0000   61.9021 320.87 320.9  54.5 10     0.0000    0.2159
ST10         ?    ?    ? S      ? 20001213 1510   18.9200 GAU  2.00e-02 -1.00e+00 -1.00e+00 -1.00e+00    1.0000 >   19.0101   -1.2929    0.1458   21.1066   69.5192    0.0000   61.9021 320.87 320.9  54.4 10     0.0000    0.3802
ST11         ?    ?    ? P      ? 20001213 1510   13.5400 GAU  2.00e-02 -1.00e+00 -1.00e+00 -1.00e+00    1.0000 >   12.6888   -0.3516    0.7325   13.0335   79.7825    0.0000   74.9585 321.03 321.0  54.3 10     0.0000    0.2538
ST11         ?    ?    ? S      ? 20001213 1510   22.5100 GAU  2.00e-02 -1.00e+00 -1.00e+00 -1.00e+00    1.0000 >   22.3411   -1.0340    0.2462   13.0335   79.7825    0.0000   74.9585 321.03 321.0  54.2 10     0.0000    0.4468
ST2          ?    ?    ? P      ? 20001213 1510   14.1500 GAU  2.00e-02 -1.00e+00 -1.00e+00 -1.00e+00    1.0000 >   13.2751   -0.3279    0.7698   36.5585   96.8954    0.0000   79.0041 342.61 342.6  54.2 10     0.0000    0.2655
ST2          ?    ?    ? S      ? 20001213 1510   22.9700 GAU  2.00e-02 -1.00e+00 -1.00e+00 -1.00e+00    1.0000 >   23.3731   -1.6060    0.0981   36.5585   96.8954    0.0000   79.0041 342.61 342.6  54.2 10     0.0000    0.4675
END_PHASE
END_NLLOC

