NLLOC "./loc/alaska.20001213.151003.grid0" "LOCATED" "Location completed."
PUBLIC_ID None
SIGNATURE "NonLinLoc - Yifan Yu   obs:./obs/phase.obs   NLLoc:v7.00.16(17Apr2023)   run:24Aug2023 11h42m32"
COMMENT "2023-8-21 test"
GRID  201 201 41  0 0 0  0.5 0.5 0.5 PROB_DENSITY
SEARCH OCTREE nInitial 400 nEvaluated 20008 smallestNodeSide 0.078125/0.078125/0.039062 oct_tree_integral 1.121653e+00 scatter_volume 1.118866e+00
HYPOCENTER  x 43.9844 y 30.5469 z 10.9766  OT 0.711903  ix -1 iy -1 iz -1 MAXIMUM_LIKELIHOOD
GEOGRAPHIC  OT 2000 12 13  15 10 0.711903  Lat 35.674714 Long -117.513061 Depth 10.976562
QUALITY  Pmax 5.49084e+83 MFmin 48.0603 MFmax 49.379 RMS 0.141264 Nphs 28 Gap 66.667 Dist 7.52391 Mamp -9.90 0 Mdur -9.90 0
VPVSRATIO  VpVsRatio 1.66862  Npair 8  Diff 2.31
STATISTICS  ExpectX 44.112540 Y 30.361046 Z 11.293930  CovXX 0.208786 XY 0.0282866 XZ 0.0889547 YY 0.17474 YZ -0.159483 ZZ 0.793998 EllAz1  150.659 Dip1  -14.948 Len1  0.623127 Az2  240.674 Dip2  -0.0559017 Len2  0.890763 Len3  1.724794e+00
STAT_GEOG  ExpectLat 35.673043 Long -117.511652 Depth 11.293930
TRANSFORM  SIMPLE LatOrig 35.400000  LongOrig -118.000000  RotCW 0.000000
QML_OriginQuality  assocPhCt 28  usedPhCt 28  assocStaCt -1  usedStaCt 20  depthPhCt -1  stdErr 0.141264  azGap 66.667  secAzGap 94.9294  gtLevel -  minDist 7.52391 maxDist 66.7628 medDist 23.9761
QML_OriginUncertainty  horUnc -1  minHorUnc 0.604254  maxHorUnc 0.719018  azMaxHorUnc 60.5196
QML_ConfidenceEllipsoid  semiMajorAxisLength 1.72479  semiMinorAxisLength 0.623127  semiIntermediateAxisLength 0.890763  majorAxisPlunge 75.0519  majorAxisAzimuth 150.884  majorAxisRotation 90.1879
FOCALMECH  Hyp  35.674714 -117.513061 10.976562 Mech  0 0 0 mf  0 nObs -1
PHASE ID Ins Cmp On Pha  FM Date     HrMn   Sec     Err  ErrMag    Coda      Amp       Per       PriorWt  >   TTpred    Res       Weight    StaLoc(X  Y         Z)        SDist    SAzim  RAz  RDip RQual    Tcorr       TTerr
ST23         ?    ?    ? S      ? 20001213 1510    4.6800 GAU  2.00e-02 -1.00e+00 -1.00e+00 -1.00e+00    1.0000 >    3.9275    0.0406    1.5445   38.6464   35.8493    0.0000    7.5239 314.81 314.8 140.7 10     0.0000    0.0785
ST15         ?    ?    ? P      ? 20001213 1510    3.1300 GAU  2.00e-02 -1.00e+00 -1.00e+00 -1.00e+00    1.0000 >    2.4095    0.0086    1.7075   38.9482   24.6853    0.0000    7.7280 220.67 220.7 141.5 10     0.0000    0.0500
ST13         ?    ?    ? P      ? 20001213 1510    3.1600 GAU  2.00e-02 -1.00e+00 -1.00e+00 -1.00e+00    1.0000 >    2.4525   -0.0044    1.7014   52.0625   29.4778    0.0000    8.1485  97.54  97.5 139.9 10     0.0000    0.0500
ST13         ?    ?    ? S      ? 20001213 1510    4.7300 GAU  2.00e-02 -1.00e+00 -1.00e+00 -1.00e+00    1.0000 >    4.0276   -0.0095    1.5569   52.0625   29.4778    0.0000    8.1485  97.54  97.5 138.2  9     0.0000    0.0806
ST25         ?    ?    ? P      ? 20001213 1510    3.1500 GAU  2.00e-02 -1.00e+00 -1.00e+00 -1.00e+00    1.0000 >    2.4937   -0.0557    1.4742   35.8320   33.0917    0.0000    8.5403 287.34 287.3 138.4 10     0.0000    0.0500
ST18         ?    ?    ? P      ? 20001213 1510    3.3200 GAU  2.00e-02 -1.00e+00 -1.00e+00 -1.00e+00    1.0000 >    2.4961    0.1120    1.1893   45.8666   22.1945    0.0000    8.5618 167.30 167.3 138.3 10     0.0000    0.0500
ST18         ?    ?    ? S      ? 20001213 1510    4.7400 GAU  2.00e-02 -1.00e+00 -1.00e+00 -1.00e+00    1.0000 >    4.0962   -0.0681    1.3431   45.8666   22.1945    0.0000    8.5618 167.30 167.3 136.5  9     0.0000    0.0819
ST21         ?    ?    ? P      ? 20001213 1510    4.0900 GAU  2.00e-02 -1.00e+00 -1.00e+00 -1.00e+00    1.0000 >    3.0791    0.2990    0.5979   36.1150   41.1978    0.0000   13.2427 323.54 323.5 121.4  9     0.0000    0.0616
ST26         ?    ?    ? S      ? 20001213 1510    6.0900 GAU  2.00e-02 -1.00e+00 -1.00e+00 -1.00e+00    1.0000 >    5.1605    0.2176    0.8689   52.5727   19.5815    0.0000   13.9284 141.93 141.9 118.1  9     0.0000    0.1032
ST24         ?    ?    ? P      ? 20001213 1510    4.0300 GAU  2.00e-02 -1.00e+00 -1.00e+00 -1.00e+00    1.0000 >    3.2550    0.0631    1.5062   55.9556   22.3725    0.0000   14.4959 124.33 124.3 118.1  9     0.0000    0.0651
ST1          ?    ?    ? P      ? 20001213 1510    4.3800 GAU  2.00e-02 -1.00e+00 -1.00e+00 -1.00e+00    1.0000 >    3.6908   -0.0227    1.5607   36.2928   46.2238    0.0000   17.4621 333.87 333.9 111.7  9     0.0000    0.0738
ST1          ?    ?    ? S      ? 20001213 1510    7.0100 GAU  2.00e-02 -1.00e+00 -1.00e+00 -1.00e+00    1.0000 >    5.9537    0.3444    0.6264   36.2928   46.2238    0.0000   17.4621 333.87 333.9 111.4  9     0.0000    0.1191
ST0          ?    ?    ? P      ? 20001213 1510    5.0200 GAU  2.00e-02 -1.00e+00 -1.00e+00 -1.00e+00    1.0000 >    4.3041    0.0040    1.5429   57.5022   13.8883    0.0000   21.4532 140.94 140.9 105.3  9     0.0000    0.0861
ST0          ?    ?    ? S      ? 20001213 1510    8.0500 GAU  2.00e-02 -1.00e+00 -1.00e+00 -1.00e+00    1.0000 >    6.8850    0.4531    0.4685   57.5022   13.8883    0.0000   21.4532 140.94 140.9 106.6  9     0.0000    0.1377
ST4          ?    ?    ? P      ? 20001213 1510    5.5600 GAU  2.00e-02 -1.00e+00 -1.00e+00 -1.00e+00    1.0000 >    5.0999   -0.2518    0.4553   28.7854    8.8400    0.0000   26.4990 215.00 215.0 100.7  9     0.0000    0.1020
ST4          ?    ?    ? S      ? 20001213 1510    8.8200 GAU  2.00e-02 -1.00e+00 -1.00e+00 -1.00e+00    1.0000 >    8.0877    0.0204    1.2339   28.7854    8.8400    0.0000   26.4990 215.00 215.0 102.9  9     0.0000    0.1618
ST8          ?    ?    ? P      ? 20001213 1510    6.4000 GAU  2.00e-02 -1.00e+00 -1.00e+00 -1.00e+00    1.0000 >    5.2130    0.4751    0.4135   21.2005   45.4232    0.0000   27.2104 303.14 303.1 100.3  9     0.0000    0.1043
ST8          ?    ?    ? S      ? 20001213 1510   10.0000 GAU  2.00e-02 -1.00e+00 -1.00e+00 -1.00e+00    1.0000 >    8.2586    1.0295    0.0202   21.2005   45.4232    0.0000   27.2104 303.14 303.1 102.5  9     0.0000    0.1652
ST20         ?    ?    ? P      ? 20001213 1510    6.2600 GAU  2.00e-02 -1.00e+00 -1.00e+00 -1.00e+00    1.0000 >    5.5276    0.0205    1.4286   26.5943   53.9852    0.0000   29.1851 323.43 323.4  99.2  9     0.0000    0.1106
ST20         ?    ?    ? S      ? 20001213 1510    9.9900 GAU  2.00e-02 -1.00e+00 -1.00e+00 -1.00e+00    1.0000 >    8.7342    0.5439    0.3575   26.5943   53.9852    0.0000   29.1851 323.43 323.4 101.5  9     0.0000    0.1747
ST22         ?    ?    ? P      ? 20001213 1510    6.4900 GAU  2.00e-02 -1.00e+00 -1.00e+00 -1.00e+00    1.0000 >    5.7465    0.0316    1.4050   26.8589   55.8533    0.0000   30.5565 325.91 325.9  98.6  9     0.0000    0.1149
ST22         ?    ?    ? S      ? 20001213 1510   10.1000 GAU  2.00e-02 -1.00e+00 -1.00e+00 -1.00e+00    1.0000 >    9.0654    0.3227    0.7355   26.8589   55.8533    0.0000   30.5565 325.91 325.9 100.9  9     0.0000    0.1813
ST6          ?    ?    ? P      ? 20001213 1510    6.4400 GAU  2.00e-02 -1.00e+00 -1.00e+00 -1.00e+00    1.0000 >    5.9193   -0.1912    0.7330   64.5535   54.5857    0.0000   31.6378  40.55  40.6  98.1  9     0.0000    0.1184
ST12         ?    ?    ? S      ? 20001213 1510   10.5000 GAU  2.00e-02 -1.00e+00 -1.00e+00 -1.00e+00    1.0000 >    9.6214    0.1667    1.0333   31.4703   60.9238    0.0000   32.8536 337.61 337.6 100.0  9     0.0000    0.1924
ST5          ?    ?    ? P      ? 20001213 1510    8.2200 GAU  2.00e-02 -1.00e+00 -1.00e+00 -1.00e+00    1.0000 >    7.6859   -0.1778    0.8216   45.9261   73.1552    0.0000   42.6526   2.61   2.6  95.3  9     0.0000    0.1537
ST10         ?    ?    ? P      ? 20001213 1510    8.3200 GAU  2.00e-02 -1.00e+00 -1.00e+00 -1.00e+00    1.0000 >    8.0940   -0.4859    0.1295   21.1066   69.5192    0.0000   45.1911 329.59 329.6  91.8  9     0.0000    0.1619
ST11         ?    ?    ? S      ? 20001213 1510   16.8100 GAU  2.00e-02 -1.00e+00 -1.00e+00 -1.00e+00    1.0000 >   15.7960    0.3021    0.7435   13.0335   79.7825    0.0000   58.1558 327.85 327.8  95.2  9     0.0000    0.3159
ST2          ?    ?    ? S      ? 20001213 1510   18.7700 GAU  2.00e-02 -1.00e+00 -1.00e+00 -1.00e+00    1.0000 >   17.9052    0.1529    0.8011   36.5585   96.8954    0.0000   66.7628 353.61 353.6  94.4  9     0.0000    0.3581
END_PHASE
END_NLLOC

