NLLOC "./loc/alaska.20001213.151002_010.grid0" "LOCATED" "Location completed."
PUBLIC_ID None
SIGNATURE "NonLinLoc - Yifan Yu   obs:./obs/phase.obs   NLLoc:v7.00.16(17Apr2023)   run:24Aug2023 11h42m46"
COMMENT "2023-8-21 test"
GRID  201 201 41  0 0 0  0.5 0.5 0.5 PROB_DENSITY
SEARCH OCTREE nInitial 400 nEvaluated 20008 smallestNodeSide 0.078125/0.078125/0.039062 oct_tree_integral 1.667500e+00 scatter_volume 1.640666e+00
HYPOCENTER  x 43.7891 y 33.1641 z 8.18359  OT 0.93613  ix -1 iy -1 iz -1 MAXIMUM_LIKELIHOOD
GEOGRAPHIC  OT 2000 12 13  15 10 0.936130  Lat 35.698251 Long -117.515080 Depth 8.183594
QUALITY  Pmax 1.50136e+90 MFmin 51.7075 MFmax 52.0874 RMS 0.14017 Nphs 30 Gap 69.482 Dist 5.80147 Mamp -9.90 0 Mdur -9.90 0
VPVSRATIO  VpVsRatio 1.6836  Npair 9  Diff 5.83
STATISTICS  ExpectX 43.899443 Y 33.080262 Z 9.170948  CovXX 0.223825 XY 0.0520535 XZ -0.192288 YY 0.120009 YZ -0.215317 ZZ 2.56718 EllAz1  343.353 Dip1  3.49399 Len1  0.565907 Az2  253.717 Dip2  -5.95298 Len2  0.877518 Len3  3.030775e+00
STAT_GEOG  ExpectLat 35.697498 Long -117.513863 Depth 9.170948
TRANSFORM  SIMPLE LatOrig 35.400000  LongOrig -118.000000  RotCW 0.000000
QML_OriginQuality  assocPhCt 30  usedPhCt 30  assocStaCt -1  usedStaCt 21  depthPhCt -1  stdErr 0.14017  azGap 69.482  secAzGap 87.8474  gtLevel -  minDist 5.80147 maxDist 64.1402 medDist 23.9785
QML_OriginUncertainty  horUnc -1  minHorUnc 0.475744  maxHorUnc 0.751324  azMaxHorUnc 67.4599
QML_ConfidenceEllipsoid  semiMajorAxisLength 3.03078  semiMinorAxisLength 0.565907  semiIntermediateAxisLength 0.877518  majorAxisPlunge -83.091  majorAxisAzimuth 43.0952  majorAxisRotation 211.18
FOCALMECH  Hyp  35.698251 -117.515080 8.183594 Mech  0 0 0 mf  0 nObs -1
PHASE ID Ins Cmp On Pha  FM Date     HrMn   Sec     Err  ErrMag    Coda      Amp       Per       PriorWt  >   TTpred    Res       Weight    StaLoc(X  Y         Z)        SDist    SAzim  RAz  RDip RQual    Tcorr       TTerr
ST23         ?    ?    ? P      ? 20001213 1510    3.0000 GAU  2.00e-02 -1.00e+00 -1.00e+00 -1.00e+00    1.0000 >    1.8454    0.2184    0.7293   38.6464   35.8493    0.0000    5.8015 297.57 297.6 144.5  9     0.0000    0.0500
ST23         ?    ?    ? S      ? 20001213 1510    4.0500 GAU  2.00e-02 -1.00e+00 -1.00e+00 -1.00e+00    1.0000 >    3.1316   -0.0177    1.7198   38.6464   35.8493    0.0000    5.8015 297.57 297.6 136.6  9     0.0000    0.0626
ST19         ?    ?    ? P      ? 20001213 1510    2.8400 GAU  2.00e-02 -1.00e+00 -1.00e+00 -1.00e+00    1.0000 >    1.9534   -0.0495    1.6131   47.2048   27.2984    0.0000    6.7877 149.79 149.8 140.1  9     0.0000    0.0500
ST13         ?    ?    ? P      ? 20001213 1510    3.2600 GAU  2.00e-02 -1.00e+00 -1.00e+00 -1.00e+00    1.0000 >    2.2415    0.0824    1.4621   52.0625   29.4778    0.0000    9.0575 114.02 114.0 129.6  9     0.0000    0.0500
ST15         ?    ?    ? P      ? 20001213 1510    3.3000 GAU  2.00e-02 -1.00e+00 -1.00e+00 -1.00e+00    1.0000 >    2.3404    0.0235    1.7786   38.9482   24.6853    0.0000    9.7634 209.72 209.7 127.4  9     0.0000    0.0500
ST15         ?    ?    ? S      ? 20001213 1510    4.7600 GAU  2.00e-02 -1.00e+00 -1.00e+00 -1.00e+00    1.0000 >    3.9326   -0.1087    1.1917   38.9482   24.6853    0.0000    9.7634 209.72 209.7 113.9  9     0.0000    0.0787
ST21         ?    ?    ? P      ? 20001213 1510    3.4500 GAU  2.00e-02 -1.00e+00 -1.00e+00 -1.00e+00    1.0000 >    2.5366   -0.0227    1.7527   36.1150   41.1978    0.0000   11.1100 316.31 316.3 123.6  9     0.0000    0.0507
ST18         ?    ?    ? P      ? 20001213 1510    3.5300 GAU  2.00e-02 -1.00e+00 -1.00e+00 -1.00e+00    1.0000 >    2.5447    0.0491    1.6739   45.8666   22.1945    0.0000   11.1645 169.28 169.3 123.5  9     0.0000    0.0509
ST18         ?    ?    ? S      ? 20001213 1510    5.1800 GAU  2.00e-02 -1.00e+00 -1.00e+00 -1.00e+00    1.0000 >    4.2557   -0.0119    1.6212   45.8666   22.1945    0.0000   11.1645 169.28 169.3 108.9  9     0.0000    0.0851
ST24         ?    ?    ? P      ? 20001213 1510    4.2700 GAU  2.00e-02 -1.00e+00 -1.00e+00 -1.00e+00    1.0000 >    3.3498   -0.0159    1.7035   55.9556   22.3725    0.0000   16.2630 131.57 131.6 113.5  9     0.0000    0.0670
ST24         ?    ?    ? S      ? 20001213 1510    6.4600 GAU  2.00e-02 -1.00e+00 -1.00e+00 -1.00e+00    1.0000 >    5.4781    0.0458    1.4948   55.9556   22.3725    0.0000   16.2630 131.57 131.6 100.3  9     0.0000    0.1096
ST14         ?    ?    ? P      ? 20001213 1510    4.5700 GAU  2.00e-02 -1.00e+00 -1.00e+00 -1.00e+00    1.0000 >    4.0439   -0.4100    0.4160   58.1038   47.7138    0.0000   20.4109  44.53  44.5 107.0  9     0.0000    0.0809
ST14         ?    ?    ? S      ? 20001213 1510    7.4000 GAU  2.00e-02 -1.00e+00 -1.00e+00 -1.00e+00    1.0000 >    6.4887   -0.0248    1.4041   58.1038   47.7138    0.0000   20.4109  44.53  44.5  97.4  9     0.0000    0.1298
ST7          ?    ?    ? P      ? 20001213 1510    5.3200 GAU  2.00e-02 -1.00e+00 -1.00e+00 -1.00e+00    1.0000 >    4.1897    0.1942    0.9251   22.5319   32.5023    0.0000   21.2674 268.22 268.2 105.5  9     0.0000    0.0838
ST0          ?    ?    ? S      ? 20001213 1510    8.3600 GAU  2.00e-02 -1.00e+00 -1.00e+00 -1.00e+00    1.0000 >    7.2824    0.1415    1.1584   57.5022   13.8883    0.0000   23.6560 144.57 144.6  96.1  9     0.0000    0.1456
ST17         ?    ?    ? P      ? 20001213 1510    5.2700 GAU  2.00e-02 -1.00e+00 -1.00e+00 -1.00e+00    1.0000 >    4.6550   -0.3211    0.4971   64.4820   21.0492    0.0000   23.9785 120.35 120.3 100.5  9     0.0000    0.0931
ST16         ?    ?    ? P      ? 20001213 1510    5.4600 GAU  2.00e-02 -1.00e+00 -1.00e+00 -1.00e+00    1.0000 >    4.7929   -0.2690    0.5729   39.8239    8.7066    0.0000   24.7768 189.21 189.2  99.0  9     0.0000    0.0959
ST8          ?    ?    ? P      ? 20001213 1510    6.1500 GAU  2.00e-02 -1.00e+00 -1.00e+00 -1.00e+00    1.0000 >    4.9522    0.2617    0.6730   21.2005   45.4232    0.0000   25.7007 298.49 298.5  96.9  9     0.0000    0.0990
ST8          ?    ?    ? S      ? 20001213 1510    9.7700 GAU  2.00e-02 -1.00e+00 -1.00e+00 -1.00e+00    1.0000 >    7.7833    1.0505    0.0062   21.2005   45.4232    0.0000   25.7007 298.49 298.5  95.4  9     0.0000    0.1557
ST20         ?    ?    ? P      ? 20001213 1510    6.0500 GAU  2.00e-02 -1.00e+00 -1.00e+00 -1.00e+00    1.0000 >    5.1746   -0.0608    1.4093   26.5943   53.9852    0.0000   27.0033 320.45 320.4  92.1  8     0.0000    0.1035
ST22         ?    ?    ? S      ? 20001213 1510    9.8400 GAU  2.00e-02 -1.00e+00 -1.00e+00 -1.00e+00    1.0000 >    8.4230    0.4809    0.2350   26.8589   55.8533    0.0000   28.3096 323.27 323.3  94.8  9     0.0000    0.1685
ST12         ?    ?    ? P      ? 20001213 1510    6.2300 GAU  2.00e-02 -1.00e+00 -1.00e+00 -1.00e+00    1.0000 >    5.7446   -0.4507    0.3990   31.4703   60.9238    0.0000   30.3703 336.07 336.1  77.3  8     0.0000    0.1149
ST12         ?    ?    ? S      ? 20001213 1510    9.9600 GAU  2.00e-02 -1.00e+00 -1.00e+00 -1.00e+00    1.0000 >    8.9286    0.0953    1.1884   31.4703   60.9238    0.0000   30.3703 336.07 336.1  94.3  9     0.0000    0.1786
ST5          ?    ?    ? S      ? 20001213 1510   12.1900 GAU  2.00e-02 -1.00e+00 -1.00e+00 -1.00e+00    1.0000 >   11.3053   -0.0514    1.1016   45.9261   73.1552    0.0000   40.0482   3.06   3.1  92.9  9     0.0000    0.2261
ST3          ?    ?    ? P      ? 20001213 1510    7.8600 GAU  2.00e-02 -1.00e+00 -1.00e+00 -1.00e+00    1.0000 >    7.5127   -0.5888    0.2782   17.1949   64.7711    0.0000   41.3068 319.92 319.9  64.6 10     0.0000    0.1503
ST3          ?    ?    ? S      ? 20001213 1510   12.5900 GAU  2.00e-02 -1.00e+00 -1.00e+00 -1.00e+00    1.0000 >   11.6146    0.0393    1.0971   17.1949   64.7711    0.0000   41.3068 319.92 319.9  92.8  9     0.0000    0.2323
ST10         ?    ?    ? P      ? 20001213 1510    8.0400 GAU  2.00e-02 -1.00e+00 -1.00e+00 -1.00e+00    1.0000 >    7.7617   -0.6579    0.2187   21.1066   69.5192    0.0000   42.8508 328.04 328.0  64.6 10     0.0000    0.1552
ST11         ?    ?    ? S      ? 20001213 1510   16.3800 GAU  2.00e-02 -1.00e+00 -1.00e+00 -1.00e+00    1.0000 >   15.1887    0.2552    0.7457   13.0335   79.7825    0.0000   55.8496 326.59 326.6  91.6  9     0.0000    0.3038
ST2          ?    ?    ? P      ? 20001213 1510   11.1300 GAU  2.00e-02 -1.00e+00 -1.00e+00 -1.00e+00    1.0000 >   11.1056   -0.9118    0.0915   36.5585   96.8954    0.0000   64.1402 353.53 353.5  54.3 10     0.0000    0.2221
ST2          ?    ?    ? S      ? 20001213 1510   18.0100 GAU  2.00e-02 -1.00e+00 -1.00e+00 -1.00e+00    1.0000 >   17.2265   -0.1526    0.8419   36.5585   96.8954    0.0000   64.1402 353.53 353.5  91.2  9     0.0000    0.3445
END_PHASE
END_NLLOC

