NLLOC "./loc/alaska.20001213.151002_023.grid0" "LOCATED" "Location completed."
PUBLIC_ID None
SIGNATURE "NonLinLoc - Yifan Yu   obs:./obs/phase.obs   NLLoc:v7.00.16(17Apr2023)   run:24Aug2023 11h42m15"
COMMENT "2023-8-21 test"
GRID  201 201 41  0 0 0  0.5 0.5 0.5 PROB_DENSITY
SEARCH OCTREE nInitial 400 nEvaluated 20016 smallestNodeSide 0.078125/0.078125/0.039062 oct_tree_integral 1.479674e+00 scatter_volume 1.465523e+00
HYPOCENTER  x 28.0469 y 59.4531 z 5.89844  OT 0.820068  ix -1 iy -1 iz -1 MAXIMUM_LIKELIHOOD
GEOGRAPHIC  OT 2000 12 13  15 10 0.820068  Lat 35.934674 Long -117.688483 Depth 5.898438
QUALITY  Pmax 3.06214e+91 MFmin 51.0256 MFmax 53.2817 RMS 0.205882 Nphs 31 Gap 89.5325 Dist 3.72597 Mamp -9.90 0 Mdur -9.90 0
VPVSRATIO  VpVsRatio 1.7203  Npair 9  Diff 5.38
STATISTICS  ExpectX 28.427371 Y 59.874323 Z 9.799854  CovXX 0.469706 XY 0.181894 XZ -0.44066 YY 0.382855 YZ 0.269878 ZZ 16.561 EllAz1  320.928 Dip1  -1.70848 Len1  0.890834 Az2  230.909 Dip2  -0.617297 Len2  1.46905 Len3  7.649724e+00
STAT_GEOG  ExpectLat 35.938462 Long -117.684242 Depth 9.799854
TRANSFORM  SIMPLE LatOrig 35.400000  LongOrig -118.000000  RotCW 0.000000
QML_OriginQuality  assocPhCt 31  usedPhCt 31  assocStaCt -1  usedStaCt 22  depthPhCt -1  stdErr 0.205882  azGap 89.5325  secAzGap 116.979  gtLevel -  minDist 3.72597 maxDist 54.2565 medDist 31.973
QML_OriginUncertainty  horUnc -1  minHorUnc 0.741844  maxHorUnc 1.18767  azMaxHorUnc 51.7138
QML_ConfidenceEllipsoid  semiMajorAxisLength 7.64972  semiMinorAxisLength 0.890834  semiIntermediateAxisLength 1.46905  majorAxisPlunge -88.1834  majorAxisAzimuth 121.051  majorAxisRotation 109.831
FOCALMECH  Hyp  35.934674 -117.688483 5.898438 Mech  0 0 0 mf  0 nObs -1
PHASE ID Ins Cmp On Pha  FM Date     HrMn   Sec     Err  ErrMag    Coda      Amp       Per       PriorWt  >   TTpred    Res       Weight    StaLoc(X  Y         Z)        SDist    SAzim  RAz  RDip RQual    Tcorr       TTerr
ST12         ?    ?    ? P      ? 20001213 1510    2.2600 GAU  2.00e-02 -1.00e+00 -1.00e+00 -1.00e+00    1.0000 >    1.2977    0.1422    1.5394   31.4703   60.9238    0.0000    3.7260  66.75  66.8 147.2  9     0.0000    0.0500
ST12         ?    ?    ? S      ? 20001213 1510    3.1800 GAU  2.00e-02 -1.00e+00 -1.00e+00 -1.00e+00    1.0000 >    2.3476    0.0123    1.6214   31.4703   60.9238    0.0000    3.7260  66.75  66.8 143.1  9     0.0000    0.0500
ST22         ?    ?    ? P      ? 20001213 1510    2.1000 GAU  2.00e-02 -1.00e+00 -1.00e+00 -1.00e+00    1.0000 >    1.3040   -0.0241    1.5297   26.8589   55.8533    0.0000    3.7908 198.26 198.3 146.8  9     0.0000    0.0500
ST20         ?    ?    ? P      ? 20001213 1510    2.5300 GAU  2.00e-02 -1.00e+00 -1.00e+00 -1.00e+00    1.0000 >    1.5160    0.1939    1.3828   26.5943   53.9852    0.0000    5.6576 194.88 194.9 134.2  9     0.0000    0.0500
ST20         ?    ?    ? S      ? 20001213 1510    3.5700 GAU  2.00e-02 -1.00e+00 -1.00e+00 -1.00e+00    1.0000 >    2.7311    0.0188    1.6265   26.5943   53.9852    0.0000    5.6576 194.88 194.9 126.8  9     0.0000    0.0546
ST3          ?    ?    ? P      ? 20001213 1510    3.2600 GAU  2.00e-02 -1.00e+00 -1.00e+00 -1.00e+00    1.0000 >    2.5011   -0.0612    1.3089   17.1949   64.7711    0.0000   12.0850 296.11 296.1 111.3  9     0.0000    0.0500
ST10         ?    ?    ? P      ? 20001213 1510    3.5600 GAU  2.00e-02 -1.00e+00 -1.00e+00 -1.00e+00    1.0000 >    2.5248    0.2151    1.2635   21.1066   69.5192    0.0000   12.2267 325.41 325.4 111.0  9     0.0000    0.0505
ST1          ?    ?    ? P      ? 20001213 1510    4.0800 GAU  2.00e-02 -1.00e+00 -1.00e+00 -1.00e+00    1.0000 >    3.0978    0.1621    1.4990   36.2928   46.2238    0.0000   15.5888 148.06 148.1 105.4  9     0.0000    0.0620
ST1          ?    ?    ? S      ? 20001213 1510    6.1900 GAU  2.00e-02 -1.00e+00 -1.00e+00 -1.00e+00    1.0000 >    5.3073    0.0626    1.5778   36.2928   46.2238    0.0000   15.5888 148.06 148.1  73.2  7     0.0000    0.1061
ST8          ?    ?    ? P      ? 20001213 1510    4.2800 GAU  2.00e-02 -1.00e+00 -1.00e+00 -1.00e+00    1.0000 >    3.1017    0.3582    0.4596   21.2005   45.4232    0.0000   15.6113 206.01 206.0 105.4  9     0.0000    0.0620
ST8          ?    ?    ? S      ? 20001213 1510    6.7700 GAU  2.00e-02 -1.00e+00 -1.00e+00 -1.00e+00    1.0000 >    5.3131    0.6368    0.0928   21.2005   45.4232    0.0000   15.6113 206.01 206.0  73.1  7     0.0000    0.1063
ST21         ?    ?    ? P      ? 20001213 1510    4.8100 GAU  2.00e-02 -1.00e+00 -1.00e+00 -1.00e+00    1.0000 >    3.8600    0.1299    1.5695   36.1150   41.1978    0.0000   19.9588 156.16 156.2 101.1  9     0.0000    0.0772
ST11         ?    ?    ? P      ? 20001213 1510    5.5900 GAU  2.00e-02 -1.00e+00 -1.00e+00 -1.00e+00    1.0000 >    4.7974   -0.0274    1.4204   13.0335   79.7825    0.0000   25.2722 323.55 323.6  98.3  9     0.0000    0.0959
ST11         ?    ?    ? S      ? 20001213 1510    8.8000 GAU  2.00e-02 -1.00e+00 -1.00e+00 -1.00e+00    1.0000 >    7.7546    0.2253    1.1591   13.0335   79.7825    0.0000   25.2722 323.55 323.6  61.8  8     0.0000    0.1551
ST23         ?    ?    ? S      ? 20001213 1510    8.9500 GAU  2.00e-02 -1.00e+00 -1.00e+00 -1.00e+00    1.0000 >    7.9030    0.2269    1.1502   38.6464   35.8493    0.0000   25.8745 155.82 155.8  61.7  8     0.0000    0.1581
ST7          ?    ?    ? P      ? 20001213 1510    5.9700 GAU  2.00e-02 -1.00e+00 -1.00e+00 -1.00e+00    1.0000 >    5.1937   -0.0437    1.3384   22.5319   32.5023    0.0000   27.5093 191.56 191.6  97.4  9     0.0000    0.1039
ST15         ?    ?    ? P      ? 20001213 1510    7.0400 GAU  2.00e-02 -1.00e+00 -1.00e+00 -1.00e+00    1.0000 >    6.7797   -0.5598    0.4468   38.9482   24.6853    0.0000   36.4368 162.59 162.6  95.3  9     0.0000    0.1356
ST15         ?    ?    ? S      ? 20001213 1510   11.2600 GAU  2.00e-02 -1.00e+00 -1.00e+00 -1.00e+00    1.0000 >   10.5022   -0.0623    1.1045   38.9482   24.6853    0.0000   36.4368 162.59 162.6  61.6  8     0.0000    0.2100
ST6          ?    ?    ? S      ? 20001213 1510   11.3400 GAU  2.00e-02 -1.00e+00 -1.00e+00 -1.00e+00    1.0000 >   10.5989   -0.0789    1.0722   64.5535   54.5857    0.0000   36.8297  97.59  97.6  61.6  8     0.0000    0.2120
ST19         ?    ?    ? S      ? 20001213 1510   11.5300 GAU  2.00e-02 -1.00e+00 -1.00e+00 -1.00e+00    1.0000 >   10.7464   -0.0365    1.1369   47.2048   27.2984    0.0000   37.4293 149.21 149.2  61.6  8     0.0000    0.2149
ST2          ?    ?    ? P      ? 20001213 1510    7.4600 GAU  2.00e-02 -1.00e+00 -1.00e+00 -1.00e+00    1.0000 >    7.1287   -0.4888    0.4242   36.5585   96.8954    0.0000   38.3975  12.81  12.8  95.0  9     0.0000    0.1426
ST13         ?    ?    ? P      ? 20001213 1510    7.3400 GAU  2.00e-02 -1.00e+00 -1.00e+00 -1.00e+00    1.0000 >    7.1308   -0.6108    0.4515   52.0625   29.4778    0.0000   38.4092 141.30 141.3  95.0  9     0.0000    0.1426
ST13         ?    ?    ? S      ? 20001213 1510   11.7800 GAU  2.00e-02 -1.00e+00 -1.00e+00 -1.00e+00    1.0000 >   10.9875   -0.0276    1.1394   52.0625   29.4778    0.0000   38.4092 141.30 141.3  61.6  8     0.0000    0.2198
ST9          ?    ?    ? S      ? 20001213 1510   12.3600 GAU  2.00e-02 -1.00e+00 -1.00e+00 -1.00e+00    1.0000 >   11.5182    0.0217    1.1621    9.8992   23.1731    0.0000   40.5658 206.57 206.6  61.6  8     0.0000    0.2304
ST18         ?    ?    ? P      ? 20001213 1510    7.6700 GAU  2.00e-02 -1.00e+00 -1.00e+00 -1.00e+00    1.0000 >    7.6456   -0.7957    0.3520   45.8666   22.1945    0.0000   41.3007 154.44 154.4  90.2  9     0.0000    0.1529
ST18         ?    ?    ? S      ? 20001213 1510   12.6800 GAU  2.00e-02 -1.00e+00 -1.00e+00 -1.00e+00    1.0000 >   11.6990    0.1609    1.1217   45.8666   22.1945    0.0000   41.3007 154.44 154.4  61.6  8     0.0000    0.2340
ST24         ?    ?    ? P      ? 20001213 1510    8.7200 GAU  2.00e-02 -1.00e+00 -1.00e+00 -1.00e+00    1.0000 >    8.5099   -0.6099    0.4445   55.9556   22.3725    0.0000   46.4099 143.03 143.0  67.8  8     0.0000    0.1702
ST4          ?    ?    ? P      ? 20001213 1510    9.0400 GAU  2.00e-02 -1.00e+00 -1.00e+00 -1.00e+00    1.0000 >    9.1897   -0.9698    0.1956   28.7854    8.8400    0.0000   50.6185 179.16 179.2  64.6 10     0.0000    0.1838
ST17         ?    ?    ? P      ? 20001213 1510    9.7200 GAU  2.00e-02 -1.00e+00 -1.00e+00 -1.00e+00    1.0000 >    9.5637   -0.6638    0.4254   64.4820   21.0492    0.0000   52.9375 136.51 136.5  64.6 10     0.0000    0.1913
ST0          ?    ?    ? P      ? 20001213 1510    9.8600 GAU  2.00e-02 -1.00e+00 -1.00e+00 -1.00e+00    1.0000 >    9.7765   -0.7366    0.3893   57.5022   13.8883    0.0000   54.2565 147.12 147.1  64.6 10     0.0000    0.1955
ST0          ?    ?    ? S      ? 20001213 1510   16.1600 GAU  2.00e-02 -1.00e+00 -1.00e+00 -1.00e+00    1.0000 >   14.8870    0.4529    0.5951   57.5022   13.8883    0.0000   54.2565 147.12 147.1  61.6  8     0.0000    0.2977
END_PHASE
END_NLLOC

