NLLOC "./loc/alaska.20001213.151002_021.grid0" "LOCATED" "Location completed."
PUBLIC_ID None
SIGNATURE "NonLinLoc - Yifan Yu   obs:./obs/phase.obs   NLLoc:v7.00.16(17Apr2023)   run:24Aug2023 11h42m14"
COMMENT "2023-8-21 test"
GRID  201 201 41  0 0 0  0.5 0.5 0.5 PROB_DENSITY
SEARCH OCTREE nInitial 400 nEvaluated 20008 smallestNodeSide 0.078125/0.078125/0.039062 oct_tree_integral 1.901862e+00 scatter_volume 1.901862e+00
HYPOCENTER  x 28.7891 y 56.2891 z 9.16016  OT 0.637557  ix -1 iy -1 iz -1 MAXIMUM_LIKELIHOOD
GEOGRAPHIC  OT 2000 12 13  15 10 0.637557  Lat 35.906219 Long -117.680354 Depth 9.160156
QUALITY  Pmax 7.76809e+113 MFmin 58.6403 MFmax 61.1368 RMS 0.161215 Nphs 36 Gap 62.6767 Dist 1.97876 Mamp -9.90 0 Mdur -9.90 0
VPVSRATIO  VpVsRatio 1.67906  Npair 13  Diff 5.04
STATISTICS  ExpectX 28.799447 Y 56.749628 Z 10.247332  CovXX 0.280457 XY 0.0580714 XZ -0.200375 YY 0.215691 YZ 0.261801 ZZ 1.23653 EllAz1  326.665 Dip1  -15.9744 Len1  0.556691 Az2  236.285 Dip2  -1.32574 Len2  1.0522 Len3  2.167796e+00
STAT_GEOG  ExpectLat 35.910361 Long -117.680222 Depth 10.247332
TRANSFORM  SIMPLE LatOrig 35.400000  LongOrig -118.000000  RotCW 0.000000
QML_OriginQuality  assocPhCt 36  usedPhCt 36  assocStaCt -1  usedStaCt 23  depthPhCt -1  stdErr 0.161215  azGap 62.6767  secAzGap 62.6767  gtLevel -  minDist 1.97876 maxDist 51.2081 medDist 33.1965
QML_OriginUncertainty  horUnc -1  minHorUnc 0.646253  maxHorUnc 0.850586  azMaxHorUnc 59.5728
QML_ConfidenceEllipsoid  semiMajorAxisLength 2.1678  semiMinorAxisLength 0.556691  semiIntermediateAxisLength 1.0522  majorAxisPlunge -73.9678  majorAxisAzimuth 141.666  majorAxisRotation 94.0751
FOCALMECH  Hyp  35.906219 -117.680354 9.160156 Mech  0 0 0 mf  0 nObs -1
PHASE ID Ins Cmp On Pha  FM Date     HrMn   Sec     Err  ErrMag    Coda      Amp       Per       PriorWt  >   TTpred    Res       Weight    StaLoc(X  Y         Z)        SDist    SAzim  RAz  RDip RQual    Tcorr       TTerr
ST22         ?    ?    ? P      ? 20001213 1510    2.2500 GAU  2.00e-02 -1.00e+00 -1.00e+00 -1.00e+00    1.0000 >    1.7191   -0.1066    1.3038   26.8589   55.8533    0.0000    1.9788 257.28 257.3 165.9  9     0.0000    0.0500
ST22         ?    ?    ? S      ? 20001213 1510    3.0200 GAU  2.00e-02 -1.00e+00 -1.00e+00 -1.00e+00    1.0000 >    2.8768   -0.4944    0.2466   26.8589   55.8533    0.0000    1.9788 257.28 257.3 163.6  9     0.0000    0.0575
ST20         ?    ?    ? P      ? 20001213 1510    2.3600 GAU  2.00e-02 -1.00e+00 -1.00e+00 -1.00e+00    1.0000 >    1.7805   -0.0580    1.5415   26.5943   53.9852    0.0000    3.1819 223.61 223.6 159.0  9     0.0000    0.0500
ST12         ?    ?    ? P      ? 20001213 1510    2.7000 GAU  2.00e-02 -1.00e+00 -1.00e+00 -1.00e+00    1.0000 >    1.9456    0.1169    1.2285   31.4703   60.9238    0.0000    5.3544  30.05  30.1 147.4  9     0.0000    0.0500
ST12         ?    ?    ? S      ? 20001213 1510    3.9100 GAU  2.00e-02 -1.00e+00 -1.00e+00 -1.00e+00    1.0000 >    3.2471    0.0254    1.6056   31.4703   60.9238    0.0000    5.3544  30.05  30.1 144.0  9     0.0000    0.0649
ST8          ?    ?    ? S      ? 20001213 1510    5.7900 GAU  2.00e-02 -1.00e+00 -1.00e+00 -1.00e+00    1.0000 >    4.8236    0.3289    0.5637   21.2005   45.4232    0.0000   13.2534 214.93 214.9 110.4  9     0.0000    0.0965
ST3          ?    ?    ? P      ? 20001213 1510    3.8400 GAU  2.00e-02 -1.00e+00 -1.00e+00 -1.00e+00    1.0000 >    3.1184    0.0840    1.4183   17.1949   64.7711    0.0000   14.3656 306.19 306.2 112.7  9     0.0000    0.0624
ST3          ?    ?    ? S      ? 20001213 1510    5.6800 GAU  2.00e-02 -1.00e+00 -1.00e+00 -1.00e+00    1.0000 >    5.0828   -0.0404    1.4755   17.1949   64.7711    0.0000   14.3656 306.19 306.2 108.2  9     0.0000    0.1017
ST10         ?    ?    ? P      ? 20001213 1510    3.9400 GAU  2.00e-02 -1.00e+00 -1.00e+00 -1.00e+00    1.0000 >    3.2641    0.0384    1.5793   21.1066   69.5192    0.0000   15.2989 329.86 329.9 110.3  9     0.0000    0.0653
ST10         ?    ?    ? S      ? 20001213 1510    5.9000 GAU  2.00e-02 -1.00e+00 -1.00e+00 -1.00e+00    1.0000 >    5.3027   -0.0403    1.4612   21.1066   69.5192    0.0000   15.2989 329.86 329.9 106.6  9     0.0000    0.1061
ST21         ?    ?    ? S      ? 20001213 1510    6.6900 GAU  2.00e-02 -1.00e+00 -1.00e+00 -1.00e+00    1.0000 >    5.6537    0.3988    0.4909   36.1150   41.1978    0.0000   16.7755 154.11 154.1 104.6  9     0.0000    0.1131
ST23         ?    ?    ? P      ? 20001213 1510    5.0800 GAU  2.00e-02 -1.00e+00 -1.00e+00 -1.00e+00    1.0000 >    4.4501   -0.0077    1.5529   38.6464   35.8493    0.0000   22.6926 154.25 154.3  93.3  9     0.0000    0.0890
ST25         ?    ?    ? P      ? 20001213 1510    5.3500 GAU  2.00e-02 -1.00e+00 -1.00e+00 -1.00e+00    1.0000 >    4.6999    0.0125    1.5318   35.8320   33.0917    0.0000   24.2430 163.11 163.1  89.1  9     0.0000    0.0940
ST25         ?    ?    ? S      ? 20001213 1510    8.4900 GAU  2.00e-02 -1.00e+00 -1.00e+00 -1.00e+00    1.0000 >    7.4570    0.3954    0.5323   35.8320   33.0917    0.0000   24.2430 163.11 163.1  99.0  9     0.0000    0.1491
ST7          ?    ?    ? P      ? 20001213 1510    5.4100 GAU  2.00e-02 -1.00e+00 -1.00e+00 -1.00e+00    1.0000 >    4.7568    0.0157    1.5255   22.5319   32.5023    0.0000   24.5959 194.74 194.7  88.1  8     0.0000    0.0951
ST7          ?    ?    ? S      ? 20001213 1510    8.6900 GAU  2.00e-02 -1.00e+00 -1.00e+00 -1.00e+00    1.0000 >    7.5429    0.5096    0.3705   22.5319   32.5023    0.0000   24.5959 194.74 194.7  98.8  9     0.0000    0.1509
ST14         ?    ?    ? P      ? 20001213 1510    6.3500 GAU  2.00e-02 -1.00e+00 -1.00e+00 -1.00e+00    1.0000 >    5.7154   -0.0030    1.4618   58.1038   47.7138    0.0000   30.5432 106.31 106.3  83.1  8     0.0000    0.1143
ST15         ?    ?    ? P      ? 20001213 1510    6.5100 GAU  2.00e-02 -1.00e+00 -1.00e+00 -1.00e+00    1.0000 >    6.1432   -0.2707    0.7085   38.9482   24.6853    0.0000   33.1965 162.18 162.2  82.8  8     0.0000    0.1229
ST15         ?    ?    ? S      ? 20001213 1510   10.3900 GAU  2.00e-02 -1.00e+00 -1.00e+00 -1.00e+00    1.0000 >    9.6425    0.1100    1.1304   38.9482   24.6853    0.0000   33.1965 162.18 162.2  96.0  9     0.0000    0.1928
ST19         ?    ?    ? P      ? 20001213 1510    6.7900 GAU  2.00e-02 -1.00e+00 -1.00e+00 -1.00e+00    1.0000 >    6.3284   -0.1760    1.0265   47.2048   27.2984    0.0000   34.3453 147.58 147.6  82.7  8     0.0000    0.1266
ST19         ?    ?    ? S      ? 20001213 1510   10.8300 GAU  2.00e-02 -1.00e+00 -1.00e+00 -1.00e+00    1.0000 >    9.9236    0.2688    0.8275   47.2048   27.2984    0.0000   34.3453 147.58 147.6  95.8  9     0.0000    0.1985
ST13         ?    ?    ? P      ? 20001213 1510    6.8500 GAU  2.00e-02 -1.00e+00 -1.00e+00 -1.00e+00    1.0000 >    6.5152   -0.3027    0.6370   52.0625   29.4778    0.0000   35.5034 139.04 139.0  82.6  8     0.0000    0.1303
ST6          ?    ?    ? P      ? 20001213 1510    7.0700 GAU  2.00e-02 -1.00e+00 -1.00e+00 -1.00e+00    1.0000 >    6.5638   -0.1313    1.1731   64.5535   54.5857    0.0000   35.8050  92.73  92.7  82.6  8     0.0000    0.1313
ST6          ?    ?    ? S      ? 20001213 1510   11.3600 GAU  2.00e-02 -1.00e+00 -1.00e+00 -1.00e+00    1.0000 >   10.2810    0.4414    0.5122   64.5535   54.5857    0.0000   35.8050  92.73  92.7  95.5  9     0.0000    0.2056
ST9          ?    ?    ? P      ? 20001213 1510    7.2000 GAU  2.00e-02 -1.00e+00 -1.00e+00 -1.00e+00    1.0000 >    6.9379   -0.3754    0.4932    9.8992   23.1731    0.0000   38.1248 209.70 209.7  82.5  8     0.0000    0.1388
ST9          ?    ?    ? S      ? 20001213 1510   11.6600 GAU  2.00e-02 -1.00e+00 -1.00e+00 -1.00e+00    1.0000 >   10.8493    0.1731    1.0006    9.8992   23.1731    0.0000   38.1248 209.70 209.7  95.0  9     0.0000    0.2170
ST18         ?    ?    ? P      ? 20001213 1510    7.2200 GAU  2.00e-02 -1.00e+00 -1.00e+00 -1.00e+00    1.0000 >    6.9391   -0.3566    0.5300   45.8666   22.1945    0.0000   38.1324 153.39 153.4  82.5  8     0.0000    0.1388
ST18         ?    ?    ? S      ? 20001213 1510   11.6400 GAU  2.00e-02 -1.00e+00 -1.00e+00 -1.00e+00    1.0000 >   10.8512    0.1513    1.0340   45.8666   22.1945    0.0000   38.1324 153.39 153.4  95.0  9     0.0000    0.2170
ST2          ?    ?    ? P      ? 20001213 1510    8.1100 GAU  2.00e-02 -1.00e+00 -1.00e+00 -1.00e+00    1.0000 >    7.4568    0.0156    1.3372   36.5585   96.8954    0.0000   41.3429  10.83  10.8  82.3  8     0.0000    0.1491
ST24         ?    ?    ? P      ? 20001213 1510    8.4300 GAU  2.00e-02 -1.00e+00 -1.00e+00 -1.00e+00    1.0000 >    7.7974   -0.0050    1.3182   55.9556   22.3725    0.0000   43.4553 141.31 141.3  82.2  8     0.0000    0.1559
ST24         ?    ?    ? S      ? 20001213 1510   13.3700 GAU  2.00e-02 -1.00e+00 -1.00e+00 -1.00e+00    1.0000 >   12.1561    0.5763    0.3539   55.9556   22.3725    0.0000   43.4553 141.31 141.3  94.2  9     0.0000    0.2431
ST26         ?    ?    ? P      ? 20001213 1510    8.5300 GAU  2.00e-02 -1.00e+00 -1.00e+00 -1.00e+00    1.0000 >    7.8432    0.0492    1.2892   52.5727   19.5815    0.0000   43.7391 147.06 147.1  82.2  8     0.0000    0.1569
ST4          ?    ?    ? P      ? 20001213 1510    8.4600 GAU  2.00e-02 -1.00e+00 -1.00e+00 -1.00e+00    1.0000 >    8.4415   -0.6191    0.1725   28.7854    8.8400    0.0000   47.4491 180.00 180.0  82.1  8     0.0000    0.1688
ST17         ?    ?    ? P      ? 20001213 1510    9.4000 GAU  2.00e-02 -1.00e+00 -1.00e+00 -1.00e+00    1.0000 >    8.8784   -0.1160    1.1403   64.4820   21.0492    0.0000   50.1581 134.63 134.6  82.0  8     0.0000    0.1776
ST0          ?    ?    ? P      ? 20001213 1510    9.6600 GAU  2.00e-02 -1.00e+00 -1.00e+00 -1.00e+00    1.0000 >    9.0478   -0.0253    1.2382   57.5022   13.8883    0.0000   51.2081 145.89 145.9  81.9  8     0.0000    0.1810
ST0          ?    ?    ? S      ? 20001213 1510   15.4700 GAU  2.00e-02 -1.00e+00 -1.00e+00 -1.00e+00    1.0000 >   14.0586    0.7739    0.1879   57.5022   13.8883    0.0000   51.2081 145.89 145.9  93.4  9     0.0000    0.2812
END_PHASE
END_NLLOC

