NLLOC "./loc/alaska.20001213.151001.grid0" "LOCATED" "Location completed."
PUBLIC_ID None
SIGNATURE "NonLinLoc - Yifan Yu   obs:./obs/phase.obs   NLLoc:v7.00.16(17Apr2023)   run:24Aug2023 11h42m41"
COMMENT "2023-8-21 test"
GRID  201 201 41  0 0 0  0.5 0.5 0.5 PROB_DENSITY
SEARCH OCTREE nInitial 400 nEvaluated 20000 smallestNodeSide 0.039062/0.039062/0.019531 oct_tree_integral 2.274490e-01 scatter_volume 2.274490e-01
HYPOCENTER  x 48.2227 y 27.9883 z 2.66602  OT 1.07626  ix -1 iy -1 iz -1 MAXIMUM_LIKELIHOOD
GEOGRAPHIC  OT 2000 12 13  15 10 1.076265  Lat 35.651704 Long -117.466294 Depth 2.666016
QUALITY  Pmax 8.52113e+117 MFmin 62.973 MFmax 65.1762 RMS 0.178406 Nphs 38 Gap 57.1899 Dist 1.22964 Mamp -9.90 0 Mdur -9.90 0
VPVSRATIO  VpVsRatio 1.66775  Npair 12  Diff 5.18
STATISTICS  ExpectX 48.596133 Y 28.417227 Z 2.444435  CovXX 0.218774 XY 0.195299 XZ -0.101061 YY 0.323944 YZ -0.235102 ZZ 0.315963 EllAz1  322.427 Dip1  24.3003 Len1  0.374624 Az2  258.005 Dip2  -43.7166 Len2  0.754996 Len3  1.523411e+00
STAT_GEOG  ExpectLat 35.655562 Long -117.462135 Depth 2.444435
TRANSFORM  SIMPLE LatOrig 35.400000  LongOrig -118.000000  RotCW 0.000000
QML_OriginQuality  assocPhCt 38  usedPhCt 38  assocStaCt -1  usedStaCt 26  depthPhCt -1  stdErr 0.178406  azGap 57.1899  secAzGap 94.4378  gtLevel -  minDist 1.22964 maxDist 69.8874 medDist 24.0731
QML_OriginUncertainty  horUnc -1  minHorUnc 0.398674  maxHorUnc 1.0437  azMaxHorUnc 37.4652
QML_ConfidenceEllipsoid  semiMajorAxisLength 1.52341  semiMinorAxisLength 0.374624  semiIntermediateAxisLength 0.754996  majorAxisPlunge -36.4538  majorAxisAzimuth 32.9432  majorAxisRotation 116.27
FOCALMECH  Hyp  35.651704 -117.466294 2.666016 Mech  0 0 0 mf  0 nObs -1
PHASE ID Ins Cmp On Pha  FM Date     HrMn   Sec     Err  ErrMag    Coda      Amp       Per       PriorWt  >   TTpred    Res       Weight    StaLoc(X  Y         Z)        SDist    SAzim  RAz  RDip RQual    Tcorr       TTerr
ST19         ?    ?    ? P      ? 20001213 1510    1.5500 GAU  2.00e-02 -1.00e+00 -1.00e+00 -1.00e+00    1.0000 >    0.5559   -0.0821    1.5376   47.2048   27.2984    0.0000    1.2296 235.87 235.9 155.4  9     0.0000    0.0500
ST19         ?    ?    ? S      ? 20001213 1510    2.1600 GAU  2.00e-02 -1.00e+00 -1.00e+00 -1.00e+00    1.0000 >    1.0779    0.0058    1.9396   47.2048   27.2984    0.0000    1.2296 235.87 235.9 154.4  9     0.0000    0.0500
ST13         ?    ?    ? P      ? 20001213 1510    2.0000 GAU  2.00e-02 -1.00e+00 -1.00e+00 -1.00e+00    1.0000 >    0.9269   -0.0032    1.9363   52.0625   29.4778    0.0000    4.1186  68.80  68.8 122.6  9     0.0000    0.0500
ST18         ?    ?    ? S      ? 20001213 1510    3.5500 GAU  2.00e-02 -1.00e+00 -1.00e+00 -1.00e+00    1.0000 >    2.4835   -0.0098    1.9276   45.8666   22.1945    0.0000    6.2545 202.13 202.1 104.6  9     0.0000    0.0500
ST26         ?    ?    ? P      ? 20001213 1510    3.0700 GAU  2.00e-02 -1.00e+00 -1.00e+00 -1.00e+00    1.0000 >    1.8632    0.1306    1.2831   52.5727   19.5815    0.0000    9.4656 152.64 152.6 106.0  9     0.0000    0.0500
ST26         ?    ?    ? S      ? 20001213 1510    4.5600 GAU  2.00e-02 -1.00e+00 -1.00e+00 -1.00e+00    1.0000 >    3.5599   -0.0761    1.5770   52.5727   19.5815    0.0000    9.4656 152.64 152.6  93.4  9     0.0000    0.0712
ST24         ?    ?    ? S      ? 20001213 1510    4.7100 GAU  2.00e-02 -1.00e+00 -1.00e+00 -1.00e+00    1.0000 >    3.5906    0.0431    1.8009   55.9556   22.3725    0.0000    9.5570 125.99 126.0  93.0  9     0.0000    0.0718
ST15         ?    ?    ? P      ? 20001213 1510    3.1000 GAU  2.00e-02 -1.00e+00 -1.00e+00 -1.00e+00    1.0000 >    1.9324    0.0913    1.5759   38.9482   24.6853    0.0000    9.8451 250.40 250.4 105.5  9     0.0000    0.0500
ST15         ?    ?    ? S      ? 20001213 1510    4.7600 GAU  2.00e-02 -1.00e+00 -1.00e+00 -1.00e+00    1.0000 >    3.6876   -0.0038    1.8433   38.9482   24.6853    0.0000    9.8451 250.40 250.4  92.0  9     0.0000    0.0738
ST23         ?    ?    ? P      ? 20001213 1510    3.7500 GAU  2.00e-02 -1.00e+00 -1.00e+00 -1.00e+00    1.0000 >    2.3997    0.2740    0.6705   38.6464   35.8493    0.0000   12.3895 309.38 309.4 102.7  9     0.0000    0.0500
ST23         ?    ?    ? S      ? 20001213 1510    5.6000 GAU  2.00e-02 -1.00e+00 -1.00e+00 -1.00e+00    1.0000 >    4.5390   -0.0153    1.7465   38.6464   35.8493    0.0000   12.3895 309.38 309.4  82.6  8     0.0000    0.0908
ST25         ?    ?    ? S      ? 20001213 1510    6.0800 GAU  2.00e-02 -1.00e+00 -1.00e+00 -1.00e+00    1.0000 >    4.8712    0.1325    1.3691   35.8320   33.0917    0.0000   13.4005 292.39 292.4  78.5  8     0.0000    0.0974
ST0          ?    ?    ? P      ? 20001213 1510    4.7400 GAU  2.00e-02 -1.00e+00 -1.00e+00 -1.00e+00    1.0000 >    3.2330    0.4307    0.5173   57.5022   13.8883    0.0000   16.8796 146.65 146.7  99.7  9     0.0000    0.0647
ST0          ?    ?    ? S      ? 20001213 1510    7.4000 GAU  2.00e-02 -1.00e+00 -1.00e+00 -1.00e+00    1.0000 >    5.9692    0.3545    0.7013   57.5022   13.8883    0.0000   16.8796 146.65 146.7  64.1  9     0.0000    0.1194
ST21         ?    ?    ? P      ? 20001213 1510    4.6000 GAU  2.00e-02 -1.00e+00 -1.00e+00 -1.00e+00    1.0000 >    3.4268    0.0970    1.5520   36.1150   41.1978    0.0000   17.9189 317.49 317.5  99.2  9     0.0000    0.0685
ST16         ?    ?    ? P      ? 20001213 1510    5.4500 GAU  2.00e-02 -1.00e+00 -1.00e+00 -1.00e+00    1.0000 >    4.0083    0.3654    0.6450   39.8239    8.7066    0.0000   21.0315 203.54 203.5  97.9  9     0.0000    0.0802
ST16         ?    ?    ? S      ? 20001213 1510    8.0700 GAU  2.00e-02 -1.00e+00 -1.00e+00 -1.00e+00    1.0000 >    7.2128   -0.2191    0.8799   39.8239    8.7066    0.0000   21.0315 203.54 203.5  59.9  9     0.0000    0.1443
ST1          ?    ?    ? S      ? 20001213 1510    8.4000 GAU  2.00e-02 -1.00e+00 -1.00e+00 -1.00e+00    1.0000 >    7.4343   -0.1105    1.2777   36.2928   46.2238    0.0000   21.7912 326.81 326.8  57.5  9     0.0000    0.1487
ST14         ?    ?    ? S      ? 20001213 1510    8.1100 GAU  2.00e-02 -1.00e+00 -1.00e+00 -1.00e+00    1.0000 >    7.5119   -0.4781    0.3742   58.1038   47.7138    0.0000   22.0620  26.61  26.6  56.5  9     0.0000    0.1502
ST7          ?    ?    ? S      ? 20001213 1510   10.2700 GAU  2.00e-02 -1.00e+00 -1.00e+00 -1.00e+00    1.0000 >    8.5617    0.6320    0.2553   22.5319   32.5023    0.0000   26.0843 279.97 280.0  47.1  9     0.0000    0.1712
ST4          ?    ?    ? P      ? 20001213 1510    6.1000 GAU  2.00e-02 -1.00e+00 -1.00e+00 -1.00e+00    1.0000 >    5.1784   -0.1547    1.1070   28.7854    8.8400    0.0000   27.2848 225.43 225.4  90.7  8     0.0000    0.1036
ST6          ?    ?    ? P      ? 20001213 1510    6.3500 GAU  2.00e-02 -1.00e+00 -1.00e+00 -1.00e+00    1.0000 >    5.9028   -0.6290    0.3112   64.5535   54.5857    0.0000   31.2108  31.55  31.5  80.5  8     0.0000    0.1181
ST6          ?    ?    ? S      ? 20001213 1510   10.1600 GAU  2.00e-02 -1.00e+00 -1.00e+00 -1.00e+00    1.0000 >    9.8290   -0.7453    0.2739   64.5535   54.5857    0.0000   31.2108  31.55  31.5  46.2  9     0.0000    0.1966
ST8          ?    ?    ? P      ? 20001213 1510    7.5200 GAU  2.00e-02 -1.00e+00 -1.00e+00 -1.00e+00    1.0000 >    6.0745    0.3693    0.6739   21.2005   45.4232    0.0000   32.1585 302.83 302.8  78.2  8     0.0000    0.1215
ST8          ?    ?    ? S      ? 20001213 1510   12.3000 GAU  2.00e-02 -1.00e+00 -1.00e+00 -1.00e+00    1.0000 >   10.0623    1.1615    0.0203   21.2005   45.4232    0.0000   32.1585 302.83 302.8  46.1  9     0.0000    0.2012
ST20         ?    ?    ? P      ? 20001213 1510    7.4300 GAU  2.00e-02 -1.00e+00 -1.00e+00 -1.00e+00    1.0000 >    6.3726   -0.0188    1.5714   26.5943   53.9852    0.0000   33.8175 320.24 320.2  74.7  9     0.0000    0.1275
ST22         ?    ?    ? P      ? 20001213 1510    7.5200 GAU  2.00e-02 -1.00e+00 -1.00e+00 -1.00e+00    1.0000 >    6.6042   -0.1605    1.1011   26.8589   55.8533    0.0000   35.1122 322.52 322.5  72.8  9     0.0000    0.1321
ST22         ?    ?    ? S      ? 20001213 1510   12.0100 GAU  2.00e-02 -1.00e+00 -1.00e+00 -1.00e+00    1.0000 >   10.7891    0.1446    1.2028   26.8589   55.8533    0.0000   35.1122 322.52 322.5  46.1  9     0.0000    0.2158
ST12         ?    ?    ? S      ? 20001213 1510   12.3100 GAU  2.00e-02 -1.00e+00 -1.00e+00 -1.00e+00    1.0000 >   11.2416   -0.0079    1.2523   31.4703   60.9238    0.0000   36.9512 333.04 333.0  46.1  9     0.0000    0.2248
ST9          ?    ?    ? P      ? 20001213 1510    8.3300 GAU  2.00e-02 -1.00e+00 -1.00e+00 -1.00e+00    1.0000 >    7.2317    0.0220    1.5204    9.8992   23.1731    0.0000   38.6248 262.84 262.8  71.3 10     0.0000    0.1446
ST9          ?    ?    ? S      ? 20001213 1510   13.3300 GAU  2.00e-02 -1.00e+00 -1.00e+00 -1.00e+00    1.0000 >   11.6535    0.6003    0.3630    9.8992   23.1731    0.0000   38.6248 262.84 262.8  46.1  9     0.0000    0.2331
ST5          ?    ?    ? P      ? 20001213 1510    8.9000 GAU  2.00e-02 -1.00e+00 -1.00e+00 -1.00e+00    1.0000 >    8.4104   -0.5867    0.3400   45.9261   73.1552    0.0000   45.2253 357.09 357.1  71.2 10     0.0000    0.1682
ST5          ?    ?    ? S      ? 20001213 1510   13.8400 GAU  2.00e-02 -1.00e+00 -1.00e+00 -1.00e+00    1.0000 >   13.2776   -0.5139    0.4826   45.9261   73.1552    0.0000   45.2253 357.09 357.1  46.1  9     0.0000    0.2656
ST3          ?    ?    ? P      ? 20001213 1510    9.2200 GAU  2.00e-02 -1.00e+00 -1.00e+00 -1.00e+00    1.0000 >    8.9276   -0.7839    0.2500   17.1949   64.7711    0.0000   48.1217 319.85 319.9  71.2 10     0.0000    0.1786
ST3          ?    ?    ? S      ? 20001213 1510   15.0100 GAU  2.00e-02 -1.00e+00 -1.00e+00 -1.00e+00    1.0000 >   13.9903   -0.0566    1.1017   17.1949   64.7711    0.0000   48.1217 319.85 319.9  46.1  9     0.0000    0.2798
ST10         ?    ?    ? P      ? 20001213 1510    9.1700 GAU  2.00e-02 -1.00e+00 -1.00e+00 -1.00e+00    1.0000 >    9.1915   -1.0978    0.0962   21.1066   69.5192    0.0000   49.5994 326.86 326.9  71.2 10     0.0000    0.1838
ST11         ?    ?    ? S      ? 20001213 1510   18.8800 GAU  2.00e-02 -1.00e+00 -1.00e+00 -1.00e+00    1.0000 >   17.5571    0.2466    0.8927   13.0335   79.7825    0.0000   62.6172 325.81 325.8  46.1  9     0.0000    0.3511
ST2          ?    ?    ? P      ? 20001213 1510   12.1200 GAU  2.00e-02 -1.00e+00 -1.00e+00 -1.00e+00    1.0000 >   12.5356   -1.4919    0.0295   36.5585   96.8954    0.0000   69.8874 350.39 350.4  50.6 10     0.0000    0.2507
END_PHASE
END_NLLOC

