NLLOC "./loc/alaska.20001213.151001_006.grid0" "LOCATED" "Location completed."
PUBLIC_ID None
SIGNATURE "NonLinLoc - Yifan Yu   obs:./obs/phase.obs   NLLoc:v7.00.16(17Apr2023)   run:21Aug2023 13h20m24"
COMMENT "2023-8-21 test"
GRID  201 201 41  0 0 0  0.5 0.5 0.5 PROB_DENSITY
SEARCH OCTREE nInitial 400 nEvaluated 20008 smallestNodeSide 0.039062/0.039062/0.019531 oct_tree_integral 1.093839e-01 scatter_volume 1.082771e-01
HYPOCENTER  x 47.9883 y 29.9023 z 0.00976562  OT 1.26555  ix -1 iy -1 iz -1 MAXIMUM_LIKELIHOOD
GEOGRAPHIC  OT 2000 12 13  15 10 1.265550  Lat 35.668918 Long -117.468774 Depth 0.009766
QUALITY  Pmax 3.17867e+178 MFmin 90.8232 MFmax 92.6272 RMS 0.224223 Nphs 54 Gap 62.0828 Dist 2.71927 Mamp -9.90 0 Mdur -9.90 0
VPVSRATIO  VpVsRatio 1.70263  Npair 27  Diff 7.14
STATISTICS  ExpectX 47.615836 Y 29.968618 Z 1.668314  CovXX 0.324875 XY -0.0138099 XZ -0.710813 YY 0.0455199 YZ 0.0967805 ZZ 2.167 EllAz1  340.868 Dip1  -8.65053 Len1  0.350117 Az2  248.248 Dip2  -16.7258 Len2  0.561723 Len3  2.918713e+00
STAT_GEOG  ExpectLat 35.669514 Long -117.472893 Depth 1.668314
TRANSFORM  SIMPLE LatOrig 35.400000  LongOrig -118.000000  RotCW 0.000000
QML_OriginQuality  assocPhCt 54  usedPhCt 54  assocStaCt -1  usedStaCt 27  depthPhCt -1  stdErr 0.224223  azGap 62.0828  secAzGap 62.0828  gtLevel -  minDist 2.71927 maxDist 67.9611 medDist 22.7138
QML_OriginUncertainty  horUnc -1  minHorUnc 0.321138  maxHorUnc 0.86532  azMaxHorUnc 92.8232
QML_ConfidenceEllipsoid  semiMajorAxisLength 2.91871  semiMinorAxisLength 0.350117  semiIntermediateAxisLength 0.561723  majorAxisPlunge -71.0511  majorAxisAzimuth 97.1715  majorAxisRotation 146.484
FOCALMECH  Hyp  35.668918 -117.468774 0.009766 Mech  0 0 0 mf  0 nObs -1
PHASE ID Ins Cmp On Pha  FM Date     HrMn   Sec     Err  ErrMag    Coda      Amp       Per       PriorWt  >   TTpred    Res       Weight    StaLoc(X  Y         Z)        SDist    SAzim  RAz  RDip RQual    Tcorr       TTerr
ST19         ?    ?    ? P      ? 20001213 1510    1.6700 GAU  2.00e-02 -1.00e+00 -1.00e+00 -1.00e+00    1.0000 >    0.5132   -0.1088    1.4467   47.2048   27.2984    0.0000    2.7193 196.75  16.7 200.0  0     0.0000    0.0500
ST19         ?    ?    ? S      ? 20001213 1510    2.1300 GAU  2.00e-02 -1.00e+00 -1.00e+00 -1.00e+00    1.0000 >    0.9037   -0.0393    2.1673   47.2048   27.2984    0.0000    2.7193 196.75  16.7 200.0  0     0.0000    0.0500
ST13         ?    ?    ? P      ? 20001213 1510    1.9600 GAU  2.00e-02 -1.00e+00 -1.00e+00 -1.00e+00    1.0000 >    0.7730   -0.0785    1.7967   52.0625   29.4778    0.0000    4.0963  95.95 275.9 200.0  0     0.0000    0.0500
ST13         ?    ?    ? S      ? 20001213 1510    2.6300 GAU  2.00e-02 -1.00e+00 -1.00e+00 -1.00e+00    1.0000 >    1.3611    0.0034    2.3136   52.0625   29.4778    0.0000    4.0963  95.95 275.9 200.0  0     0.0000    0.0500
ST18         ?    ?    ? P      ? 20001213 1510    2.7800 GAU  2.00e-02 -1.00e+00 -1.00e+00 -1.00e+00    1.0000 >    1.5085    0.0060    2.3117   45.8666   22.1945    0.0000    7.9945 195.39  15.4 200.0  0     0.0000    0.0500
ST18         ?    ?    ? S      ? 20001213 1510    4.0100 GAU  2.00e-02 -1.00e+00 -1.00e+00 -1.00e+00    1.0000 >    2.6561    0.0883    1.7516   45.8666   22.1945    0.0000    7.9945 195.39  15.4 200.0  0     0.0000    0.0531
ST15         ?    ?    ? P      ? 20001213 1510    3.2400 GAU  2.00e-02 -1.00e+00 -1.00e+00 -1.00e+00    1.0000 >    1.9694    0.0050    2.3125   38.9482   24.6853    0.0000   10.4375 240.01  60.0 200.0  0     0.0000    0.0500
ST15         ?    ?    ? S      ? 20001213 1510    4.7600 GAU  2.00e-02 -1.00e+00 -1.00e+00 -1.00e+00    1.0000 >    3.4677    0.0267    2.1345   38.9482   24.6853    0.0000   10.4375 240.01  60.0 200.0  0     0.0000    0.0694
ST24         ?    ?    ? P      ? 20001213 1510    3.7200 GAU  2.00e-02 -1.00e+00 -1.00e+00 -1.00e+00    1.0000 >    2.0685    0.3860    0.5644   55.9556   22.3725    0.0000   10.9626 133.38 313.4 200.0  0     0.0000    0.0500
ST24         ?    ?    ? S      ? 20001213 1510    5.6100 GAU  2.00e-02 -1.00e+00 -1.00e+00 -1.00e+00    1.0000 >    3.6422    0.7023    0.3984   55.9556   22.3725    0.0000   10.9626 133.38 313.4 200.0  0     0.0000    0.0728
ST23         ?    ?    ? P      ? 20001213 1510    3.3400 GAU  2.00e-02 -1.00e+00 -1.00e+00 -1.00e+00    1.0000 >    2.0895   -0.0151    2.2906   38.6464   35.8493    0.0000   11.0741 302.48 122.5 200.0  0     0.0000    0.0500
ST23         ?    ?    ? S      ? 20001213 1510    4.9000 GAU  2.00e-02 -1.00e+00 -1.00e+00 -1.00e+00    1.0000 >    3.6793   -0.0448    2.0041   38.6464   35.8493    0.0000   11.0741 302.48 122.5 200.0  0     0.0000    0.0736
ST26         ?    ?    ? P      ? 20001213 1510    3.7100 GAU  2.00e-02 -1.00e+00 -1.00e+00 -1.00e+00    1.0000 >    2.1309    0.3136    0.7365   52.5727   19.5815    0.0000   11.2932 156.05 336.0 200.0  0     0.0000    0.0500
ST26         ?    ?    ? S      ? 20001213 1510    5.5800 GAU  2.00e-02 -1.00e+00 -1.00e+00 -1.00e+00    1.0000 >    3.7520    0.5624    0.3556   52.5727   19.5815    0.0000   11.2932 156.05 336.0 200.0  0     0.0000    0.0750
ST25         ?    ?    ? P      ? 20001213 1510    3.6600 GAU  2.00e-02 -1.00e+00 -1.00e+00 -1.00e+00    1.0000 >    2.3713    0.0231    2.2680   35.8320   33.0917    0.0000   12.5677 284.70 104.7 200.0  0     0.0000    0.0500
ST25         ?    ?    ? S      ? 20001213 1510    5.4500 GAU  2.00e-02 -1.00e+00 -1.00e+00 -1.00e+00    1.0000 >    4.1754    0.0090    2.0648   35.8320   33.0917    0.0000   12.5677 284.70 104.7 200.0  0     0.0000    0.0835
ST21         ?    ?    ? P      ? 20001213 1510    4.4600 GAU  2.00e-02 -1.00e+00 -1.00e+00 -1.00e+00    1.0000 >    3.0921    0.1023    1.6390   36.1150   41.1978    0.0000   16.3879 313.57 133.6 200.0  0     0.0000    0.0618
ST21         ?    ?    ? S      ? 20001213 1510    6.7500 GAU  2.00e-02 -1.00e+00 -1.00e+00 -1.00e+00    1.0000 >    5.4446    0.0399    1.8562   36.1150   41.1978    0.0000   16.3879 313.57 133.6 200.0  0     0.0000    0.1089
ST0          ?    ?    ? P      ? 20001213 1510    5.4900 GAU  2.00e-02 -1.00e+00 -1.00e+00 -1.00e+00    1.0000 >    3.5146    0.7099    0.3921   57.5022   13.8883    0.0000   18.6270 149.29 329.3 200.0  0     0.0000    0.0703
ST0          ?    ?    ? S      ? 20001213 1510    8.5300 GAU  2.00e-02 -1.00e+00 -1.00e+00 -1.00e+00    1.0000 >    6.1885    1.0760    0.0899   57.5022   13.8883    0.0000   18.6270 149.29 329.3 200.0  0     0.0000    0.1238
ST17         ?    ?    ? P      ? 20001213 1510    5.5100 GAU  2.00e-02 -1.00e+00 -1.00e+00 -1.00e+00    1.0000 >    3.5320    0.7124    0.3893   64.4820   21.0492    0.0000   18.7195 118.22 298.2 200.0  0     0.0000    0.0706
ST17         ?    ?    ? S      ? 20001213 1510    8.5800 GAU  2.00e-02 -1.00e+00 -1.00e+00 -1.00e+00    1.0000 >    6.2192    1.0952    0.0857   64.4820   21.0492    0.0000   18.7195 118.22 298.2 200.0  0     0.0000    0.1244
ST1          ?    ?    ? P      ? 20001213 1510    5.2900 GAU  2.00e-02 -1.00e+00 -1.00e+00 -1.00e+00    1.0000 >    3.7886    0.2359    0.9256   36.2928   46.2238    0.0000   20.0792 324.38 144.4 200.0  0     0.0000    0.0758
ST1          ?    ?    ? S      ? 20001213 1510    8.1600 GAU  2.00e-02 -1.00e+00 -1.00e+00 -1.00e+00    1.0000 >    6.6709    0.2235    1.1381   36.2928   46.2238    0.0000   20.0792 324.38 144.4 200.0  0     0.0000    0.1334
ST14         ?    ?    ? P      ? 20001213 1510    5.1900 GAU  2.00e-02 -1.00e+00 -1.00e+00 -1.00e+00    1.0000 >    3.8649    0.0596    1.9436   58.1038   47.7138    0.0000   20.4834  29.59 209.6 200.0  0     0.0000    0.0773
ST14         ?    ?    ? S      ? 20001213 1510    8.1100 GAU  2.00e-02 -1.00e+00 -1.00e+00 -1.00e+00    1.0000 >    6.8052    0.0392    1.7163   58.1038   47.7138    0.0000   20.4834  29.59 209.6 200.0  0     0.0000    0.1361
ST16         ?    ?    ? P      ? 20001213 1510    5.7700 GAU  2.00e-02 -1.00e+00 -1.00e+00 -1.00e+00    1.0000 >    4.2857    0.2188    1.0206   39.8239    8.7066    0.0000   22.7138 201.07  21.1 200.0  0     0.0000    0.0857
ST16         ?    ?    ? S      ? 20001213 1510    8.9400 GAU  2.00e-02 -1.00e+00 -1.00e+00 -1.00e+00    1.0000 >    7.5462    0.1282    1.4730   39.8239    8.7066    0.0000   22.7138 201.07  21.1 200.0  0     0.0000    0.1509
ST7          ?    ?    ? P      ? 20001213 1510    6.3800 GAU  2.00e-02 -1.00e+00 -1.00e+00 -1.00e+00    1.0000 >    4.8281    0.2863    0.8540   22.5319   32.5023    0.0000   25.5888 275.83  95.8 200.0  0     0.0000    0.0966
ST7          ?    ?    ? S      ? 20001213 1510   10.3000 GAU  2.00e-02 -1.00e+00 -1.00e+00 -1.00e+00    1.0000 >    8.5013    0.5331    0.5199   22.5319   32.5023    0.0000   25.5888 275.83  95.8 200.0  0     0.0000    0.1700
ST4          ?    ?    ? P      ? 20001213 1510    6.5800 GAU  2.00e-02 -1.00e+00 -1.00e+00 -1.00e+00    1.0000 >    5.3778   -0.0634    1.7317   28.7854    8.8400    0.0000   28.5021 222.36  42.4 200.0  0     0.0000    0.1076
ST4          ?    ?    ? S      ? 20001213 1510   10.2400 GAU  2.00e-02 -1.00e+00 -1.00e+00 -1.00e+00    1.0000 >    9.4692   -0.4948    0.4193   28.7854    8.8400    0.0000   28.5021 222.36  42.4 200.0  0     0.0000    0.1894
ST6          ?    ?    ? P      ? 20001213 1510    6.5500 GAU  2.00e-02 -1.00e+00 -1.00e+00 -1.00e+00    1.0000 >    5.6088   -0.3244    0.5080   64.5535   54.5857    0.0000   29.7266  33.87 213.9 200.0  0     0.0000    0.1122
ST6          ?    ?    ? S      ? 20001213 1510   10.4000 GAU  2.00e-02 -1.00e+00 -1.00e+00 -1.00e+00    1.0000 >    9.8760   -0.7416    0.2924   64.5535   54.5857    0.0000   29.7266  33.87 213.9 200.0  0     0.0000    0.1975
ST8          ?    ?    ? P      ? 20001213 1510    7.4700 GAU  2.00e-02 -1.00e+00 -1.00e+00 -1.00e+00    1.0000 >    5.8414    0.3630    0.7030   21.2005   45.4232    0.0000   30.9593 300.09 120.1 200.0  0     0.0000    0.1168
ST8          ?    ?    ? S      ? 20001213 1510   12.0800 GAU  2.00e-02 -1.00e+00 -1.00e+00 -1.00e+00    1.0000 >   10.2856    0.5289    0.5634   21.2005   45.4232    0.0000   30.9593 300.09 120.1 200.0  0     0.0000    0.2057
ST20         ?    ?    ? P      ? 20001213 1510    7.3400 GAU  2.00e-02 -1.00e+00 -1.00e+00 -1.00e+00    1.0000 >    6.0780   -0.0035    1.8056   26.5943   53.9852    0.0000   32.2131 318.38 138.4 200.0  0     0.0000    0.1216
ST20         ?    ?    ? S      ? 20001213 1510   11.7800 GAU  2.00e-02 -1.00e+00 -1.00e+00 -1.00e+00    1.0000 >   10.7021   -0.1877    1.0896   26.5943   53.9852    0.0000   32.2131 318.38 138.4 200.0  0     0.0000    0.2140
ST22         ?    ?    ? P      ? 20001213 1510    7.5000 GAU  2.00e-02 -1.00e+00 -1.00e+00 -1.00e+00    1.0000 >    6.3142   -0.0797    1.5868   26.8589   55.8533    0.0000   33.4650 320.85 140.8 200.0  0     0.0000    0.1263
ST22         ?    ?    ? S      ? 20001213 1510   12.0000 GAU  2.00e-02 -1.00e+00 -1.00e+00 -1.00e+00    1.0000 >   11.1180   -0.3835    0.6371   26.8589   55.8533    0.0000   33.4650 320.85 140.8 200.0  0     0.0000    0.2224
ST12         ?    ?    ? P      ? 20001213 1510    7.5600 GAU  2.00e-02 -1.00e+00 -1.00e+00 -1.00e+00    1.0000 >    6.6312   -0.3367    0.5387   31.4703   60.9238    0.0000   35.1450 331.97 152.0 200.0  0     0.0000    0.1326
ST12         ?    ?    ? S      ? 20001213 1510   12.0400 GAU  2.00e-02 -1.00e+00 -1.00e+00 -1.00e+00    1.0000 >   11.6762   -0.9017    0.2461   31.4703   60.9238    0.0000   35.1450 331.97 152.0 200.0  0     0.0000    0.2335
ST9          ?    ?    ? P      ? 20001213 1510    8.3500 GAU  2.00e-02 -1.00e+00 -1.00e+00 -1.00e+00    1.0000 >    7.2980   -0.2135    0.9754    9.8992   23.1731    0.0000   38.6790 259.98  80.0 200.0  0     0.0000    0.1460
ST9          ?    ?    ? S      ? 20001213 1510   13.6600 GAU  2.00e-02 -1.00e+00 -1.00e+00 -1.00e+00    1.0000 >   12.8502   -0.4558    0.5685    9.8992   23.1731    0.0000   38.6790 259.98  80.0 200.0  0     0.0000    0.2570
ST5          ?    ?    ? P      ? 20001213 1510    8.7200 GAU  2.00e-02 -1.00e+00 -1.00e+00 -1.00e+00    1.0000 >    8.1702   -0.7158    0.2888   45.9261   73.1552    0.0000   43.3020 357.27 177.3 200.0  0     0.0000    0.1634
ST5          ?    ?    ? S      ? 20001213 1510   13.8600 GAU  2.00e-02 -1.00e+00 -1.00e+00 -1.00e+00    1.0000 >   14.3861   -1.7917    0.1148   45.9261   73.1552    0.0000   43.3020 357.27 177.3 200.0  0     0.0000    0.2877
ST3          ?    ?    ? P      ? 20001213 1510    9.1900 GAU  2.00e-02 -1.00e+00 -1.00e+00 -1.00e+00    1.0000 >    8.7769   -0.8524    0.2532   17.1949   64.7711    0.0000   46.5195 318.55 138.6 200.0  0     0.0000    0.1755
ST3          ?    ?    ? S      ? 20001213 1510   14.8800 GAU  2.00e-02 -1.00e+00 -1.00e+00 -1.00e+00    1.0000 >   15.4543   -1.8399    0.1116   17.1949   64.7711    0.0000   46.5195 318.55 138.6 200.0  0     0.0000    0.3091
ST10         ?    ?    ? P      ? 20001213 1510    9.3200 GAU  2.00e-02 -1.00e+00 -1.00e+00 -1.00e+00    1.0000 >    9.0306   -0.9762    0.2090   21.1066   69.5192    0.0000   47.8761 325.84 145.8 200.0  0     0.0000    0.1806
ST10         ?    ?    ? S      ? 20001213 1510   15.1500 GAU  2.00e-02 -1.00e+00 -1.00e+00 -1.00e+00    1.0000 >   15.9014   -2.0169    0.0931   21.1066   69.5192    0.0000   47.8761 325.84 145.8 200.0  0     0.0000    0.3180
ST11         ?    ?    ? P      ? 20001213 1510   11.2500 GAU  2.00e-02 -1.00e+00 -1.00e+00 -1.00e+00    1.0000 >   11.3673   -1.3829    0.1282   13.0335   79.7825    0.0000   60.9086 324.98 145.0 200.0  0     0.0000    0.2273
ST11         ?    ?    ? S      ? 20001213 1510   18.7000 GAU  2.00e-02 -1.00e+00 -1.00e+00 -1.00e+00    1.0000 >   20.0175   -2.5831    0.0404   13.0335   79.7825    0.0000   60.9086 324.98 145.0 200.0  0     0.0000    0.4004
ST2          ?    ?    ? P      ? 20001213 1510   12.2700 GAU  2.00e-02 -1.00e+00 -1.00e+00 -1.00e+00    1.0000 >   12.5230   -1.5185    0.1267   36.5585   96.8954    0.0000   67.9611 350.32 170.3 200.0  0     0.0000    0.2505
ST2          ?    ?    ? S      ? 20001213 1510   19.8700 GAU  2.00e-02 -1.00e+00 -1.00e+00 -1.00e+00    1.0000 >   22.0543   -3.4499    0.0088   36.5585   96.8954    0.0000   67.9611 350.32 170.3 200.0  0     0.0000    0.4411
END_PHASE
END_NLLOC

