NLLOC "./loc/alaska.20001213.151002_014.grid0" "LOCATED" "Location completed."
PUBLIC_ID None
SIGNATURE "NonLinLoc - Yifan Yu   obs:./obs/phase.obs   NLLoc:v7.00.16(17Apr2023)   run:24Aug2023 11h42m40"
COMMENT "2023-8-21 test"
GRID  201 201 41  0 0 0  0.5 0.5 0.5 PROB_DENSITY
SEARCH OCTREE nInitial 400 nEvaluated 20000 smallestNodeSide 0.039062/0.039062/0.019531 oct_tree_integral 3.778644e-01 scatter_volume 3.680953e-01
HYPOCENTER  x 29.6289 y 58.3789 z 4.6582  OT 0.955895  ix -1 iy -1 iz -1 MAXIMUM_LIKELIHOOD
GEOGRAPHIC  OT 2000 12 13  15 10 0.955895  Lat 35.925013 Long -117.670951 Depth 4.658203
QUALITY  Pmax 1.1691e+88 MFmin 51.2278 MFmax 52.823 RMS 0.218867 Nphs 30 Gap 94.5691 Dist 3.14122 Mamp -9.90 0 Mdur -9.90 0
VPVSRATIO  VpVsRatio 1.69901  Npair 10  Diff 4.77
STATISTICS  ExpectX 29.599188 Y 58.409347 Z 5.088041  CovXX 0.337526 XY -0.107256 XZ -0.728951 YY 0.129316 YZ 0.369753 ZZ 3.43282 EllAz1  15.3415 Dip1  -2.7965 Len1  0.535258 Az2  284.654 Dip2  -13.799 Len2  0.798269 Len3  3.583584e+00
STAT_GEOG  ExpectLat 35.925287 Long -117.671280 Depth 5.088041
TRANSFORM  SIMPLE LatOrig 35.400000  LongOrig -118.000000  RotCW 0.000000
QML_OriginQuality  assocPhCt 30  usedPhCt 30  assocStaCt -1  usedStaCt 20  depthPhCt -1  stdErr 0.218867  azGap 94.5691  secAzGap 94.9414  gtLevel -  minDist 3.14122 maxDist 52.5008 medDist 28.7451
QML_OriginUncertainty  horUnc -1  minHorUnc 0.439414  maxHorUnc 0.938431  azMaxHorUnc 112.927
QML_ConfidenceEllipsoid  semiMajorAxisLength 3.58358  semiMinorAxisLength 0.535258  semiIntermediateAxisLength 0.798269  majorAxisPlunge -75.9095  majorAxisAzimuth 116.563  majorAxisRotation 166.935
FOCALMECH  Hyp  35.925013 -117.670951 4.658203 Mech  0 0 0 mf  0 nObs -1
PHASE ID Ins Cmp On Pha  FM Date     HrMn   Sec     Err  ErrMag    Coda      Amp       Per       PriorWt  >   TTpred    Res       Weight    StaLoc(X  Y         Z)        SDist    SAzim  RAz  RDip RQual    Tcorr       TTerr
ST12         ?    ?    ? P      ? 20001213 1510    2.3000 GAU  2.00e-02 -1.00e+00 -1.00e+00 -1.00e+00    1.0000 >    1.0545    0.2896    0.6208   31.4703   60.9238    0.0000    3.1412  35.89  35.9 144.8  9     0.0000    0.0500
ST12         ?    ?    ? S      ? 20001213 1510    2.8800 GAU  2.00e-02 -1.00e+00 -1.00e+00 -1.00e+00    1.0000 >    1.9442   -0.0201    1.6287   31.4703   60.9238    0.0000    3.1412  35.89  35.9 142.2  9     0.0000    0.0500
ST22         ?    ?    ? P      ? 20001213 1510    2.0800 GAU  2.00e-02 -1.00e+00 -1.00e+00 -1.00e+00    1.0000 >    1.1213    0.0028    1.6577   26.8589   55.8533    0.0000    3.7486 227.64 227.6 139.5  9     0.0000    0.0500
ST22         ?    ?    ? S      ? 20001213 1510    2.9100 GAU  2.00e-02 -1.00e+00 -1.00e+00 -1.00e+00    1.0000 >    2.0628   -0.1087    1.0871   26.8589   55.8533    0.0000    3.7486 227.64 227.6 136.1  9     0.0000    0.0500
ST20         ?    ?    ? P      ? 20001213 1510    2.4500 GAU  2.00e-02 -1.00e+00 -1.00e+00 -1.00e+00    1.0000 >    1.3283    0.1658    1.0626   26.5943   53.9852    0.0000    5.3398 214.63 214.6 127.3  9     0.0000    0.0500
ST20         ?    ?    ? S      ? 20001213 1510    3.4200 GAU  2.00e-02 -1.00e+00 -1.00e+00 -1.00e+00    1.0000 >    2.4380    0.0261    1.6259   26.5943   53.9852    0.0000    5.3398 214.63 214.6 119.9  9     0.0000    0.0500
ST10         ?    ?    ? P      ? 20001213 1510    3.7000 GAU  2.00e-02 -1.00e+00 -1.00e+00 -1.00e+00    1.0000 >    2.7745   -0.0304    1.5843   21.1066   69.5192    0.0000   14.0263 322.58 322.6 100.2  9     0.0000    0.0555
ST10         ?    ?    ? S      ? 20001213 1510    5.6300 GAU  2.00e-02 -1.00e+00 -1.00e+00 -1.00e+00    1.0000 >    4.9574   -0.2833    0.6139   21.1066   69.5192    0.0000   14.0263 322.58 322.6  94.9  9     0.0000    0.0991
ST8          ?    ?    ? P      ? 20001213 1510    4.1900 GAU  2.00e-02 -1.00e+00 -1.00e+00 -1.00e+00    1.0000 >    3.0272    0.2069    0.9651   21.2005   45.4232    0.0000   15.4560 213.05 213.0  98.7  9     0.0000    0.0605
ST21         ?    ?    ? P      ? 20001213 1510    4.8100 GAU  2.00e-02 -1.00e+00 -1.00e+00 -1.00e+00    1.0000 >    3.5433    0.3108    0.5668   36.1150   41.1978    0.0000   18.3646 159.32 159.3  96.7  9     0.0000    0.0709
ST21         ?    ?    ? S      ? 20001213 1510    7.1500 GAU  2.00e-02 -1.00e+00 -1.00e+00 -1.00e+00    1.0000 >    6.2028   -0.0087    1.4059   36.1150   41.1978    0.0000   18.3646 159.32 159.3  70.6  8     0.0000    0.1241
ST5          ?    ?    ? P      ? 20001213 1510    5.2500 GAU  2.00e-02 -1.00e+00 -1.00e+00 -1.00e+00    1.0000 >    4.1897    0.1044    1.3699   45.9261   73.1552    0.0000   21.9986  47.80  47.8  95.2  9     0.0000    0.0838
ST5          ?    ?    ? S      ? 20001213 1510    8.1200 GAU  2.00e-02 -1.00e+00 -1.00e+00 -1.00e+00    1.0000 >    7.1447    0.0194    1.3637   45.9261   73.1552    0.0000   21.9986  47.80  47.8  58.5  9     0.0000    0.1429
ST23         ?    ?    ? P      ? 20001213 1510    5.5700 GAU  2.00e-02 -1.00e+00 -1.00e+00 -1.00e+00    1.0000 >    4.5938    0.0203    1.5278   38.6464   35.8493    0.0000   24.2672 158.19 158.2  94.6  9     0.0000    0.0919
ST23         ?    ?    ? S      ? 20001213 1510    8.5800 GAU  2.00e-02 -1.00e+00 -1.00e+00 -1.00e+00    1.0000 >    7.7137   -0.0896    1.1962   38.6464   35.8493    0.0000   24.2672 158.19 158.2  56.4 10     0.0000    0.1543
ST7          ?    ?    ? P      ? 20001213 1510    6.1000 GAU  2.00e-02 -1.00e+00 -1.00e+00 -1.00e+00    1.0000 >    5.0510    0.0931    1.3944   22.5319   32.5023    0.0000   26.8322 195.34 195.3  94.0  9     0.0000    0.1010
ST11         ?    ?    ? S      ? 20001213 1510    9.4700 GAU  2.00e-02 -1.00e+00 -1.00e+00 -1.00e+00    1.0000 >    8.4097    0.1044    1.2276   13.0335   79.7825    0.0000   27.0836 322.21 322.2  55.7 10     0.0000    0.1682
ST14         ?    ?    ? P      ? 20001213 1510    6.2400 GAU  2.00e-02 -1.00e+00 -1.00e+00 -1.00e+00    1.0000 >    5.6883   -0.4042    0.5892   58.1038   47.7138    0.0000   30.4066 110.53 110.5  93.4  9     0.0000    0.1138
ST14         ?    ?    ? S      ? 20001213 1510   10.0500 GAU  2.00e-02 -1.00e+00 -1.00e+00 -1.00e+00    1.0000 >    9.2278   -0.1337    1.0841   58.1038   47.7138    0.0000   30.4066 110.53 110.5  55.5 10     0.0000    0.1846
ST15         ?    ?    ? P      ? 20001213 1510    6.7900 GAU  2.00e-02 -1.00e+00 -1.00e+00 -1.00e+00    1.0000 >    6.5004   -0.6663    0.5295   38.9482   24.6853    0.0000   34.9586 164.54 164.5  92.9  9     0.0000    0.1300
ST13         ?    ?    ? P      ? 20001213 1510    7.3300 GAU  2.00e-02 -1.00e+00 -1.00e+00 -1.00e+00    1.0000 >    6.7907   -0.4166    0.6167   52.0625   29.4778    0.0000   36.5860 142.18 142.2  92.7  9     0.0000    0.1358
ST13         ?    ?    ? S      ? 20001213 1510   11.6100 GAU  2.00e-02 -1.00e+00 -1.00e+00 -1.00e+00    1.0000 >   10.7484   -0.0943    1.1100   52.0625   29.4778    0.0000   36.5860 142.18 142.2  55.5 10     0.0000    0.2150
ST2          ?    ?    ? P      ? 20001213 1510    7.4700 GAU  2.00e-02 -1.00e+00 -1.00e+00 -1.00e+00    1.0000 >    7.2455   -0.7314    0.4470   36.5585   96.8954    0.0000   39.1349  10.20  10.2  92.5  9     0.0000    0.1449
ST18         ?    ?    ? P      ? 20001213 1510    7.6700 GAU  2.00e-02 -1.00e+00 -1.00e+00 -1.00e+00    1.0000 >    7.3394   -0.6253    0.5587   45.8666   22.1945    0.0000   39.6607 155.83 155.8  92.5  9     0.0000    0.1468
ST9          ?    ?    ? P      ? 20001213 1510    7.7500 GAU  2.00e-02 -1.00e+00 -1.00e+00 -1.00e+00    1.0000 >    7.4637   -0.6696    0.5191    9.8992   23.1731    0.0000   40.3573 209.27 209.3  92.4  9     0.0000    0.1493
ST24         ?    ?    ? P      ? 20001213 1510    8.5300 GAU  2.00e-02 -1.00e+00 -1.00e+00 -1.00e+00    1.0000 >    8.2217   -0.6476    0.5335   55.9556   22.3725    0.0000   44.6045 143.83 143.8  92.1  9     0.0000    0.1644
ST24         ?    ?    ? S      ? 20001213 1510   13.8800 GAU  2.00e-02 -1.00e+00 -1.00e+00 -1.00e+00    1.0000 >   12.7214    0.2027    0.9007   55.9556   22.3725    0.0000   44.6045 143.83 143.8  55.5 10     0.0000    0.2544
ST26         ?    ?    ? P      ? 20001213 1510    8.7300 GAU  2.00e-02 -1.00e+00 -1.00e+00 -1.00e+00    1.0000 >    8.3055   -0.5314    0.6048   52.5727   19.5815    0.0000   45.0739 149.40 149.4  91.9  9     0.0000    0.1661
ST4          ?    ?    ? S      ? 20001213 1510   14.8700 GAU  2.00e-02 -1.00e+00 -1.00e+00 -1.00e+00    1.0000 >   13.9374   -0.0233    1.0418   28.7854    8.8400    0.0000   49.5461 180.98 181.0  55.5 10     0.0000    0.2787
ST0          ?    ?    ? P      ? 20001213 1510    9.9500 GAU  2.00e-02 -1.00e+00 -1.00e+00 -1.00e+00    1.0000 >    9.5875   -0.5934    0.5666   57.5022   13.8883    0.0000   52.5008 147.93 147.9  67.7  9     0.0000    0.1917
END_PHASE
END_NLLOC

