NLLOC "./loc/alaska.20001213.151002_002.grid0" "LOCATED" "Location completed."
PUBLIC_ID None
SIGNATURE "NonLinLoc - Yifan Yu   obs:./obs/phase.obs   NLLoc:v7.00.16(17Apr2023)   run:24Aug2023 11h42m42"
COMMENT "2023-8-21 test"
GRID  201 201 41  0 0 0  0.5 0.5 0.5 PROB_DENSITY
SEARCH OCTREE nInitial 400 nEvaluated 20000 smallestNodeSide 0.039062/0.039062/0.019531 oct_tree_integral 3.033376e-01 scatter_volume 3.032182e-01
HYPOCENTER  x 39.6289 y 39.4336 z 6.51367  OT 1.01046  ix -1 iy -1 iz -1 MAXIMUM_LIKELIHOOD
GEOGRAPHIC  OT 2000 12 13  15 10 1.010456  Lat 35.754634 Long -117.560839 Depth 6.513672
QUALITY  Pmax 2.1395e+134 MFmin 70.5533 MFmax 70.9964 RMS 0.159771 Nphs 41 Gap 60.6325 Dist 3.71651 Mamp -9.90 0 Mdur -9.90 0
VPVSRATIO  VpVsRatio 1.68617  Npair 14  Diff 5.4
STATISTICS  ExpectX 39.548863 Y 39.408370 Z 6.690293  CovXX 0.0813507 XY 0.0289525 XZ -0.0579571 YY 0.0635974 YZ -0.0425383 ZZ 0.382013 EllAz1  323.455 Dip1  -0.0565499 Len1  0.38592 Az2  233.442 Dip2  -13.6215 Len2  0.548849 Len3  1.187436e+00
STAT_GEOG  ExpectLat 35.754408 Long -117.561727 Depth 6.690293
TRANSFORM  SIMPLE LatOrig 35.400000  LongOrig -118.000000  RotCW 0.000000
QML_OriginQuality  assocPhCt 41  usedPhCt 41  assocStaCt -1  usedStaCt 27  depthPhCt -1  stdErr 0.159771  azGap 60.6325  secAzGap 61.7625  gtLevel -  minDist 3.71651 maxDist 57.5438 medDist 22.9867
QML_OriginUncertainty  horUnc -1  minHorUnc 0.311512  maxHorUnc 0.486149  azMaxHorUnc 53.5226
QML_ConfidenceEllipsoid  semiMajorAxisLength 1.18744  semiMinorAxisLength 0.38592  semiIntermediateAxisLength 0.548849  majorAxisPlunge -76.3784  majorAxisAzimuth 53.6888  majorAxisRotation 179.73
FOCALMECH  Hyp  35.754634 -117.560839 6.513672 Mech  0 0 0 mf  0 nObs -1
PHASE ID Ins Cmp On Pha  FM Date     HrMn   Sec     Err  ErrMag    Coda      Amp       Per       PriorWt  >   TTpred    Res       Weight    StaLoc(X  Y         Z)        SDist    SAzim  RAz  RDip RQual    Tcorr       TTerr
ST23         ?    ?    ? P      ? 20001213 1510    2.4000 GAU  2.00e-02 -1.00e+00 -1.00e+00 -1.00e+00    1.0000 >    1.3909   -0.0014    1.7753   38.6464   35.8493    0.0000    3.7165 195.33 195.3 149.9  9     0.0000    0.0500
ST23         ?    ?    ? S      ? 20001213 1510    3.4600 GAU  2.00e-02 -1.00e+00 -1.00e+00 -1.00e+00    1.0000 >    2.4752   -0.0256    1.7418   38.6464   35.8493    0.0000    3.7165 195.33 195.3 143.3  9     0.0000    0.0500
ST21         ?    ?    ? P      ? 20001213 1510    2.4300 GAU  2.00e-02 -1.00e+00 -1.00e+00 -1.00e+00    1.0000 >    1.4104    0.0091    1.7696   36.1150   41.1978    0.0000    3.9319 296.66 296.7 148.5  9     0.0000    0.0500
ST25         ?    ?    ? S      ? 20001213 1510    4.1700 GAU  2.00e-02 -1.00e+00 -1.00e+00 -1.00e+00    1.0000 >    3.2167   -0.0571    1.5997   35.8320   33.0917    0.0000    7.3917 210.91 210.9 112.7  9     0.0000    0.0643
ST1          ?    ?    ? P      ? 20001213 1510    2.9300 GAU  2.00e-02 -1.00e+00 -1.00e+00 -1.00e+00    1.0000 >    1.8461    0.0734    1.4912   36.2928   46.2238    0.0000    7.5655 333.83 333.8 127.7  9     0.0000    0.0500
ST1          ?    ?    ? S      ? 20001213 1510    4.5000 GAU  2.00e-02 -1.00e+00 -1.00e+00 -1.00e+00    1.0000 >    3.2586    0.2310    0.5915   36.2928   46.2238    0.0000    7.5655 333.83 333.8 111.5  9     0.0000    0.0652
ST19         ?    ?    ? S      ? 20001213 1510    5.8700 GAU  2.00e-02 -1.00e+00 -1.00e+00 -1.00e+00    1.0000 >    4.9722   -0.1127    1.3150   47.2048   27.2984    0.0000   14.3058 148.02 148.0  89.9  9     0.0000    0.0994
ST15         ?    ?    ? P      ? 20001213 1510    3.8200 GAU  2.00e-02 -1.00e+00 -1.00e+00 -1.00e+00    1.0000 >    2.9897   -0.1802    0.9379   38.9482   24.6853    0.0000   14.7640 182.64 182.6 109.4  9     0.0000    0.0598
ST15         ?    ?    ? S      ? 20001213 1510    5.7100 GAU  2.00e-02 -1.00e+00 -1.00e+00 -1.00e+00    1.0000 >    5.0899   -0.3903    0.4538   38.9482   24.6853    0.0000   14.7640 182.64 182.6  88.6  9     0.0000    0.1018
ST13         ?    ?    ? P      ? 20001213 1510    4.2400 GAU  2.00e-02 -1.00e+00 -1.00e+00 -1.00e+00    1.0000 >    3.1875    0.0421    1.6355   52.0625   29.4778    0.0000   15.9283 128.68 128.7 107.8  9     0.0000    0.0637
ST13         ?    ?    ? S      ? 20001213 1510    6.5900 GAU  2.00e-02 -1.00e+00 -1.00e+00 -1.00e+00    1.0000 >    5.3866    0.1930    0.8640   52.0625   29.4778    0.0000   15.9283 128.68 128.7  85.3  9     0.0000    0.1077
ST18         ?    ?    ? S      ? 20001213 1510    7.0100 GAU  2.00e-02 -1.00e+00 -1.00e+00 -1.00e+00    1.0000 >    5.9874    0.0122    1.4690   45.8666   22.1945    0.0000   18.3329 160.11 160.1  78.6  8     0.0000    0.1197
ST7          ?    ?    ? P      ? 20001213 1510    4.6500 GAU  2.00e-02 -1.00e+00 -1.00e+00 -1.00e+00    1.0000 >    3.6210    0.0185    1.6672   22.5319   32.5023    0.0000   18.4485 247.93 247.9 104.8  9     0.0000    0.0724
ST8          ?    ?    ? P      ? 20001213 1510    4.8800 GAU  2.00e-02 -1.00e+00 -1.00e+00 -1.00e+00    1.0000 >    3.7822    0.0874    1.3929   21.2005   45.4232    0.0000   19.3773 288.01 288.0 103.9  9     0.0000    0.0756
ST20         ?    ?    ? P      ? 20001213 1510    4.8100 GAU  2.00e-02 -1.00e+00 -1.00e+00 -1.00e+00    1.0000 >    3.8097   -0.0102    1.6679   26.5943   53.9852    0.0000   19.5359 318.15 318.1 103.8  9     0.0000    0.0762
ST20         ?    ?    ? S      ? 20001213 1510    7.3300 GAU  2.00e-02 -1.00e+00 -1.00e+00 -1.00e+00    1.0000 >    6.2847    0.0349    1.4180   26.5943   53.9852    0.0000   19.5359 318.15 318.1  75.8  8     0.0000    0.1257
ST14         ?    ?    ? P      ? 20001213 1510    4.7600 GAU  2.00e-02 -1.00e+00 -1.00e+00 -1.00e+00    1.0000 >    3.9333   -0.1837    0.9666   58.1038   47.7138    0.0000   20.2456  65.86  65.9 103.2  9     0.0000    0.0787
ST14         ?    ?    ? S      ? 20001213 1510    7.4400 GAU  2.00e-02 -1.00e+00 -1.00e+00 -1.00e+00    1.0000 >    6.4596   -0.0301    1.4302   58.1038   47.7138    0.0000   20.2456  65.86  65.9  74.7  8     0.0000    0.1292
ST22         ?    ?    ? S      ? 20001213 1510    7.6700 GAU  2.00e-02 -1.00e+00 -1.00e+00 -1.00e+00    1.0000 >    6.5965    0.0631    1.3407   26.8589   55.8533    0.0000   20.8010 322.13 322.1  74.0  8     0.0000    0.1319
ST12         ?    ?    ? P      ? 20001213 1510    5.3200 GAU  2.00e-02 -1.00e+00 -1.00e+00 -1.00e+00    1.0000 >    4.4128   -0.1033    1.3659   31.4703   60.9238    0.0000   22.9867 339.21 339.2 101.2  9     0.0000    0.0883
ST12         ?    ?    ? S      ? 20001213 1510    8.0100 GAU  2.00e-02 -1.00e+00 -1.00e+00 -1.00e+00    1.0000 >    7.1346   -0.1350    1.1843   31.4703   60.9238    0.0000   22.9867 339.21 339.2  72.8  8     0.0000    0.1427
ST24         ?    ?    ? P      ? 20001213 1510    5.6800 GAU  2.00e-02 -1.00e+00 -1.00e+00 -1.00e+00    1.0000 >    4.5231    0.1465    1.0714   55.9556   22.3725    0.0000   23.6145 136.26 136.3 100.9  9     0.0000    0.0905
ST26         ?    ?    ? P      ? 20001213 1510    5.4700 GAU  2.00e-02 -1.00e+00 -1.00e+00 -1.00e+00    1.0000 >    4.5380   -0.0784    1.4619   52.5727   19.5815    0.0000   23.6991 146.90 146.9 100.8  9     0.0000    0.0908
ST26         ?    ?    ? S      ? 20001213 1510    8.6500 GAU  2.00e-02 -1.00e+00 -1.00e+00 -1.00e+00    1.0000 >    7.3099    0.3296    0.4438   52.5727   19.5815    0.0000   23.6991 146.90 146.9  72.6  8     0.0000    0.1462
ST6          ?    ?    ? P      ? 20001213 1510    6.0100 GAU  2.00e-02 -1.00e+00 -1.00e+00 -1.00e+00    1.0000 >    5.5026   -0.5031    0.3934   64.5535   54.5857    0.0000   29.1688  58.70  58.7  98.5  9     0.0000    0.1101
ST6          ?    ?    ? S      ? 20001213 1510    9.5200 GAU  2.00e-02 -1.00e+00 -1.00e+00 -1.00e+00    1.0000 >    8.6558   -0.1463    1.1154   64.5535   54.5857    0.0000   29.1688  58.70  58.7  72.4  8     0.0000    0.1731
ST16         ?    ?    ? P      ? 20001213 1510    6.1800 GAU  2.00e-02 -1.00e+00 -1.00e+00 -1.00e+00    1.0000 >    5.7785   -0.6089    0.3353   39.8239    8.7066    0.0000   30.7276 179.64 179.6  97.9  9     0.0000    0.1156
ST16         ?    ?    ? S      ? 20001213 1510   10.2100 GAU  2.00e-02 -1.00e+00 -1.00e+00 -1.00e+00    1.0000 >    9.0394    0.1602    0.9816   39.8239    8.7066    0.0000   30.7276 179.64 179.6  72.4  8     0.0000    0.1808
ST17         ?    ?    ? P      ? 20001213 1510    6.8100 GAU  2.00e-02 -1.00e+00 -1.00e+00 -1.00e+00    1.0000 >    5.8114   -0.0119    1.4917   64.4820   21.0492    0.0000   30.9138 126.49 126.5  97.9  9     0.0000    0.1162
ST17         ?    ?    ? S      ? 20001213 1510   10.8100 GAU  2.00e-02 -1.00e+00 -1.00e+00 -1.00e+00    1.0000 >    9.0852    0.7144    0.0414   64.4820   21.0492    0.0000   30.9138 126.49 126.5  72.4  8     0.0000    0.1817
ST0          ?    ?    ? S      ? 20001213 1510   10.4700 GAU  2.00e-02 -1.00e+00 -1.00e+00 -1.00e+00    1.0000 >    9.1500    0.3095    0.5591   57.5022   13.8883    0.0000   31.1772 145.02 145.0  72.4  8     0.0000    0.1830
ST4          ?    ?    ? P      ? 20001213 1510    6.3900 GAU  2.00e-02 -1.00e+00 -1.00e+00 -1.00e+00    1.0000 >    6.0851   -0.7056    0.2545   28.7854    8.8400    0.0000   32.4584 199.52 199.5  97.4  9     0.0000    0.1217
ST3          ?    ?    ? P      ? 20001213 1510    6.6300 GAU  2.00e-02 -1.00e+00 -1.00e+00 -1.00e+00    1.0000 >    6.3304   -0.7109    0.2509   17.1949   64.7711    0.0000   33.8419 318.48 318.5  97.0  9     0.0000    0.1266
ST3          ?    ?    ? S      ? 20001213 1510   10.4800 GAU  2.00e-02 -1.00e+00 -1.00e+00 -1.00e+00    1.0000 >    9.8057   -0.3362    0.7019   17.1949   64.7711    0.0000   33.8419 318.48 318.5  72.4  8     0.0000    0.1961
ST9          ?    ?    ? P      ? 20001213 1510    6.9500 GAU  2.00e-02 -1.00e+00 -1.00e+00 -1.00e+00    1.0000 >    6.3383   -0.3987    0.4890    9.8992   23.1731    0.0000   33.8860 241.32 241.3  97.0  9     0.0000    0.1268
ST9          ?    ?    ? S      ? 20001213 1510   10.7500 GAU  2.00e-02 -1.00e+00 -1.00e+00 -1.00e+00    1.0000 >    9.8166   -0.0770    1.1738    9.8992   23.1731    0.0000   33.8860 241.32 241.3  72.4  8     0.0000    0.1963
ST5          ?    ?    ? P      ? 20001213 1510    6.8400 GAU  2.00e-02 -1.00e+00 -1.00e+00 -1.00e+00    1.0000 >    6.4125   -0.5830    0.3550   45.9261   73.1552    0.0000   34.3046  10.58  10.6  96.9  9     0.0000    0.1283
ST10         ?    ?    ? S      ? 20001213 1510   10.8800 GAU  2.00e-02 -1.00e+00 -1.00e+00 -1.00e+00    1.0000 >   10.1719   -0.3024    0.7735   21.1066   69.5192    0.0000   35.3301 328.38 328.4  72.4  8     0.0000    0.2034
ST11         ?    ?    ? P      ? 20001213 1510    8.4700 GAU  2.00e-02 -1.00e+00 -1.00e+00 -1.00e+00    1.0000 >    8.7727   -1.3132    0.0301   13.0335   79.7825    0.0000   48.3254 326.61 326.6  64.6 10     0.0000    0.1755
ST2          ?    ?    ? P      ? 20001213 1510   10.1800 GAU  2.00e-02 -1.00e+00 -1.00e+00 -1.00e+00    1.0000 >   10.2595   -1.0900    0.0689   36.5585   96.8954    0.0000   57.5438 356.94 356.9  64.6 10     0.0000    0.2052
ST2          ?    ?    ? S      ? 20001213 1510   16.6400 GAU  2.00e-02 -1.00e+00 -1.00e+00 -1.00e+00    1.0000 >   15.6379   -0.0083    0.9295   36.5585   96.8954    0.0000   57.5438 356.94 356.9  72.4  8     0.0000    0.3128
END_PHASE
END_NLLOC

