NLLOC "./loc/alaska.20001213.151002_015.grid0" "LOCATED" "Location completed."
PUBLIC_ID None
SIGNATURE "NonLinLoc - Yifan Yu   obs:./obs/phase.obs   NLLoc:v7.00.16(17Apr2023)   run:24Aug2023 11h42m41"
COMMENT "2023-8-21 test"
GRID  201 201 41  0 0 0  0.5 0.5 0.5 PROB_DENSITY
SEARCH OCTREE nInitial 400 nEvaluated 20000 smallestNodeSide 0.078125/0.078125/0.039062 oct_tree_integral 3.445198e+00 scatter_volume 3.444163e+00
HYPOCENTER  x 44.3359 y 28.4766 z 13.5742  OT 0.50355  ix -1 iy -1 iz -1 MAXIMUM_LIKELIHOOD
GEOGRAPHIC  OT 2000 12 13  15 10 0.503550  Lat 35.656096 Long -117.509283 Depth 13.574219
QUALITY  Pmax 2.49496e+94 MFmin 52.9982 MFmax 55.1209 RMS 0.178025 Nphs 31 Gap 44.8641 Dist 6.46583 Mamp -9.90 0 Mdur -9.90 0
VPVSRATIO  VpVsRatio 1.6985  Npair 9  Diff 5.37
STATISTICS  ExpectX 44.096060 Y 28.621750 Z 12.626261  CovXX 0.464529 XY -0.00345566 XZ 0.679779 YY 0.27439 YZ -0.352111 ZZ 2.29559 EllAz1  139.556 Dip1  -18.0967 Len1  0.667293 Az2  227.086 Dip2  7.5142 Len2  1.09374 Len3  3.011689e+00
STAT_GEOG  ExpectLat 35.657401 Long -117.511930 Depth 12.626261
TRANSFORM  SIMPLE LatOrig 35.400000  LongOrig -118.000000  RotCW 0.000000
QML_OriginQuality  assocPhCt 31  usedPhCt 31  assocStaCt -1  usedStaCt 22  depthPhCt -1  stdErr 0.178025  azGap 44.8641  secAzGap 54.923  gtLevel -  minDist 6.46583 maxDist 60.1011 medDist 22.9145
QML_OriginUncertainty  horUnc -1  minHorUnc 0.794325  maxHorUnc 1.03371  azMaxHorUnc 91.0409
QML_ConfidenceEllipsoid  semiMajorAxisLength 3.01169  semiMinorAxisLength 0.667293  semiIntermediateAxisLength 1.09374  majorAxisPlunge 70.3042  majorAxisAzimuth 115.464  majorAxisRotation 71.9771
FOCALMECH  Hyp  35.656096 -117.509283 13.574219 Mech  0 0 0 mf  0 nObs -1
PHASE ID Ins Cmp On Pha  FM Date     HrMn   Sec     Err  ErrMag    Coda      Amp       Per       PriorWt  >   TTpred    Res       Weight    StaLoc(X  Y         Z)        SDist    SAzim  RAz  RDip RQual    Tcorr       TTerr
ST18         ?    ?    ? P      ? 20001213 1510    3.1200 GAU  2.00e-02 -1.00e+00 -1.00e+00 -1.00e+00    1.0000 >    2.6526   -0.0362    1.3543   45.8666   22.1945    0.0000    6.4658 166.31 166.3 152.3  9     0.0000    0.0531
ST15         ?    ?    ? P      ? 20001213 1510    2.8500 GAU  2.00e-02 -1.00e+00 -1.00e+00 -1.00e+00    1.0000 >    2.6619   -0.3154    0.1725   38.9482   24.6853    0.0000    6.5880 234.87 234.9 151.9  9     0.0000    0.0532
ST15         ?    ?    ? S      ? 20001213 1510    3.9800 GAU  2.00e-02 -1.00e+00 -1.00e+00 -1.00e+00    1.0000 >    4.3302   -0.8537    0.0003   38.9482   24.6853    0.0000    6.5880 234.87 234.9 150.9  9     0.0000    0.0866
ST13         ?    ?    ? P      ? 20001213 1510    3.3500 GAU  2.00e-02 -1.00e+00 -1.00e+00 -1.00e+00    1.0000 >    2.7590    0.0874    1.3832   52.0625   29.4778    0.0000    7.7911  82.62  82.6 147.8  9     0.0000    0.0552
ST13         ?    ?    ? S      ? 20001213 1510    4.8900 GAU  2.00e-02 -1.00e+00 -1.00e+00 -1.00e+00    1.0000 >    4.4837   -0.0972    1.0711   52.0625   29.4778    0.0000    7.7911  82.62  82.6 146.8  9     0.0000    0.0897
ST25         ?    ?    ? P      ? 20001213 1510    3.4100 GAU  2.00e-02 -1.00e+00 -1.00e+00 -1.00e+00    1.0000 >    2.9337   -0.0273    1.3775   35.8320   33.0917    0.0000    9.6755 298.49 298.5 141.7  9     0.0000    0.0587
ST26         ?    ?    ? P      ? 20001213 1510    3.9100 GAU  2.00e-02 -1.00e+00 -1.00e+00 -1.00e+00    1.0000 >    3.1958    0.2106    1.1955   52.5727   19.5815    0.0000   12.1230 137.20 137.2 134.1  9     0.0000    0.0639
ST26         ?    ?    ? S      ? 20001213 1510    5.8300 GAU  2.00e-02 -1.00e+00 -1.00e+00 -1.00e+00    1.0000 >    5.1691    0.1574    1.3151   52.5727   19.5815    0.0000   12.1230 137.20 137.2 132.4  9     0.0000    0.1034
ST24         ?    ?    ? P      ? 20001213 1510    4.1200 GAU  2.00e-02 -1.00e+00 -1.00e+00 -1.00e+00    1.0000 >    3.3141    0.3023    0.9663   55.9556   22.3725    0.0000   13.1255 117.71 117.7 131.0  9     0.0000    0.0663
ST24         ?    ?    ? S      ? 20001213 1510    5.9900 GAU  2.00e-02 -1.00e+00 -1.00e+00 -1.00e+00    1.0000 >    5.3553    0.1312    1.3505   55.9556   22.3725    0.0000   13.1255 117.71 117.7 129.6 10     0.0000    0.1071
ST21         ?    ?    ? P      ? 20001213 1510    4.0900 GAU  2.00e-02 -1.00e+00 -1.00e+00 -1.00e+00    1.0000 >    3.5688    0.0176    1.4360   36.1150   41.1978    0.0000   15.1464 327.13 327.1 125.5  9     0.0000    0.0714
ST1          ?    ?    ? P      ? 20001213 1510    4.4900 GAU  2.00e-02 -1.00e+00 -1.00e+00 -1.00e+00    1.0000 >    4.1651   -0.1786    0.6834   36.2928   46.2238    0.0000   19.4848 335.62 335.6 116.8  9     0.0000    0.0833
ST0          ?    ?    ? P      ? 20001213 1510    5.0500 GAU  2.00e-02 -1.00e+00 -1.00e+00 -1.00e+00    1.0000 >    4.1890    0.3575    0.7930   57.5022   13.8883    0.0000   19.6512 137.93 137.9 116.5  9     0.0000    0.0838
ST16         ?    ?    ? P      ? 20001213 1510    4.7700 GAU  2.00e-02 -1.00e+00 -1.00e+00 -1.00e+00    1.0000 >    4.2793   -0.0129    1.3669   39.8239    8.7066    0.0000   20.2783 192.86 192.9 115.5  9     0.0000    0.0856
ST7          ?    ?    ? P      ? 20001213 1510    5.2800 GAU  2.00e-02 -1.00e+00 -1.00e+00 -1.00e+00    1.0000 >    4.5565    0.2199    1.1954   22.5319   32.5023    0.0000   22.1725 280.46 280.5 112.4  9     0.0000    0.0911
ST7          ?    ?    ? S      ? 20001213 1510    8.2200 GAU  2.00e-02 -1.00e+00 -1.00e+00 -1.00e+00    1.0000 >    7.2716    0.4448    0.5904   22.5319   32.5023    0.0000   22.1725 280.46 280.5 113.4  9     0.0000    0.1454
ST14         ?    ?    ? P      ? 20001213 1510    5.4900 GAU  2.00e-02 -1.00e+00 -1.00e+00 -1.00e+00    1.0000 >    4.7770    0.2094    1.2186   58.1038   47.7138    0.0000   23.6564  35.59  35.6 109.2  9     0.0000    0.0955
ST4          ?    ?    ? P      ? 20001213 1510    5.3900 GAU  2.00e-02 -1.00e+00 -1.00e+00 -1.00e+00    1.0000 >    4.9860   -0.0995    1.0585   28.7854    8.8400    0.0000   25.0482 218.38 218.4 105.4  9     0.0000    0.0997
ST8          ?    ?    ? P      ? 20001213 1510    6.3700 GAU  2.00e-02 -1.00e+00 -1.00e+00 -1.00e+00    1.0000 >    5.5382    0.3282    0.9040   21.2005   45.4232    0.0000   28.6781 306.22 306.2  92.5  9     0.0000    0.1108
ST8          ?    ?    ? S      ? 20001213 1510   10.2600 GAU  2.00e-02 -1.00e+00 -1.00e+00 -1.00e+00    1.0000 >    8.7747    0.9818    0.0334   21.2005   45.4232    0.0000   28.6781 306.22 306.2 107.6  9     0.0000    0.1755
ST20         ?    ?    ? P      ? 20001213 1510    6.4800 GAU  2.00e-02 -1.00e+00 -1.00e+00 -1.00e+00    1.0000 >    5.9019    0.0746    1.3761   26.5943   53.9852    0.0000   31.0718 325.18 325.2  82.5  8     0.0000    0.1180
ST22         ?    ?    ? S      ? 20001213 1510   10.6500 GAU  2.00e-02 -1.00e+00 -1.00e+00 -1.00e+00    1.0000 >    9.6724    0.4740    0.5686   26.8589   55.8533    0.0000   32.4797 327.45 327.4 105.3  9     0.0000    0.1934
ST6          ?    ?    ? P      ? 20001213 1510    6.7100 GAU  2.00e-02 -1.00e+00 -1.00e+00 -1.00e+00    1.0000 >    6.1866    0.0199    1.3352   64.5535   54.5857    0.0000   33.0217  37.75  37.8  74.5  8     0.0000    0.1237
ST9          ?    ?    ? P      ? 20001213 1510    7.0300 GAU  2.00e-02 -1.00e+00 -1.00e+00 -1.00e+00    1.0000 >    6.4507    0.0758    1.3550    9.8992   23.1731    0.0000   34.8428 261.24 261.2  68.1  8     0.0000    0.1290
ST9          ?    ?    ? S      ? 20001213 1510   11.2000 GAU  2.00e-02 -1.00e+00 -1.00e+00 -1.00e+00    1.0000 >   10.2350    0.4615    0.6045    9.8992   23.1731    0.0000   34.8428 261.24 261.2 104.2  9     0.0000    0.2047
ST12         ?    ?    ? P      ? 20001213 1510    6.9300 GAU  2.00e-02 -1.00e+00 -1.00e+00 -1.00e+00    1.0000 >    6.4597   -0.0332    1.2301   31.4703   60.9238    0.0000   34.9048 338.37 338.4  68.0  8     0.0000    0.1292
ST5          ?    ?    ? P      ? 20001213 1510    8.3500 GAU  2.00e-02 -1.00e+00 -1.00e+00 -1.00e+00    1.0000 >    7.8803   -0.0338    1.1724   45.9261   73.1552    0.0000   44.7070   2.04   2.0  66.0  8     0.0000    0.1576
ST5          ?    ?    ? S      ? 20001213 1510   13.4400 GAU  2.00e-02 -1.00e+00 -1.00e+00 -1.00e+00    1.0000 >   12.6060    0.3305    0.8593   45.9261   73.1552    0.0000   44.7070   2.04   2.0 100.8  9     0.0000    0.2521
ST10         ?    ?    ? S      ? 20001213 1510   13.8100 GAU  2.00e-02 -1.00e+00 -1.00e+00 -1.00e+00    1.0000 >   13.1995    0.1070    1.0474   21.1066   69.5192    0.0000   47.1604 330.49 330.5 100.2  9     0.0000    0.2640
ST11         ?    ?    ? P      ? 20001213 1510   10.6600 GAU  2.00e-02 -1.00e+00 -1.00e+00 -1.00e+00    1.0000 >   10.1113    0.0451    1.1726   13.0335   79.7825    0.0000   60.1011 328.61 328.6  65.9  8     0.0000    0.2022
ST11         ?    ?    ? S      ? 20001213 1510   17.1600 GAU  2.00e-02 -1.00e+00 -1.00e+00 -1.00e+00    1.0000 >   16.3441    0.3124    0.8131   13.0335   79.7825    0.0000   60.1011 328.61 328.6  97.9  9     0.0000    0.3269
END_PHASE
END_NLLOC

