NLLOC "./loc/alaska.20001213.151001_018.grid0" "LOCATED" "Location completed."
PUBLIC_ID None
SIGNATURE "NonLinLoc - Yifan Yu   obs:./obs/phase.obs   NLLoc:v7.00.16(17Apr2023)   run:21Aug2023 13h19m40"
COMMENT "2023-8-21 test"
GRID  201 201 41  0 0 0  0.5 0.5 0.5 PROB_DENSITY
SEARCH OCTREE nInitial 400 nEvaluated 13656 smallestNodeSide 0.019531/0.019531/0.009766 oct_tree_integral 6.540742e-02 scatter_volume 6.463787e-02
HYPOCENTER  x 36.4941 y 33.0957 z 0.00488281  OT 1.28342  ix -1 iy -1 iz -1 MAXIMUM_LIKELIHOOD
GEOGRAPHIC  OT 2000 12 13  15 10 1.283418  Lat 35.697636 Long -117.595867 Depth 0.004883
QUALITY  Pmax 2.95369e+178 MFmin 92.2221 MFmax 92.7521 RMS 0.223255 Nphs 54 Gap 51.9086 Dist 0.662157 Mamp -9.90 0 Mdur -9.90 0
VPVSRATIO  VpVsRatio 1.718  Npair 27  Diff 7.31
STATISTICS  ExpectX 36.660942 Y 33.240897 Z 0.457093  CovXX 0.107785 XY 0.000373566 XZ 0.0336101 YY 0.0641788 YZ 0.0036108 ZZ 0.207106 EllAz1  180.76 Dip1  1.62451 Len1  0.475612 Az2  271.257 Dip2  17.0055 Len2  0.586651 Len3  8.762138e-01
STAT_GEOG  ExpectLat 35.698942 Long -117.594014 Depth 0.457093
TRANSFORM  SIMPLE LatOrig 35.400000  LongOrig -118.000000  RotCW 0.000000
QML_OriginQuality  assocPhCt 54  usedPhCt 54  assocStaCt -1  usedStaCt 27  depthPhCt -1  stdErr 0.223255  azGap 51.9086  secAzGap 51.9086  gtLevel -  minDist 0.662157 maxDist 63.7997 medDist 24.6154
QML_OriginUncertainty  horUnc -1  minHorUnc 0.384192  maxHorUnc 0.497909  azMaxHorUnc 89.5092
QML_ConfidenceEllipsoid  semiMajorAxisLength 0.876214  semiMinorAxisLength 0.475612  semiIntermediateAxisLength 0.586651  majorAxisPlunge 72.9123  majorAxisAzimuth 85.4664  majorAxisRotation 353.317
FOCALMECH  Hyp  35.697636 -117.595867 0.004883 Mech  0 0 0 mf  0 nObs -1
PHASE ID Ins Cmp On Pha  FM Date     HrMn   Sec     Err  ErrMag    Coda      Amp       Per       PriorWt  >   TTpred    Res       Weight    StaLoc(X  Y         Z)        SDist    SAzim  RAz  RDip RQual    Tcorr       TTerr
ST25         ?    ?    ? P      ? 20001213 1510    1.2900 GAU  2.00e-02 -1.00e+00 -1.00e+00 -1.00e+00    1.0000 >    0.1253   -0.1187    1.2774   35.8320   33.0917    0.0000    0.6622 269.65  89.6 200.0  0     0.0000    0.0500
ST25         ?    ?    ? S      ? 20001213 1510    1.4800 GAU  2.00e-02 -1.00e+00 -1.00e+00 -1.00e+00    1.0000 >    0.2206   -0.0240    2.1141   35.8320   33.0917    0.0000    0.6622 269.65  89.6 200.0  0     0.0000    0.0500
ST23         ?    ?    ? P      ? 20001213 1510    1.7000 GAU  2.00e-02 -1.00e+00 -1.00e+00 -1.00e+00    1.0000 >    0.6595   -0.2429    0.6952   38.6464   35.8493    0.0000    3.4949  38.01 218.0 200.0  0     0.0000    0.0500
ST23         ?    ?    ? S      ? 20001213 1510    2.1500 GAU  2.00e-02 -1.00e+00 -1.00e+00 -1.00e+00    1.0000 >    1.1612   -0.2946    0.5969   38.6464   35.8493    0.0000    3.4949  38.01 218.0 200.0  0     0.0000    0.0500
ST21         ?    ?    ? P      ? 20001213 1510    2.8200 GAU  2.00e-02 -1.00e+00 -1.00e+00 -1.00e+00    1.0000 >    1.5304    0.0062    2.1574   36.1150   41.1978    0.0000    8.1109 357.32 177.3 200.0  0     0.0000    0.0500
ST21         ?    ?    ? S      ? 20001213 1510    4.0000 GAU  2.00e-02 -1.00e+00 -1.00e+00 -1.00e+00    1.0000 >    2.6947    0.0218    2.0842   36.1150   41.1978    0.0000    8.1109 357.32 177.3 200.0  0     0.0000    0.0539
ST15         ?    ?    ? P      ? 20001213 1510    2.9300 GAU  2.00e-02 -1.00e+00 -1.00e+00 -1.00e+00    1.0000 >    1.6531   -0.0065    2.1612   38.9482   24.6853    0.0000    8.7611 163.73 343.7 200.0  0     0.0000    0.0500
ST15         ?    ?    ? S      ? 20001213 1510    4.2100 GAU  2.00e-02 -1.00e+00 -1.00e+00 -1.00e+00    1.0000 >    2.9107    0.0158    2.0763   38.9482   24.6853    0.0000    8.7611 163.73 343.7 200.0  0     0.0000    0.0582
ST19         ?    ?    ? P      ? 20001213 1510    3.5500 GAU  2.00e-02 -1.00e+00 -1.00e+00 -1.00e+00    1.0000 >    2.2980   -0.0314    2.0773   47.2048   27.2984    0.0000   12.1789 118.43 298.4 200.0  0     0.0000    0.0500
ST19         ?    ?    ? S      ? 20001213 1510    5.2600 GAU  2.00e-02 -1.00e+00 -1.00e+00 -1.00e+00    1.0000 >    4.0462   -0.0696    1.7179   47.2048   27.2984    0.0000   12.1789 118.43 298.4 200.0  0     0.0000    0.0809
ST1          ?    ?    ? P      ? 20001213 1510    4.0600 GAU  2.00e-02 -1.00e+00 -1.00e+00 -1.00e+00    1.0000 >    2.4773    0.2993    1.0603   36.2928   46.2238    0.0000   13.1296 359.12 179.1 200.0  0     0.0000    0.0500
ST1          ?    ?    ? S      ? 20001213 1510    6.0300 GAU  2.00e-02 -1.00e+00 -1.00e+00 -1.00e+00    1.0000 >    4.3621    0.3845    0.9479   36.2928   46.2238    0.0000   13.1296 359.12 179.1 200.0  0     0.0000    0.0872
ST7          ?    ?    ? P      ? 20001213 1510    4.6200 GAU  2.00e-02 -1.00e+00 -1.00e+00 -1.00e+00    1.0000 >    2.6368    0.6998    0.2313   22.5319   32.5023    0.0000   13.9748 267.57  87.6 200.0  0     0.0000    0.0527
ST7          ?    ?    ? S      ? 20001213 1510    7.0900 GAU  2.00e-02 -1.00e+00 -1.00e+00 -1.00e+00    1.0000 >    4.6428    1.1637    0.0316   22.5319   32.5023    0.0000   13.9748 267.57  87.6 200.0  0     0.0000    0.0929
ST18         ?    ?    ? P      ? 20001213 1510    4.0100 GAU  2.00e-02 -1.00e+00 -1.00e+00 -1.00e+00    1.0000 >    2.7126    0.0140    2.1096   45.8666   22.1945    0.0000   14.3763 139.31 319.3 200.0  0     0.0000    0.0543
ST18         ?    ?    ? S      ? 20001213 1510    6.0100 GAU  2.00e-02 -1.00e+00 -1.00e+00 -1.00e+00    1.0000 >    4.7763   -0.0497    1.7509   45.8666   22.1945    0.0000   14.3763 139.31 319.3 200.0  0     0.0000    0.0955
ST13         ?    ?    ? P      ? 20001213 1510    4.3400 GAU  2.00e-02 -1.00e+00 -1.00e+00 -1.00e+00    1.0000 >    3.0157    0.0409    1.9463   52.0625   29.4778    0.0000   15.9832 103.08 283.1 200.0  0     0.0000    0.0603
ST13         ?    ?    ? S      ? 20001213 1510    6.6100 GAU  2.00e-02 -1.00e+00 -1.00e+00 -1.00e+00    1.0000 >    5.3101    0.0165    1.7678   52.0625   29.4778    0.0000   15.9832 103.08 283.1 200.0  0     0.0000    0.1062
ST8          ?    ?    ? P      ? 20001213 1510    5.9300 GAU  2.00e-02 -1.00e+00 -1.00e+00 -1.00e+00    1.0000 >    3.7063    0.9403    0.0962   21.2005   45.4232    0.0000   19.6434 308.87 128.9 200.0  0     0.0000    0.0741
ST8          ?    ?    ? S      ? 20001213 1510    9.4100 GAU  2.00e-02 -1.00e+00 -1.00e+00 -1.00e+00    1.0000 >    6.5261    1.6005    0.0022   21.2005   45.4232    0.0000   19.6434 308.87 128.9 200.0  0     0.0000    0.1305
ST26         ?    ?    ? P      ? 20001213 1510    5.5500 GAU  2.00e-02 -1.00e+00 -1.00e+00 -1.00e+00    1.0000 >    3.9630    0.3036    1.0564   52.5727   19.5815    0.0000   21.0037 130.05 310.0 200.0  0     0.0000    0.0793
ST26         ?    ?    ? S      ? 20001213 1510    8.6500 GAU  2.00e-02 -1.00e+00 -1.00e+00 -1.00e+00    1.0000 >    6.9780    0.3886    0.9149   52.5727   19.5815    0.0000   21.0037 130.05 310.0 200.0  0     0.0000    0.1396
ST24         ?    ?    ? P      ? 20001213 1510    5.7800 GAU  2.00e-02 -1.00e+00 -1.00e+00 -1.00e+00    1.0000 >    4.1925    0.3041    1.0549   55.9556   22.3725    0.0000   22.2202 118.85 298.9 200.0  0     0.0000    0.0839
ST24         ?    ?    ? S      ? 20001213 1510    9.0700 GAU  2.00e-02 -1.00e+00 -1.00e+00 -1.00e+00    1.0000 >    7.3822    0.4044    0.8835   55.9556   22.3725    0.0000   22.2202 118.85 298.9 200.0  0     0.0000    0.1476
ST20         ?    ?    ? P      ? 20001213 1510    6.1300 GAU  2.00e-02 -1.00e+00 -1.00e+00 -1.00e+00    1.0000 >    4.3617    0.4849    0.6629   26.5943   53.9852    0.0000   23.1166 334.64 154.6 200.0  0     0.0000    0.0872
ST20         ?    ?    ? S      ? 20001213 1510    9.7500 GAU  2.00e-02 -1.00e+00 -1.00e+00 -1.00e+00    1.0000 >    7.6800    0.7866    0.2646   26.5943   53.9852    0.0000   23.1166 334.64 154.6 200.0  0     0.0000    0.1536
ST16         ?    ?    ? P      ? 20001213 1510    6.0100 GAU  2.00e-02 -1.00e+00 -1.00e+00 -1.00e+00    1.0000 >    4.6444    0.0821    1.6232   39.8239    8.7066    0.0000   24.6154 172.23 352.2 200.0  0     0.0000    0.0929
ST16         ?    ?    ? S      ? 20001213 1510    9.3600 GAU  2.00e-02 -1.00e+00 -1.00e+00 -1.00e+00    1.0000 >    8.1779   -0.1013    1.3881   39.8239    8.7066    0.0000   24.6154 172.23 352.2 200.0  0     0.0000    0.1636
ST22         ?    ?    ? P      ? 20001213 1510    6.3500 GAU  2.00e-02 -1.00e+00 -1.00e+00 -1.00e+00    1.0000 >    4.6629    0.4037    0.8994   26.8589   55.8533    0.0000   24.7133 337.05 157.1 200.0  0     0.0000    0.0933
ST22         ?    ?    ? S      ? 20001213 1510   10.0800 GAU  2.00e-02 -1.00e+00 -1.00e+00 -1.00e+00    1.0000 >    8.2104    0.5861    0.5336   26.8589   55.8533    0.0000   24.7133 337.05 157.1 200.0  0     0.0000    0.1642
ST4          ?    ?    ? P      ? 20001213 1510    6.1500 GAU  2.00e-02 -1.00e+00 -1.00e+00 -1.00e+00    1.0000 >    4.8021    0.0644    1.6940   28.7854    8.8400    0.0000   25.4512 197.63  17.6 200.0  0     0.0000    0.0960
ST4          ?    ?    ? S      ? 20001213 1510    9.5700 GAU  2.00e-02 -1.00e+00 -1.00e+00 -1.00e+00    1.0000 >    8.4556   -0.1690    1.1959   28.7854    8.8400    0.0000   25.4512 197.63  17.6 200.0  0     0.0000    0.1691
ST14         ?    ?    ? P      ? 20001213 1510    6.1200 GAU  2.00e-02 -1.00e+00 -1.00e+00 -1.00e+00    1.0000 >    4.9226   -0.0860    1.5882   58.1038   47.7138    0.0000   26.0896  55.92 235.9 200.0  0     0.0000    0.0985
ST14         ?    ?    ? S      ? 20001213 1510    9.6300 GAU  2.00e-02 -1.00e+00 -1.00e+00 -1.00e+00    1.0000 >    8.6677   -0.3211    0.7586   58.1038   47.7138    0.0000   26.0896  55.92 235.9 200.0  0     0.0000    0.1734
ST12         ?    ?    ? P      ? 20001213 1510    6.6900 GAU  2.00e-02 -1.00e+00 -1.00e+00 -1.00e+00    1.0000 >    5.3355    0.0711    1.6441   31.4703   60.9238    0.0000   28.2779 349.77 169.8 200.0  0     0.0000    0.1067
ST12         ?    ?    ? S      ? 20001213 1510   10.5900 GAU  2.00e-02 -1.00e+00 -1.00e+00 -1.00e+00    1.0000 >    9.3947   -0.0881    1.3624   31.4703   60.9238    0.0000   28.2779 349.77 169.8 200.0  0     0.0000    0.1879
ST9          ?    ?    ? P      ? 20001213 1510    6.9400 GAU  2.00e-02 -1.00e+00 -1.00e+00 -1.00e+00    1.0000 >    5.3558    0.3008    1.0589    9.8992   23.1731    0.0000   28.3858 249.54  69.5 200.0  0     0.0000    0.1071
ST9          ?    ?    ? S      ? 20001213 1510   11.2500 GAU  2.00e-02 -1.00e+00 -1.00e+00 -1.00e+00    1.0000 >    9.4305    0.5361    0.6425    9.8992   23.1731    0.0000   28.3858 249.54  69.5 200.0  0     0.0000    0.1886
ST0          ?    ?    ? P      ? 20001213 1510    6.9500 GAU  2.00e-02 -1.00e+00 -1.00e+00 -1.00e+00    1.0000 >    5.3708    0.2958    1.0646   57.5022   13.8883    0.0000   28.4651 132.44 312.4 200.0  0     0.0000    0.1074
ST0          ?    ?    ? S      ? 20001213 1510   11.0000 GAU  2.00e-02 -1.00e+00 -1.00e+00 -1.00e+00    1.0000 >    9.4569    0.2597    1.1783   57.5022   13.8883    0.0000   28.4651 132.44 312.4 200.0  0     0.0000    0.1891
ST17         ?    ?    ? P      ? 20001213 1510    7.1900 GAU  2.00e-02 -1.00e+00 -1.00e+00 -1.00e+00    1.0000 >    5.7491    0.1574    1.3482   64.4820   21.0492    0.0000   30.4703 113.29 293.3 200.0  0     0.0000    0.1150
ST17         ?    ?    ? S      ? 20001213 1510   11.4000 GAU  2.00e-02 -1.00e+00 -1.00e+00 -1.00e+00    1.0000 >   10.1230   -0.0065    1.4209   64.4820   21.0492    0.0000   30.4703 113.29 293.3 200.0  0     0.0000    0.2025
ST6          ?    ?    ? P      ? 20001213 1510    7.4400 GAU  2.00e-02 -1.00e+00 -1.00e+00 -1.00e+00    1.0000 >    6.6686   -0.5120    0.3570   64.5535   54.5857    0.0000   35.3432  52.55 232.6 200.0  0     0.0000    0.1334
ST6          ?    ?    ? S      ? 20001213 1510   11.8500 GAU  2.00e-02 -1.00e+00 -1.00e+00 -1.00e+00    1.0000 >   11.7420   -1.1754    0.1762   64.5535   54.5857    0.0000   35.3432  52.55 232.6 200.0  0     0.0000    0.2348
ST3          ?    ?    ? P      ? 20001213 1510    7.9300 GAU  2.00e-02 -1.00e+00 -1.00e+00 -1.00e+00    1.0000 >    6.9985   -0.3519    0.6261   17.1949   64.7711    0.0000   37.0917 328.65 148.6 200.0  0     0.0000    0.1400
ST3          ?    ?    ? S      ? 20001213 1510   12.8100 GAU  2.00e-02 -1.00e+00 -1.00e+00 -1.00e+00    1.0000 >   12.3228   -0.7963    0.2460   17.1949   64.7711    0.0000   37.0917 328.65 148.6 200.0  0     0.0000    0.2465
ST10         ?    ?    ? P      ? 20001213 1510    8.2200 GAU  2.00e-02 -1.00e+00 -1.00e+00 -1.00e+00    1.0000 >    7.4605   -0.5239    0.3601   21.1066   69.5192    0.0000   39.5404 337.10 157.1 200.0  0     0.0000    0.1492
ST10         ?    ?    ? S      ? 20001213 1510   13.3300 GAU  2.00e-02 -1.00e+00 -1.00e+00 -1.00e+00    1.0000 >   13.1364   -1.0898    0.1887   21.1066   69.5192    0.0000   39.5404 337.10 157.1 200.0  0     0.0000    0.2627
ST5          ?    ?    ? P      ? 20001213 1510    8.5200 GAU  2.00e-02 -1.00e+00 -1.00e+00 -1.00e+00    1.0000 >    7.7651   -0.5285    0.3612   45.9261   73.1552    0.0000   41.1549  13.25 193.2 200.0  0     0.0000    0.1553
ST5          ?    ?    ? S      ? 20001213 1510   13.6100 GAU  2.00e-02 -1.00e+00 -1.00e+00 -1.00e+00    1.0000 >   13.6728   -1.3462    0.1505   45.9261   73.1552    0.0000   41.1549  13.25 193.2 200.0  0     0.0000    0.2735
ST11         ?    ?    ? P      ? 20001213 1510   10.1100 GAU  2.00e-02 -1.00e+00 -1.00e+00 -1.00e+00    1.0000 >    9.8260   -0.9995    0.1815   13.0335   79.7825    0.0000   52.2499 333.32 153.3 200.0  0     0.0000    0.1965
ST11         ?    ?    ? S      ? 20001213 1510   16.8000 GAU  2.00e-02 -1.00e+00 -1.00e+00 -1.00e+00    1.0000 >   17.3027   -1.7861    0.0656   13.0335   79.7825    0.0000   52.2499 333.32 153.3 200.0  0     0.0000    0.3461
ST2          ?    ?    ? P      ? 20001213 1510   11.7600 GAU  2.00e-02 -1.00e+00 -1.00e+00 -1.00e+00    1.0000 >   11.8510   -1.3744    0.1435   36.5585   96.8954    0.0000   63.7997   0.06 180.1 200.0  0     0.0000    0.2370
ST2          ?    ?    ? S      ? 20001213 1510   19.2600 GAU  2.00e-02 -1.00e+00 -1.00e+00 -1.00e+00    1.0000 >   20.8706   -2.8940    0.0034   36.5585   96.8954    0.0000   63.7997   0.06 180.1 200.0  0     0.0000    0.4174
END_PHASE
END_NLLOC

