NLLOC "./loc/alaska.20001213.151001_010.grid0" "LOCATED" "Location completed."
PUBLIC_ID None
SIGNATURE "NonLinLoc - Yifan Yu   obs:./obs/phase.obs   NLLoc:v7.00.16(17Apr2023)   run:21Aug2023 13h19m31"
COMMENT "2023-8-21 test"
GRID  201 201 41  0 0 0  0.5 0.5 0.5 PROB_DENSITY
SEARCH OCTREE nInitial 400 nEvaluated 11848 smallestNodeSide 0.019531/0.019531/0.009766 oct_tree_integral 6.316040e-02 scatter_volume 6.271007e-02
HYPOCENTER  x 36.7285 y 33.0957 z 0.00488281  OT 1.27917  ix -1 iy -1 iz -1 MAXIMUM_LIKELIHOOD
GEOGRAPHIC  OT 2000 12 13  15 10 1.279175  Lat 35.697636 Long -117.593272 Depth 0.004883
QUALITY  Pmax 5.66642e+178 MFmin 92.2716 MFmax 92.752 RMS 0.220813 Nphs 54 Gap 51.5712 Dist 0.896529 Mamp -9.90 0 Mdur -9.90 0
VPVSRATIO  VpVsRatio 1.71748  Npair 27  Diff 7.27
STATISTICS  ExpectX 36.804275 Y 33.241589 Z 0.416779  CovXX 0.0682699 XY 0.00362644 XZ 0.00897176 YY 0.0568566 YZ 0.0102488 ZZ 0.129911 EllAz1  168.885 Dip1  6.34143 Len1  0.440558 Az2  259.966 Dip2  9.63665 Len2  0.487644 Len3  6.843945e-01
STAT_GEOG  ExpectLat 35.698948 Long -117.592426 Depth 0.416779
TRANSFORM  SIMPLE LatOrig 35.400000  LongOrig -118.000000  RotCW 0.000000
QML_OriginQuality  assocPhCt 54  usedPhCt 54  assocStaCt -1  usedStaCt 27  depthPhCt -1  stdErr 0.220813  azGap 51.5712  secAzGap 51.5712  gtLevel -  minDist 0.896529 maxDist 63.7999 medDist 24.5848
QML_OriginUncertainty  horUnc -1  minHorUnc 0.358252  maxHorUnc 0.399308  azMaxHorUnc 73.7826
QML_ConfidenceEllipsoid  semiMajorAxisLength 0.684394  semiMinorAxisLength 0.440558  semiIntermediateAxisLength 0.487644  majorAxisPlunge 78.4306  majorAxisAzimuth 46.0059  majorAxisRotation 324.339
FOCALMECH  Hyp  35.697636 -117.593272 0.004883 Mech  0 0 0 mf  0 nObs -1
PHASE ID Ins Cmp On Pha  FM Date     HrMn   Sec     Err  ErrMag    Coda      Amp       Per       PriorWt  >   TTpred    Res       Weight    StaLoc(X  Y         Z)        SDist    SAzim  RAz  RDip RQual    Tcorr       TTerr
ST25         ?    ?    ? P      ? 20001213 1510    1.3400 GAU  2.00e-02 -1.00e+00 -1.00e+00 -1.00e+00    1.0000 >    0.1694   -0.1086    1.3649   35.8320   33.0917    0.0000    0.8965 269.74  89.7 200.0  0     0.0000    0.0500
ST25         ?    ?    ? S      ? 20001213 1510    1.5600 GAU  2.00e-02 -1.00e+00 -1.00e+00 -1.00e+00    1.0000 >    0.2983   -0.0175    2.1325   35.8320   33.0917    0.0000    0.8965 269.74  89.7 200.0  0     0.0000    0.0500
ST23         ?    ?    ? P      ? 20001213 1510    1.6800 GAU  2.00e-02 -1.00e+00 -1.00e+00 -1.00e+00    1.0000 >    0.6332   -0.2324    0.7175   38.6464   35.8493    0.0000    3.3557  34.86 214.9 200.0  0     0.0000    0.0500
ST23         ?    ?    ? S      ? 20001213 1510    2.1200 GAU  2.00e-02 -1.00e+00 -1.00e+00 -1.00e+00    1.0000 >    1.1150   -0.2741    0.6229   38.6464   35.8493    0.0000    3.3557  34.86 214.9 200.0  0     0.0000    0.0500
ST21         ?    ?    ? P      ? 20001213 1510    2.8200 GAU  2.00e-02 -1.00e+00 -1.00e+00 -1.00e+00    1.0000 >    1.5331    0.0077    2.1493   36.1150   41.1978    0.0000    8.1253 355.67 175.7 200.0  0     0.0000    0.0500
ST21         ?    ?    ? S      ? 20001213 1510    4.0000 GAU  2.00e-02 -1.00e+00 -1.00e+00 -1.00e+00    1.0000 >    2.6995    0.0213    2.0797   36.1150   41.1978    0.0000    8.1253 355.67 175.7 200.0  0     0.0000    0.0540
ST15         ?    ?    ? P      ? 20001213 1510    2.9100 GAU  2.00e-02 -1.00e+00 -1.00e+00 -1.00e+00    1.0000 >    1.6412   -0.0104    2.1500   38.9482   24.6853    0.0000    8.6984 165.22 345.2 200.0  0     0.0000    0.0500
ST15         ?    ?    ? S      ? 20001213 1510    4.1800 GAU  2.00e-02 -1.00e+00 -1.00e+00 -1.00e+00    1.0000 >    2.8899    0.0109    2.0855   38.9482   24.6853    0.0000    8.6984 165.22 345.2 200.0  0     0.0000    0.0578
ST19         ?    ?    ? P      ? 20001213 1510    3.5100 GAU  2.00e-02 -1.00e+00 -1.00e+00 -1.00e+00    1.0000 >    2.2592   -0.0283    2.0871   47.2048   27.2984    0.0000   11.9733 118.96 299.0 200.0  0     0.0000    0.0500
ST19         ?    ?    ? S      ? 20001213 1510    5.1900 GAU  2.00e-02 -1.00e+00 -1.00e+00 -1.00e+00    1.0000 >    3.9779   -0.0671    1.7297   47.2048   27.2984    0.0000   11.9733 118.96 299.0 200.0  0     0.0000    0.0796
ST1          ?    ?    ? P      ? 20001213 1510    4.0500 GAU  2.00e-02 -1.00e+00 -1.00e+00 -1.00e+00    1.0000 >    2.4784    0.2924    1.0575   36.2928   46.2238    0.0000   13.1353 358.10 178.1 200.0  0     0.0000    0.0500
ST1          ?    ?    ? S      ? 20001213 1510    6.0200 GAU  2.00e-02 -1.00e+00 -1.00e+00 -1.00e+00    1.0000 >    4.3640    0.3769    0.9610   36.2928   46.2238    0.0000   13.1353 358.10 178.1 200.0  0     0.0000    0.0873
ST7          ?    ?    ? P      ? 20001213 1510    4.6500 GAU  2.00e-02 -1.00e+00 -1.00e+00 -1.00e+00    1.0000 >    2.6810    0.6899    0.2387   22.5319   32.5023    0.0000   14.2090 267.61  87.6 200.0  0     0.0000    0.0536
ST7          ?    ?    ? S      ? 20001213 1510    7.1600 GAU  2.00e-02 -1.00e+00 -1.00e+00 -1.00e+00    1.0000 >    4.7206    1.1602    0.0330   22.5319   32.5023    0.0000   14.2090 267.61  87.6 200.0  0     0.0000    0.0944
ST18         ?    ?    ? P      ? 20001213 1510    3.9800 GAU  2.00e-02 -1.00e+00 -1.00e+00 -1.00e+00    1.0000 >    2.6839    0.0169    2.0986   45.8666   22.1945    0.0000   14.2247 140.03 320.0 200.0  0     0.0000    0.0537
ST18         ?    ?    ? S      ? 20001213 1510    5.9600 GAU  2.00e-02 -1.00e+00 -1.00e+00 -1.00e+00    1.0000 >    4.7259   -0.0450    1.7642   45.8666   22.1945    0.0000   14.2247 140.03 320.0 200.0  0     0.0000    0.0945
ST13         ?    ?    ? P      ? 20001213 1510    4.3000 GAU  2.00e-02 -1.00e+00 -1.00e+00 -1.00e+00    1.0000 >    2.9727    0.0482    1.8941   52.0625   29.4778    0.0000   15.7550 103.28 283.3 200.0  0     0.0000    0.0595
ST13         ?    ?    ? S      ? 20001213 1510    6.5400 GAU  2.00e-02 -1.00e+00 -1.00e+00 -1.00e+00    1.0000 >    5.2343    0.0266    1.7560   52.0625   29.4778    0.0000   15.7550 103.28 283.3 200.0  0     0.0000    0.1047
ST8          ?    ?    ? P      ? 20001213 1510    5.9600 GAU  2.00e-02 -1.00e+00 -1.00e+00 -1.00e+00    1.0000 >    3.7409    0.9400    0.0910   21.2005   45.4232    0.0000   19.8264 308.45 128.4 200.0  0     0.0000    0.0748
ST8          ?    ?    ? S      ? 20001213 1510    9.4500 GAU  2.00e-02 -1.00e+00 -1.00e+00 -1.00e+00    1.0000 >    6.5869    1.5839    0.0028   21.2005   45.4232    0.0000   19.8264 308.45 128.4 200.0  0     0.0000    0.1317
ST26         ?    ?    ? P      ? 20001213 1510    5.5100 GAU  2.00e-02 -1.00e+00 -1.00e+00 -1.00e+00    1.0000 >    3.9292    0.3016    1.0572   52.5727   19.5815    0.0000   20.8248 130.46 310.5 200.0  0     0.0000    0.0786
ST26         ?    ?    ? S      ? 20001213 1510    8.5900 GAU  2.00e-02 -1.00e+00 -1.00e+00 -1.00e+00    1.0000 >    6.9186    0.3922    0.9067   52.5727   19.5815    0.0000   20.8248 130.46 310.5 200.0  0     0.0000    0.1384
ST24         ?    ?    ? P      ? 20001213 1510    5.7400 GAU  2.00e-02 -1.00e+00 -1.00e+00 -1.00e+00    1.0000 >    4.1538    0.3070    1.0537   55.9556   22.3725    0.0000   22.0152 119.15 299.1 200.0  0     0.0000    0.0831
ST24         ?    ?    ? S      ? 20001213 1510    9.0100 GAU  2.00e-02 -1.00e+00 -1.00e+00 -1.00e+00    1.0000 >    7.3141    0.4167    0.8578   55.9556   22.3725    0.0000   22.0152 119.15 299.1 200.0  0     0.0000    0.1463
ST20         ?    ?    ? P      ? 20001213 1510    6.1500 GAU  2.00e-02 -1.00e+00 -1.00e+00 -1.00e+00    1.0000 >    4.3808    0.4901    0.6497   26.5943   53.9852    0.0000   23.2180 334.12 154.1 200.0  0     0.0000    0.0876
ST20         ?    ?    ? S      ? 20001213 1510    9.7700 GAU  2.00e-02 -1.00e+00 -1.00e+00 -1.00e+00    1.0000 >    7.7137    0.7772    0.2668   26.5943   53.9852    0.0000   23.2180 334.12 154.1 200.0  0     0.0000    0.1543
ST16         ?    ?    ? P      ? 20001213 1510    6.0100 GAU  2.00e-02 -1.00e+00 -1.00e+00 -1.00e+00    1.0000 >    4.6387    0.0922    1.5684   39.8239    8.7066    0.0000   24.5848 172.77 352.8 200.0  0     0.0000    0.0928
ST16         ?    ?    ? S      ? 20001213 1510    9.3400 GAU  2.00e-02 -1.00e+00 -1.00e+00 -1.00e+00    1.0000 >    8.1677   -0.1069    1.3659   39.8239    8.7066    0.0000   24.5848 172.77 352.8 200.0  0     0.0000    0.1634
ST22         ?    ?    ? P      ? 20001213 1510    6.3600 GAU  2.00e-02 -1.00e+00 -1.00e+00 -1.00e+00    1.0000 >    4.6803    0.4005    0.9041   26.8589   55.8533    0.0000   24.8056 336.55 156.6 200.0  0     0.0000    0.0936
ST22         ?    ?    ? S      ? 20001213 1510   10.1000 GAU  2.00e-02 -1.00e+00 -1.00e+00 -1.00e+00    1.0000 >    8.2411    0.5797    0.5448   26.8589   55.8533    0.0000   24.8056 336.55 156.6 200.0  0     0.0000    0.1648
ST4          ?    ?    ? P      ? 20001213 1510    6.1500 GAU  2.00e-02 -1.00e+00 -1.00e+00 -1.00e+00    1.0000 >    4.8157    0.0551    1.7205   28.7854    8.8400    0.0000   25.5231 198.13  18.1 200.0  0     0.0000    0.0963
ST4          ?    ?    ? S      ? 20001213 1510    9.5900 GAU  2.00e-02 -1.00e+00 -1.00e+00 -1.00e+00    1.0000 >    8.4795   -0.1687    1.1852   28.7854    8.8400    0.0000   25.5231 198.13  18.1 200.0  0     0.0000    0.1696
ST14         ?    ?    ? P      ? 20001213 1510    6.0900 GAU  2.00e-02 -1.00e+00 -1.00e+00 -1.00e+00    1.0000 >    4.8860   -0.0752    1.6343   58.1038   47.7138    0.0000   25.8958  55.63 235.6 200.0  0     0.0000    0.0977
ST14         ?    ?    ? S      ? 20001213 1510    9.5900 GAU  2.00e-02 -1.00e+00 -1.00e+00 -1.00e+00    1.0000 >    8.6033   -0.2925    0.8158   58.1038   47.7138    0.0000   25.8958  55.63 235.6 200.0  0     0.0000    0.1721
ST0          ?    ?    ? P      ? 20001213 1510    6.9200 GAU  2.00e-02 -1.00e+00 -1.00e+00 -1.00e+00    1.0000 >    5.3382    0.3026    1.0554   57.5022   13.8883    0.0000   28.2926 132.76 312.8 200.0  0     0.0000    0.1068
ST0          ?    ?    ? S      ? 20001213 1510   10.9600 GAU  2.00e-02 -1.00e+00 -1.00e+00 -1.00e+00    1.0000 >    9.3996    0.2813    1.1339   57.5022   13.8883    0.0000   28.2926 132.76 312.8 200.0  0     0.0000    0.1880
ST12         ?    ?    ? P      ? 20001213 1510    6.6700 GAU  2.00e-02 -1.00e+00 -1.00e+00 -1.00e+00    1.0000 >    5.3435    0.0473    1.7051   31.4703   60.9238    0.0000   28.3205 349.30 169.3 200.0  0     0.0000    0.1069
ST12         ?    ?    ? S      ? 20001213 1510   10.5700 GAU  2.00e-02 -1.00e+00 -1.00e+00 -1.00e+00    1.0000 >    9.4088   -0.1180    1.2928   31.4703   60.9238    0.0000   28.3205 349.30 169.3 200.0  0     0.0000    0.1882
ST9          ?    ?    ? P      ? 20001213 1510    6.9700 GAU  2.00e-02 -1.00e+00 -1.00e+00 -1.00e+00    1.0000 >    5.3973    0.2935    1.0661    9.8992   23.1731    0.0000   28.6055 249.70  69.7 200.0  0     0.0000    0.1079
ST9          ?    ?    ? S      ? 20001213 1510   11.2900 GAU  2.00e-02 -1.00e+00 -1.00e+00 -1.00e+00    1.0000 >    9.5035    0.5073    0.6951    9.8992   23.1731    0.0000   28.6055 249.70  69.7 200.0  0     0.0000    0.1901
ST17         ?    ?    ? P      ? 20001213 1510    7.1600 GAU  2.00e-02 -1.00e+00 -1.00e+00 -1.00e+00    1.0000 >    5.7085    0.1723    1.2982   64.4820   21.0492    0.0000   30.2551 113.46 293.5 200.0  0     0.0000    0.1142
ST17         ?    ?    ? S      ? 20001213 1510   11.3500 GAU  2.00e-02 -1.00e+00 -1.00e+00 -1.00e+00    1.0000 >   10.0516    0.0193    1.4272   64.4820   21.0492    0.0000   30.2551 113.46 293.5 200.0  0     0.0000    0.2010
ST6          ?    ?    ? P      ? 20001213 1510    7.4100 GAU  2.00e-02 -1.00e+00 -1.00e+00 -1.00e+00    1.0000 >    6.6335   -0.5027    0.3488   64.5535   54.5857    0.0000   35.1575  52.32 232.3 200.0  0     0.0000    0.1327
ST6          ?    ?    ? S      ? 20001213 1510   11.8000 GAU  2.00e-02 -1.00e+00 -1.00e+00 -1.00e+00    1.0000 >   11.6802   -1.1594    0.1765   64.5535   54.5857    0.0000   35.1575  52.32 232.3 200.0  0     0.0000    0.2336
ST3          ?    ?    ? P      ? 20001213 1510    7.9500 GAU  2.00e-02 -1.00e+00 -1.00e+00 -1.00e+00    1.0000 >    7.0216   -0.3507    0.6090   17.1949   64.7711    0.0000   37.2142 328.34 148.3 200.0  0     0.0000    0.1404
ST3          ?    ?    ? S      ? 20001213 1510   12.8300 GAU  2.00e-02 -1.00e+00 -1.00e+00 -1.00e+00    1.0000 >   12.3635   -0.8127    0.2333   17.1949   64.7711    0.0000   37.2142 328.34 148.3 200.0  0     0.0000    0.2473
ST10         ?    ?    ? P      ? 20001213 1510    8.2400 GAU  2.00e-02 -1.00e+00 -1.00e+00 -1.00e+00    1.0000 >    7.4778   -0.5170    0.3511   21.1066   69.5192    0.0000   39.6322 336.79 156.8 200.0  0     0.0000    0.1496
ST10         ?    ?    ? S      ? 20001213 1510   13.3500 GAU  2.00e-02 -1.00e+00 -1.00e+00 -1.00e+00    1.0000 >   13.1669   -1.0961    0.1859   21.1066   69.5192    0.0000   39.6322 336.79 156.8 200.0  0     0.0000    0.2633
ST5          ?    ?    ? P      ? 20001213 1510    8.5000 GAU  2.00e-02 -1.00e+00 -1.00e+00 -1.00e+00    1.0000 >    7.7551   -0.5343    0.3382   45.9261   73.1552    0.0000   41.1019  12.93 192.9 200.0  0     0.0000    0.1551
ST5          ?    ?    ? S      ? 20001213 1510   13.5900 GAU  2.00e-02 -1.00e+00 -1.00e+00 -1.00e+00    1.0000 >   13.6551   -1.3443    0.1494   45.9261   73.1552    0.0000   41.1019  12.93 192.9 200.0  0     0.0000    0.2731
ST11         ?    ?    ? P      ? 20001213 1510   10.1200 GAU  2.00e-02 -1.00e+00 -1.00e+00 -1.00e+00    1.0000 >    9.8450   -1.0042    0.1797   13.0335   79.7825    0.0000   52.3556 333.09 153.1 200.0  0     0.0000    0.1969
ST11         ?    ?    ? S      ? 20001213 1510   16.8200 GAU  2.00e-02 -1.00e+00 -1.00e+00 -1.00e+00    1.0000 >   17.3360   -1.7952    0.0632   13.0335   79.7825    0.0000   52.3556 333.09 153.1 200.0  0     0.0000    0.3467
ST2          ?    ?    ? P      ? 20001213 1510   11.7500 GAU  2.00e-02 -1.00e+00 -1.00e+00 -1.00e+00    1.0000 >   11.8510   -1.3802    0.1408   36.5585   96.8954    0.0000   63.7999 359.85 179.8 200.0  0     0.0000    0.2370
ST2          ?    ?    ? S      ? 20001213 1510   19.2400 GAU  2.00e-02 -1.00e+00 -1.00e+00 -1.00e+00    1.0000 >   20.8707   -2.9098    0.0033   36.5585   96.8954    0.0000   63.7999 359.85 179.8 200.0  0     0.0000    0.4174
END_PHASE
END_NLLOC

