NLLOC "./loc/alaska.20001213.151002_020.grid0" "LOCATED" "Location completed."
PUBLIC_ID None
SIGNATURE "NonLinLoc - Yifan Yu   obs:./obs/phase.obs   NLLoc:v7.00.16(17Apr2023)   run:24Aug2023 11h42m14"
COMMENT "2023-8-21 test"
GRID  201 201 41  0 0 0  0.5 0.5 0.5 PROB_DENSITY
SEARCH OCTREE nInitial 400 nEvaluated 20008 smallestNodeSide 0.039062/0.039062/0.019531 oct_tree_integral 1.719887e-01 scatter_volume 1.719887e-01
HYPOCENTER  x 46.3867 y 31.2695 z 6.10352  OT 1.04978  ix -1 iy -1 iz -1 MAXIMUM_LIKELIHOOD
GEOGRAPHIC  OT 2000 12 13  15 10 1.049776  Lat 35.681213 Long -117.486424 Depth 6.103516
QUALITY  Pmax 2.01486e+99 MFmin 55.8896 MFmax 57.0467 RMS 0.134522 Nphs 32 Gap 72.0487 Dist 4.05452 Mamp -9.90 0 Mdur -9.90 0
VPVSRATIO  VpVsRatio 1.72609  Npair 10  Diff 5.85
STATISTICS  ExpectX 46.401272 Y 31.294662 Z 6.244913  CovXX 0.0636106 XY 0.0379975 XZ 0.0108497 YY 0.0621966 YZ -0.0169865 ZZ 0.200875 EllAz1  135.871 Dip1  -6.32467 Len1  0.283158 Az2  226.121 Dip2  -2.26101 Len2  0.596343 Len3  8.469849e-01
STAT_GEOG  ExpectLat 35.681439 Long -117.486261 Depth 6.244913
TRANSFORM  SIMPLE LatOrig 35.400000  LongOrig -118.000000  RotCW 0.000000
QML_OriginQuality  assocPhCt 32  usedPhCt 32  assocStaCt -1  usedStaCt 22  depthPhCt -1  stdErr 0.134522  azGap 72.0487  secAzGap 108.15  gtLevel -  minDist 4.05452 maxDist 66.3577 medDist 20.7068
QML_OriginUncertainty  horUnc -1  minHorUnc 0.239309  maxHorUnc 0.481755  azMaxHorUnc 45.533
QML_ConfidenceEllipsoid  semiMajorAxisLength 0.846985  semiMinorAxisLength 0.283158  semiIntermediateAxisLength 0.596343  majorAxisPlunge 83.2802  majorAxisAzimuth 155.7  majorAxisRotation 109.204
FOCALMECH  Hyp  35.681213 -117.486424 6.103516 Mech  0 0 0 mf  0 nObs -1
PHASE ID Ins Cmp On Pha  FM Date     HrMn   Sec     Err  ErrMag    Coda      Amp       Per       PriorWt  >   TTpred    Res       Weight    StaLoc(X  Y         Z)        SDist    SAzim  RAz  RDip RQual    Tcorr       TTerr
ST19         ?    ?    ? P      ? 20001213 1510    2.4700 GAU  2.00e-02 -1.00e+00 -1.00e+00 -1.00e+00    1.0000 >    1.3605    0.0597    1.6617   47.2048   27.2984    0.0000    4.0545 168.36 168.4 145.9  9     0.0000    0.0500
ST19         ?    ?    ? S      ? 20001213 1510    3.5000 GAU  2.00e-02 -1.00e+00 -1.00e+00 -1.00e+00    1.0000 >    2.4488    0.0014    1.8400   47.2048   27.2984    0.0000    4.0545 168.36 168.4 140.5  9     0.0000    0.0500
ST13         ?    ?    ? P      ? 20001213 1510    2.5600 GAU  2.00e-02 -1.00e+00 -1.00e+00 -1.00e+00    1.0000 >    1.5791   -0.0689    1.4986   52.0625   29.4778    0.0000    5.9519 107.52 107.5 133.5  9     0.0000    0.0500
ST23         ?    ?    ? P      ? 20001213 1510    3.1600 GAU  2.00e-02 -1.00e+00 -1.00e+00 -1.00e+00    1.0000 >    2.0172    0.0930    1.4148   38.6464   35.8493    0.0000    8.9937 300.61 300.6 120.4  9     0.0000    0.0500
ST23         ?    ?    ? S      ? 20001213 1510    4.6200 GAU  2.00e-02 -1.00e+00 -1.00e+00 -1.00e+00    1.0000 >    3.5921   -0.0219    1.6896   38.6464   35.8493    0.0000    8.9937 300.61 300.6 105.1  9     0.0000    0.0718
ST15         ?    ?    ? P      ? 20001213 1510    3.1600 GAU  2.00e-02 -1.00e+00 -1.00e+00 -1.00e+00    1.0000 >    2.1648   -0.0546    1.6118   38.9482   24.6853    0.0000    9.9340 228.49 228.5 117.5  9     0.0000    0.0500
ST15         ?    ?    ? S      ? 20001213 1510    4.9100 GAU  2.00e-02 -1.00e+00 -1.00e+00 -1.00e+00    1.0000 >    3.8344    0.0259    1.6879   38.9482   24.6853    0.0000    9.9340 228.49 228.5  99.7  9     0.0000    0.0767
ST25         ?    ?    ? P      ? 20001213 1510    3.3000 GAU  2.00e-02 -1.00e+00 -1.00e+00 -1.00e+00    1.0000 >    2.2895   -0.0393    1.7115   35.8320   33.0917    0.0000   10.7109 279.79 279.8 115.5  9     0.0000    0.0500
ST25         ?    ?    ? S      ? 20001213 1510    5.1000 GAU  2.00e-02 -1.00e+00 -1.00e+00 -1.00e+00    1.0000 >    4.0347    0.0155    1.6771   35.8320   33.0917    0.0000   10.7109 279.79 279.8  95.0  9     0.0000    0.0807
ST24         ?    ?    ? P      ? 20001213 1510    3.9500 GAU  2.00e-02 -1.00e+00 -1.00e+00 -1.00e+00    1.0000 >    2.6786    0.2216    0.4703   55.9556   22.3725    0.0000   13.0661 132.92 132.9 110.4  9     0.0000    0.0536
ST24         ?    ?    ? S      ? 20001213 1510    5.5700 GAU  2.00e-02 -1.00e+00 -1.00e+00 -1.00e+00    1.0000 >    4.6427   -0.1225    1.0790   55.9556   22.3725    0.0000   13.0661 132.92 132.9  81.7  8     0.0000    0.0929
ST26         ?    ?    ? S      ? 20001213 1510    5.7300 GAU  2.00e-02 -1.00e+00 -1.00e+00 -1.00e+00    1.0000 >    4.6835   -0.0033    1.5963   52.5727   19.5815    0.0000   13.2241 152.11 152.1  81.3  8     0.0000    0.0937
ST21         ?    ?    ? P      ? 20001213 1510    3.9900 GAU  2.00e-02 -1.00e+00 -1.00e+00 -1.00e+00    1.0000 >    2.8849    0.0553    1.6698   36.1150   41.1978    0.0000   14.2856 314.03 314.0 108.3  9     0.0000    0.0577
ST21         ?    ?    ? S      ? 20001213 1510    5.9800 GAU  2.00e-02 -1.00e+00 -1.00e+00 -1.00e+00    1.0000 >    4.9577   -0.0275    1.5239   36.1150   41.1978    0.0000   14.2856 314.03 314.0  79.5  8     0.0000    0.0992
ST1          ?    ?    ? S      ? 20001213 1510    7.0400 GAU  2.00e-02 -1.00e+00 -1.00e+00 -1.00e+00    1.0000 >    5.9244    0.0658    1.3799   36.2928   46.2238    0.0000   18.0421 325.98 326.0  73.3  8     0.0000    0.1185
ST14         ?    ?    ? P      ? 20001213 1510    4.4600 GAU  2.00e-02 -1.00e+00 -1.00e+00 -1.00e+00    1.0000 >    3.9082   -0.4980    0.2494   58.1038   47.7138    0.0000   20.1917  35.47  35.5 101.7  9     0.0000    0.0782
ST0          ?    ?    ? P      ? 20001213 1510    5.1500 GAU  2.00e-02 -1.00e+00 -1.00e+00 -1.00e+00    1.0000 >    3.9853    0.1149    1.2556   57.5022   13.8883    0.0000   20.6316 147.40 147.4 101.4  9     0.0000    0.0797
ST17         ?    ?    ? P      ? 20001213 1510    5.1200 GAU  2.00e-02 -1.00e+00 -1.00e+00 -1.00e+00    1.0000 >    4.0117    0.0585    1.5724   64.4820   21.0492    0.0000   20.7820 119.46 119.5 101.3  9     0.0000    0.0802
ST16         ?    ?    ? S      ? 20001213 1510    8.3000 GAU  2.00e-02 -1.00e+00 -1.00e+00 -1.00e+00    1.0000 >    7.2921   -0.0419    1.2731   39.8239    8.7066    0.0000   23.4980 196.22 196.2  65.5  9     0.0000    0.1458
ST7          ?    ?    ? S      ? 20001213 1510    8.9000 GAU  2.00e-02 -1.00e+00 -1.00e+00 -1.00e+00    1.0000 >    7.3880    0.4623    0.1763   22.5319   32.5023    0.0000   23.8866 272.96 273.0  65.4  9     0.0000    0.1478
ST20         ?    ?    ? P      ? 20001213 1510    6.6000 GAU  2.00e-02 -1.00e+00 -1.00e+00 -1.00e+00    1.0000 >    5.6628   -0.1126    1.1305   26.5943   53.9852    0.0000   30.1287 318.93 318.9  97.1  9     0.0000    0.1133
ST22         ?    ?    ? P      ? 20001213 1510    6.4800 GAU  2.00e-02 -1.00e+00 -1.00e+00 -1.00e+00    1.0000 >    5.8877   -0.4574    0.2761   26.8589   55.8533    0.0000   31.3958 321.54 321.5  96.8  9     0.0000    0.1178
ST22         ?    ?    ? S      ? 20001213 1510   10.5100 GAU  2.00e-02 -1.00e+00 -1.00e+00 -1.00e+00    1.0000 >    9.2364    0.2238    0.7666   26.8589   55.8533    0.0000   31.3958 321.54 321.5  65.0  8     0.0000    0.1847
ST9          ?    ?    ? P      ? 20001213 1510    7.6000 GAU  2.00e-02 -1.00e+00 -1.00e+00 -1.00e+00    1.0000 >    6.9501   -0.3999    0.3279    9.8992   23.1731    0.0000   37.3751 257.49 257.5  95.1  9     0.0000    0.1390
ST9          ?    ?    ? S      ? 20001213 1510   12.3000 GAU  2.00e-02 -1.00e+00 -1.00e+00 -1.00e+00    1.0000 >   10.7077    0.5425    0.1807    9.8992   23.1731    0.0000   37.3751 257.49 257.5  65.0  8     0.0000    0.2142
ST5          ?    ?    ? S      ? 20001213 1510   12.5900 GAU  2.00e-02 -1.00e+00 -1.00e+00 -1.00e+00    1.0000 >   11.8182   -0.2780    0.6631   45.9261   73.1552    0.0000   41.8882 359.37 359.4  65.0  8     0.0000    0.2364
ST3          ?    ?    ? P      ? 20001213 1510    8.3900 GAU  2.00e-02 -1.00e+00 -1.00e+00 -1.00e+00    1.0000 >    8.1752   -0.8350    0.1359   17.1949   64.7711    0.0000   44.4356 318.93 318.9  70.8  8     0.0000    0.1635
ST10         ?    ?    ? P      ? 20001213 1510    8.3900 GAU  2.00e-02 -1.00e+00 -1.00e+00 -1.00e+00    1.0000 >    8.4044   -1.0642    0.1235   21.1066   69.5192    0.0000   45.8489 326.54 326.5  66.5  9     0.0000    0.1681
ST10         ?    ?    ? S      ? 20001213 1510   13.3800 GAU  2.00e-02 -1.00e+00 -1.00e+00 -1.00e+00    1.0000 >   12.7928   -0.4626    0.4084   21.1066   69.5192    0.0000   45.8489 326.54 326.5  65.0  8     0.0000    0.2559
ST11         ?    ?    ? P      ? 20001213 1510   10.3500 GAU  2.00e-02 -1.00e+00 -1.00e+00 -1.00e+00    1.0000 >   10.5052   -1.2050    0.0987   13.0335   79.7825    0.0000   58.8722 325.49 325.5  64.5 10     0.0000    0.2101
ST11         ?    ?    ? S      ? 20001213 1510   17.2300 GAU  2.00e-02 -1.00e+00 -1.00e+00 -1.00e+00    1.0000 >   15.9974    0.1829    0.7265   13.0335   79.7825    0.0000   58.8722 325.49 325.5  65.0  8     0.0000    0.3199
ST2          ?    ?    ? P      ? 20001213 1510   11.6000 GAU  2.00e-02 -1.00e+00 -1.00e+00 -1.00e+00    1.0000 >   11.6440   -1.0938    0.1233   36.5585   96.8954    0.0000   66.3577 351.48 351.5  54.3 10     0.0000    0.2329
END_PHASE
END_NLLOC

