NLLOC "./loc/alaska.20001213.151002_025.grid0" "LOCATED" "Location completed."
PUBLIC_ID None
SIGNATURE "NonLinLoc - Yifan Yu   obs:./obs/phase.obs   NLLoc:v7.00.16(17Apr2023)   run:24Aug2023 11h42m16"
COMMENT "2023-8-21 test"
GRID  201 201 41  0 0 0  0.5 0.5 0.5 PROB_DENSITY
SEARCH OCTREE nInitial 400 nEvaluated 20000 smallestNodeSide 0.078125/0.078125/0.039062 oct_tree_integral 5.915158e+00 scatter_volume 5.903685e+00
HYPOCENTER  x 12.3047 y 74.7266 z 14.5117  OT 0.281203  ix -1 iy -1 iz -1 MAXIMUM_LIKELIHOOD
GEOGRAPHIC  OT 2000 12 13  15 10 0.281203  Lat 36.072031 Long -117.863093 Depth 14.511719
QUALITY  Pmax 5.1061e+110 MFmin 47.4281 MFmax 51.428 RMS 0.167164 Nphs 36 Gap 185.532 Dist 5.10817 Mamp -9.90 0 Mdur -9.90 0
VPVSRATIO  VpVsRatio 1.73668  Npair 12  Diff 6.61
STATISTICS  ExpectX 11.944332 Y 74.880788 Z 14.808413  CovXX 1.26173 XY 0.420495 XZ 0.0581624 YY 0.754692 YZ 0.348547 ZZ 0.662253 EllAz1  159.187 Dip1  39.3083 Len1  1.01101 Az2  309.851 Dip2  46.797 Len2  1.71177 Len3  2.345931e+00
STAT_GEOG  ExpectLat 36.073418 Long -117.867100 Depth 14.808413
TRANSFORM  SIMPLE LatOrig 35.400000  LongOrig -118.000000  RotCW 0.000000
QML_OriginQuality  assocPhCt 36  usedPhCt 36  assocStaCt -1  usedStaCt 24  depthPhCt -1  stdErr 0.167164  azGap 185.532  secAzGap 185.532  gtLevel -  minDist 5.10817 maxDist 75.7899 medDist 45.2031
QML_OriginUncertainty  horUnc -1  minHorUnc 1.09067  maxHorUnc 1.85693  azMaxHorUnc 60.5429
QML_ConfidenceEllipsoid  semiMajorAxisLength 2.34593  semiMinorAxisLength 1.01101  semiIntermediateAxisLength 1.71177  majorAxisPlunge 15.041  majorAxisAzimuth 56.4772  majorAxisRotation 45.1242
FOCALMECH  Hyp  36.072031 -117.863093 14.511719 Mech  0 0 0 mf  0 nObs -1
PHASE ID Ins Cmp On Pha  FM Date     HrMn   Sec     Err  ErrMag    Coda      Amp       Per       PriorWt  >   TTpred    Res       Weight    StaLoc(X  Y         Z)        SDist    SAzim  RAz  RDip RQual    Tcorr       TTerr
ST11         ?    ?    ? P      ? 20001213 1510    2.9900 GAU  2.00e-02 -1.00e+00 -1.00e+00 -1.00e+00    1.0000 >    2.6920    0.0168    1.7238   13.0335   79.7825    0.0000    5.1082   8.20   8.2 156.5  9     0.0000    0.0538
ST11         ?    ?    ? S      ? 20001213 1510    4.6400 GAU  2.00e-02 -1.00e+00 -1.00e+00 -1.00e+00    1.0000 >    4.3810   -0.0222    1.6682   13.0335   79.7825    0.0000    5.1082   8.20   8.2 157.8  9     0.0000    0.0876
ST10         ?    ?    ? P      ? 20001213 1510    2.7500 GAU  2.00e-02 -1.00e+00 -1.00e+00 -1.00e+00    1.0000 >    3.0969   -0.6281    0.1136   21.1066   69.5192    0.0000   10.2269 120.61 120.6 137.7 10     0.0000    0.0619
ST3          ?    ?    ? S      ? 20001213 1510    3.6300 GAU  2.00e-02 -1.00e+00 -1.00e+00 -1.00e+00    1.0000 >    5.1586   -1.8098    0.0000   17.1949   64.7711    0.0000   11.0917 153.84 153.8 139.1 10     0.0000    0.1032
ST12         ?    ?    ? P      ? 20001213 1510    5.1000 GAU  2.00e-02 -1.00e+00 -1.00e+00 -1.00e+00    1.0000 >    4.8040    0.0148    1.6262   31.4703   60.9238    0.0000   23.6186 125.76 125.8  99.8  9     0.0000    0.0961
ST12         ?    ?    ? S      ? 20001213 1510    7.7500 GAU  2.00e-02 -1.00e+00 -1.00e+00 -1.00e+00    1.0000 >    7.6906   -0.2218    1.0490   31.4703   60.9238    0.0000   23.6186 125.76 125.8 114.1  9     0.0000    0.1538
ST22         ?    ?    ? P      ? 20001213 1510    5.1000 GAU  2.00e-02 -1.00e+00 -1.00e+00 -1.00e+00    1.0000 >    4.8348   -0.0160    1.6420   26.8589   55.8533    0.0000   23.8333 142.36 142.4  99.6  9     0.0000    0.0967
ST20         ?    ?    ? S      ? 20001213 1510    8.2200 GAU  2.00e-02 -1.00e+00 -1.00e+00 -1.00e+00    1.0000 >    8.0455   -0.1067    1.3456   26.5943   53.9852    0.0000   25.1872 145.44 145.4 112.5  9     0.0000    0.1609
ST8          ?    ?    ? S      ? 20001213 1510   10.0200 GAU  2.00e-02 -1.00e+00 -1.00e+00 -1.00e+00    1.0000 >    9.3015    0.4373    0.5207   21.2005   45.4232    0.0000   30.6239 163.11 163.1 108.2  9     0.0000    0.1860
ST2          ?    ?    ? P      ? 20001213 1510    7.3400 GAU  2.00e-02 -1.00e+00 -1.00e+00 -1.00e+00    1.0000 >    6.1374    0.9214    0.1348   36.5585   96.8954    0.0000   32.8589  47.57  47.6  94.4  9     0.0000    0.1227
ST2          ?    ?    ? S      ? 20001213 1510   11.7200 GAU  2.00e-02 -1.00e+00 -1.00e+00 -1.00e+00    1.0000 >    9.8262    1.6126    0.0089   36.5585   96.8954    0.0000   32.8589  47.57  47.6 106.9  9     0.0000    0.1965
ST5          ?    ?    ? S      ? 20001213 1510   11.3200 GAU  2.00e-02 -1.00e+00 -1.00e+00 -1.00e+00    1.0000 >   10.0147    1.0241    0.1234   45.9261   73.1552    0.0000   33.6581  92.68  92.7 106.5  9     0.0000    0.2003
ST1          ?    ?    ? P      ? 20001213 1510    7.0100 GAU  2.00e-02 -1.00e+00 -1.00e+00 -1.00e+00    1.0000 >    6.7734   -0.0446    1.5032   36.2928   46.2238    0.0000   37.2537 139.92 139.9  93.5  9     0.0000    0.1355
ST1          ?    ?    ? S      ? 20001213 1510   11.2100 GAU  2.00e-02 -1.00e+00 -1.00e+00 -1.00e+00    1.0000 >   10.8672    0.0616    1.2426   36.2928   46.2238    0.0000   37.2537 139.92 139.9 104.7  9     0.0000    0.2173
ST21         ?    ?    ? P      ? 20001213 1510    7.5900 GAU  2.00e-02 -1.00e+00 -1.00e+00 -1.00e+00    1.0000 >    7.3337   -0.0249    1.4783   36.1150   41.1978    0.0000   41.1231 144.62 144.6  92.9  9     0.0000    0.1467
ST21         ?    ?    ? S      ? 20001213 1510   12.2400 GAU  2.00e-02 -1.00e+00 -1.00e+00 -1.00e+00    1.0000 >   11.7913    0.1675    1.0734   36.1150   41.1978    0.0000   41.1231 144.62 144.6 103.3  9     0.0000    0.2358
ST7          ?    ?    ? P      ? 20001213 1510    8.0200 GAU  2.00e-02 -1.00e+00 -1.00e+00 -1.00e+00    1.0000 >    7.6700    0.0688    1.3814   22.5319   32.5023    0.0000   43.4452 166.38 166.4  92.7  9     0.0000    0.1534
ST23         ?    ?    ? P      ? 20001213 1510    8.2700 GAU  2.00e-02 -1.00e+00 -1.00e+00 -1.00e+00    1.0000 >    8.1792   -0.1904    1.1397   38.6464   35.8493    0.0000   46.9609 145.88 145.9  92.4  9     0.0000    0.1636
ST23         ?    ?    ? S      ? 20001213 1510   13.4600 GAU  2.00e-02 -1.00e+00 -1.00e+00 -1.00e+00    1.0000 >   13.1946   -0.0158    1.1637   38.6464   35.8493    0.0000   46.9609 145.88 145.9 101.5  9     0.0000    0.2639
ST9          ?    ?    ? P      ? 20001213 1510    9.1000 GAU  2.00e-02 -1.00e+00 -1.00e+00 -1.00e+00    1.0000 >    8.8526   -0.0338    1.3826    9.8992   23.1731    0.0000   51.6096 182.67 182.7  92.1  9     0.0000    0.1771
ST9          ?    ?    ? S      ? 20001213 1510   14.9200 GAU  2.00e-02 -1.00e+00 -1.00e+00 -1.00e+00    1.0000 >   14.3176    0.3212    0.7988    9.8992   23.1731    0.0000   51.6096 182.67 182.7 100.4  9     0.0000    0.2864
ST14         ?    ?    ? P      ? 20001213 1510    9.2500 GAU  2.00e-02 -1.00e+00 -1.00e+00 -1.00e+00    1.0000 >    9.0789   -0.1101    1.2921   58.1038   47.7138    0.0000   53.1718 120.53 120.5  92.0  9     0.0000    0.1816
ST14         ?    ?    ? S      ? 20001213 1510   15.2300 GAU  2.00e-02 -1.00e+00 -1.00e+00 -1.00e+00    1.0000 >   14.6958    0.2530    0.8966   58.1038   47.7138    0.0000   53.1718 120.53 120.5 100.1  9     0.0000    0.2939
ST6          ?    ?    ? P      ? 20001213 1510    9.7800 GAU  2.00e-02 -1.00e+00 -1.00e+00 -1.00e+00    1.0000 >    9.4881    0.0107    1.3455   64.5535   54.5857    0.0000   55.9964 111.08 111.1  91.8  9     0.0000    0.1898
ST6          ?    ?    ? S      ? 20001213 1510   16.1400 GAU  2.00e-02 -1.00e+00 -1.00e+00 -1.00e+00    1.0000 >   15.3805    0.4783    0.5790   64.5535   54.5857    0.0000   55.9964 111.08 111.1  99.5  9     0.0000    0.3076
ST19         ?    ?    ? P      ? 20001213 1510   10.0300 GAU  2.00e-02 -1.00e+00 -1.00e+00 -1.00e+00    1.0000 >    9.9067   -0.1579    1.1739   47.2048   27.2984    0.0000   58.8850 143.65 143.7  91.7  9     0.0000    0.1981
ST13         ?    ?    ? P      ? 20001213 1510   10.3200 GAU  2.00e-02 -1.00e+00 -1.00e+00 -1.00e+00    1.0000 >   10.1021   -0.0633    1.2962   52.0625   29.4778    0.0000   60.2340 138.70 138.7  91.7  9     0.0000    0.2020
ST18         ?    ?    ? S      ? 20001213 1510   17.2400 GAU  2.00e-02 -1.00e+00 -1.00e+00 -1.00e+00    1.0000 >   16.9213    0.0375    1.0149   45.8666   22.1945    0.0000   62.3379 147.43 147.4  98.4  9     0.0000    0.3384
ST4          ?    ?    ? P      ? 20001213 1510   11.1000 GAU  2.00e-02 -1.00e+00 -1.00e+00 -1.00e+00    1.0000 >   11.2150   -0.3962    0.6319   28.7854    8.8400    0.0000   67.9165 165.96 166.0  88.0  8     0.0000    0.2243
ST4          ?    ?    ? S      ? 20001213 1510   18.4300 GAU  2.00e-02 -1.00e+00 -1.00e+00 -1.00e+00    1.0000 >   18.2797   -0.1309    0.9332   28.7854    8.8400    0.0000   67.9165 165.96 166.0  97.7  9     0.0000    0.3656
ST26         ?    ?    ? S      ? 20001213 1510   18.9000 GAU  2.00e-02 -1.00e+00 -1.00e+00 -1.00e+00    1.0000 >   18.3689    0.2499    0.8474   52.5727   19.5815    0.0000   68.2824 143.86 143.9  97.7  9     0.0000    0.3674
ST16         ?    ?    ? P      ? 20001213 1510   11.8500 GAU  2.00e-02 -1.00e+00 -1.00e+00 -1.00e+00    1.0000 >   11.7245   -0.1557    1.1174   39.8239    8.7066    0.0000   71.5259 157.37 157.4  75.6  9     0.0000    0.2345
ST16         ?    ?    ? S      ? 20001213 1510   19.4500 GAU  2.00e-02 -1.00e+00 -1.00e+00 -1.00e+00    1.0000 >   19.1597    0.0091    0.9464   39.8239    8.7066    0.0000   71.5259 157.37 157.4  97.3  9     0.0000    0.3832
ST17         ?    ?    ? P      ? 20001213 1510   12.6100 GAU  2.00e-02 -1.00e+00 -1.00e+00 -1.00e+00    1.0000 >   12.1772    0.1516    1.0877   64.4820   21.0492    0.0000   74.8580 135.81 135.8  69.5  9     0.0000    0.2435
ST0          ?    ?    ? P      ? 20001213 1510   12.7100 GAU  2.00e-02 -1.00e+00 -1.00e+00 -1.00e+00    1.0000 >   12.3032    0.1256    1.1183   57.5022   13.8883    0.0000   75.7899 143.39 143.4  69.1 10     0.0000    0.2461
ST0          ?    ?    ? S      ? 20001213 1510   20.9700 GAU  2.00e-02 -1.00e+00 -1.00e+00 -1.00e+00    1.0000 >   20.2003    0.4885    0.5995   57.5022   13.8883    0.0000   75.7899 143.39 143.4  96.9  9     0.0000    0.4040
END_PHASE
END_NLLOC

