NLLOC "./loc/alaska.20001213.151002_013.grid0" "LOCATED" "Location completed."
PUBLIC_ID None
SIGNATURE "NonLinLoc - Yifan Yu   obs:./obs/phase.obs   NLLoc:v7.00.16(17Apr2023)   run:24Aug2023 11h42m40"
COMMENT "2023-8-21 test"
GRID  201 201 41  0 0 0  0.5 0.5 0.5 PROB_DENSITY
SEARCH OCTREE nInitial 400 nEvaluated 20008 smallestNodeSide 0.039062/0.039062/0.019531 oct_tree_integral 5.178601e-01 scatter_volume 5.178601e-01
HYPOCENTER  x 45.8789 y 29.9805 z 6.18164  OT 1.0934  ix -1 iy -1 iz -1 MAXIMUM_LIKELIHOOD
GEOGRAPHIC  OT 2000 12 13  15 10 1.093395  Lat 35.669620 Long -117.492120 Depth 6.181641
QUALITY  Pmax 1.10659e+82 MFmin 49.3331 MFmax 50.2106 RMS 0.120956 Nphs 27 Gap 57.4499 Dist 2.9919 Mamp -9.90 0 Mdur -9.90 0
VPVSRATIO  VpVsRatio 1.65999  Npair 7  Diff 2.65
STATISTICS  ExpectX 46.041418 Y 30.016933 Z 6.090044  CovXX 0.0978777 XY 0.0295842 XZ -0.0180309 YY 0.0753489 YZ -0.0370414 ZZ 0.33713 EllAz1  327.854 Dip1  4.38734 Len1  0.434172 Az2  238.534 Dip2  -8.79333 Len2  0.630774 Len3  1.102351e+00
STAT_GEOG  ExpectLat 35.669948 Long -117.490319 Depth 6.090044
TRANSFORM  SIMPLE LatOrig 35.400000  LongOrig -118.000000  RotCW 0.000000
QML_OriginQuality  assocPhCt 27  usedPhCt 27  assocStaCt -1  usedStaCt 20  depthPhCt -1  stdErr 0.120956  azGap 57.4499  secAzGap 94.5846  gtLevel -  minDist 2.9919 maxDist 43.1748 medDist 21.3774
QML_OriginUncertainty  horUnc -1  minHorUnc 0.35553  maxHorUnc 0.521555  azMaxHorUnc 55.4224
QML_ConfidenceEllipsoid  semiMajorAxisLength 1.10235  semiMinorAxisLength 0.434172  semiIntermediateAxisLength 0.630774  majorAxisPlunge -80.1573  majorAxisAzimuth 31.6082  majorAxisRotation 207.99
FOCALMECH  Hyp  35.669620 -117.492120 6.181641 Mech  0 0 0 mf  0 nObs -1
PHASE ID Ins Cmp On Pha  FM Date     HrMn   Sec     Err  ErrMag    Coda      Amp       Per       PriorWt  >   TTpred    Res       Weight    StaLoc(X  Y         Z)        SDist    SAzim  RAz  RDip RQual    Tcorr       TTerr
ST19         ?    ?    ? P      ? 20001213 1510    2.4000 GAU  2.00e-02 -1.00e+00 -1.00e+00 -1.00e+00    1.0000 >    1.2764    0.0302    1.4907   47.2048   27.2984    0.0000    2.9919 153.69 153.7 153.7  9     0.0000    0.0500
ST19         ?    ?    ? S      ? 20001213 1510    3.1200 GAU  2.00e-02 -1.00e+00 -1.00e+00 -1.00e+00    1.0000 >    2.2965   -0.2699    0.6197   47.2048   27.2984    0.0000    2.9919 153.69 153.7 149.1  9     0.0000    0.0500
ST13         ?    ?    ? P      ? 20001213 1510    2.3800 GAU  2.00e-02 -1.00e+00 -1.00e+00 -1.00e+00    1.0000 >    1.6219   -0.3353    0.4093   52.0625   29.4778    0.0000    6.2040  94.65  94.6 132.6  9     0.0000    0.0500
ST18         ?    ?    ? P      ? 20001213 1510    2.8900 GAU  2.00e-02 -1.00e+00 -1.00e+00 -1.00e+00    1.0000 >    1.8430   -0.0464    1.5231   45.8666   22.1945    0.0000    7.7859 180.09 180.1 125.1  9     0.0000    0.0500
ST18         ?    ?    ? S      ? 20001213 1510    4.2500 GAU  2.00e-02 -1.00e+00 -1.00e+00 -1.00e+00    1.0000 >    3.2878   -0.1312    1.1612   45.8666   22.1945    0.0000    7.7859 180.09 180.1 111.2  9     0.0000    0.0658
ST15         ?    ?    ? P      ? 20001213 1510    3.1200 GAU  2.00e-02 -1.00e+00 -1.00e+00 -1.00e+00    1.0000 >    1.9830    0.0436    1.4208   38.9482   24.6853    0.0000    8.7220 232.62 232.6 121.7  9     0.0000    0.0500
ST15         ?    ?    ? S      ? 20001213 1510    4.6100 GAU  2.00e-02 -1.00e+00 -1.00e+00 -1.00e+00    1.0000 >    3.5266   -0.0100    1.5112   38.9482   24.6853    0.0000    8.7220 232.62 232.6 106.3  9     0.0000    0.0705
ST25         ?    ?    ? S      ? 20001213 1510    5.0400 GAU  2.00e-02 -1.00e+00 -1.00e+00 -1.00e+00    1.0000 >    3.9879   -0.0413    1.4620   35.8320   33.0917    0.0000   10.5176 287.21 287.2  97.0  9     0.0000    0.0798
ST26         ?    ?    ? P      ? 20001213 1510    3.7600 GAU  2.00e-02 -1.00e+00 -1.00e+00 -1.00e+00    1.0000 >    2.5671    0.0995    0.9898   52.5727   19.5815    0.0000   12.3671 147.23 147.2 112.1  9     0.0000    0.0513
ST24         ?    ?    ? P      ? 20001213 1510    3.7200 GAU  2.00e-02 -1.00e+00 -1.00e+00 -1.00e+00    1.0000 >    2.6102    0.0164    1.5364   55.9556   22.3725    0.0000   12.6263 127.05 127.1 111.6  9     0.0000    0.0522
ST21         ?    ?    ? P      ? 20001213 1510    4.0700 GAU  2.00e-02 -1.00e+00 -1.00e+00 -1.00e+00    1.0000 >    2.9893   -0.0127    1.5537   36.1150   41.1978    0.0000   14.8715 318.96 319.0 107.7  9     0.0000    0.0598
ST1          ?    ?    ? P      ? 20001213 1510    4.6500 GAU  2.00e-02 -1.00e+00 -1.00e+00 -1.00e+00    1.0000 >    3.6786   -0.1220    1.2138   36.2928   46.2238    0.0000   18.8610 329.45 329.5 103.1  9     0.0000    0.0736
ST1          ?    ?    ? S      ? 20001213 1510    7.2200 GAU  2.00e-02 -1.00e+00 -1.00e+00 -1.00e+00    1.0000 >    6.1307   -0.0041    1.2822   36.2928   46.2238    0.0000   18.8610 329.45 329.5  72.5  8     0.0000    0.1226
ST17         ?    ?    ? P      ? 20001213 1510    4.9100 GAU  2.00e-02 -1.00e+00 -1.00e+00 -1.00e+00    1.0000 >    3.9890   -0.1724    1.0138   64.4820   21.0492    0.0000   20.6359 115.65 115.6 101.7  9     0.0000    0.0798
ST17         ?    ?    ? S      ? 20001213 1510    7.6800 GAU  2.00e-02 -1.00e+00 -1.00e+00 -1.00e+00    1.0000 >    6.5769    0.0097    1.2286   64.4820   21.0492    0.0000   20.6359 115.65 115.6  69.1  8     0.0000    0.1315
ST16         ?    ?    ? S      ? 20001213 1510    8.0400 GAU  2.00e-02 -1.00e+00 -1.00e+00 -1.00e+00    1.0000 >    6.9454    0.0012    1.2132   39.8239    8.7066    0.0000   22.1188 195.89 195.9  67.5  9     0.0000    0.1389
ST7          ?    ?    ? P      ? 20001213 1510    5.5700 GAU  2.00e-02 -1.00e+00 -1.00e+00 -1.00e+00    1.0000 >    4.4894   -0.0128    1.4299   22.5319   32.5023    0.0000   23.4828 276.16 276.2 100.0  9     0.0000    0.0898
ST7          ?    ?    ? S      ? 20001213 1510    8.9400 GAU  2.00e-02 -1.00e+00 -1.00e+00 -1.00e+00    1.0000 >    7.2823    0.5643    0.0958   22.5319   32.5023    0.0000   23.4828 276.16 276.2  66.8  9     0.0000    0.1456
ST4          ?    ?    ? P      ? 20001213 1510    6.0100 GAU  2.00e-02 -1.00e+00 -1.00e+00 -1.00e+00    1.0000 >    5.1435   -0.2269    0.8457   28.7854    8.8400    0.0000   27.1865 218.96 219.0  98.3  9     0.0000    0.1029
ST4          ?    ?    ? S      ? 20001213 1510    9.2000 GAU  2.00e-02 -1.00e+00 -1.00e+00 -1.00e+00    1.0000 >    8.1944   -0.0878    1.1331   28.7854    8.8400    0.0000   27.1865 218.96 219.0  66.5  8     0.0000    0.1639
ST8          ?    ?    ? P      ? 20001213 1510    6.7200 GAU  2.00e-02 -1.00e+00 -1.00e+00 -1.00e+00    1.0000 >    5.4844    0.1422    0.7937   21.2005   45.4232    0.0000   29.1118 302.04 302.0  97.6  9     0.0000    0.1097
ST20         ?    ?    ? S      ? 20001213 1510   10.6800 GAU  2.00e-02 -1.00e+00 -1.00e+00 -1.00e+00    1.0000 >    9.0815    0.5051    0.1452   26.5943   53.9852    0.0000   30.7916 321.22 321.2  66.4  8     0.0000    0.1816
ST6          ?    ?    ? S      ? 20001213 1510    9.4800 GAU  2.00e-02 -1.00e+00 -1.00e+00 -1.00e+00    1.0000 >    9.1056   -0.7190    0.0487   64.5535   54.5857    0.0000   30.8894  37.20  37.2  66.4  8     0.0000    0.1821
ST22         ?    ?    ? S      ? 20001213 1510   10.8600 GAU  2.00e-02 -1.00e+00 -1.00e+00 -1.00e+00    1.0000 >    9.4064    0.3602    0.3058   26.8589   55.8533    0.0000   32.1117 323.68 323.7  66.4  8     0.0000    0.1881
ST12         ?    ?    ? S      ? 20001213 1510   10.8200 GAU  2.00e-02 -1.00e+00 -1.00e+00 -1.00e+00    1.0000 >    9.9039   -0.1773    0.9294   31.4703   60.9238    0.0000   34.1335 335.03 335.0  66.4  8     0.0000    0.1981
ST9          ?    ?    ? P      ? 20001213 1510    7.7400 GAU  2.00e-02 -1.00e+00 -1.00e+00 -1.00e+00    1.0000 >    6.8170   -0.1703    1.0362    9.8992   23.1731    0.0000   36.6181 259.29 259.3  95.7  9     0.0000    0.1363
ST5          ?    ?    ? S      ? 20001213 1510   12.8900 GAU  2.00e-02 -1.00e+00 -1.00e+00 -1.00e+00    1.0000 >   12.1286   -0.3320    0.6070   45.9261   73.1552    0.0000   43.1748   0.06   0.1  66.4  8     0.0000    0.2426
END_PHASE
END_NLLOC

