NLLOC "./loc/alaska.20001213.151002_008.grid0" "LOCATED" "Location completed."
PUBLIC_ID None
SIGNATURE "NonLinLoc - Yifan Yu   obs:./obs/phase.obs   NLLoc:v7.00.16(17Apr2023)   run:24Aug2023 11h42m45"
COMMENT "2023-8-21 test"
GRID  201 201 41  0 0 0  0.5 0.5 0.5 PROB_DENSITY
SEARCH OCTREE nInitial 400 nEvaluated 20008 smallestNodeSide 0.078125/0.078125/0.039062 oct_tree_integral 3.748079e+00 scatter_volume 3.748079e+00
HYPOCENTER  x 27.0703 y 59.6484 z 13.6133  OT 0.300749  ix -1 iy -1 iz -1 MAXIMUM_LIKELIHOOD
GEOGRAPHIC  OT 2000 12 13  15 10 0.300749  Lat 35.936431 Long -117.699323 Depth 13.613281
QUALITY  Pmax 5.26398e+108 MFmin 53.7479 MFmax 57.9113 RMS 0.203722 Nphs 35 Gap 94.9947 Dist 4.58112 Mamp -9.90 0 Mdur -9.90 0
VPVSRATIO  VpVsRatio 1.79381  Npair 10  Diff 4.11
STATISTICS  ExpectX 27.278144 Y 59.622094 Z 13.779418  CovXX 0.527841 XY 0.0553968 XZ -0.0196837 YY 0.28013 YZ -0.0164124 ZZ 1.02486 EllAz1  348.027 Dip1  0.906368 Len1  0.972857 Az2  258.069 Dip2  -2.66714 Len2  1.37887 Len3  1.903192e+00
STAT_GEOG  ExpectLat 35.936194 Long -117.697015 Depth 13.779418
TRANSFORM  SIMPLE LatOrig 35.400000  LongOrig -118.000000  RotCW 0.000000
QML_OriginQuality  assocPhCt 35  usedPhCt 35  assocStaCt -1  usedStaCt 25  depthPhCt -1  stdErr 0.203722  azGap 94.9947  secAzGap 122.695  gtLevel -  minDist 4.58112 maxDist 54.9553 medDist 33.2492
QML_OriginUncertainty  horUnc -1  minHorUnc 0.785558  maxHorUnc 1.11411  azMaxHorUnc 77.9513
QML_ConfidenceEllipsoid  semiMajorAxisLength 1.90319  semiMinorAxisLength 0.972857  semiIntermediateAxisLength 1.37887  majorAxisPlunge -87.1828  majorAxisAzimuth 59.2733  majorAxisRotation 198.859
FOCALMECH  Hyp  35.936431 -117.699323 13.613281 Mech  0 0 0 mf  0 nObs -1
PHASE ID Ins Cmp On Pha  FM Date     HrMn   Sec     Err  ErrMag    Coda      Amp       Per       PriorWt  >   TTpred    Res       Weight    StaLoc(X  Y         Z)        SDist    SAzim  RAz  RDip RQual    Tcorr       TTerr
ST12         ?    ?    ? S      ? 20001213 1510    3.3800 GAU  2.00e-02 -1.00e+00 -1.00e+00 -1.00e+00    1.0000 >    4.1269   -1.0477    0.0000   31.4703   60.9238    0.0000    4.5811  73.84  73.8 158.4  9     0.0000    0.0825
ST20         ?    ?    ? P      ? 20001213 1510    2.5200 GAU  2.00e-02 -1.00e+00 -1.00e+00 -1.00e+00    1.0000 >    2.6031   -0.3838    0.1400   26.5943   53.9852    0.0000    5.6832 184.80 184.8 155.2  9     0.0000    0.0521
ST3          ?    ?    ? S      ? 20001213 1510    5.1900 GAU  2.00e-02 -1.00e+00 -1.00e+00 -1.00e+00    1.0000 >    5.0005   -0.1113    1.0911   17.1949   64.7711    0.0000   11.1250 297.42 297.4 136.4  9     0.0000    0.1000
ST10         ?    ?    ? P      ? 20001213 1510    3.4200 GAU  2.00e-02 -1.00e+00 -1.00e+00 -1.00e+00    1.0000 >    3.1337   -0.0145    1.3990   21.1066   69.5192    0.0000   11.5325 328.86 328.9 136.0  9     0.0000    0.0627
ST8          ?    ?    ? S      ? 20001213 1510    6.5200 GAU  2.00e-02 -1.00e+00 -1.00e+00 -1.00e+00    1.0000 >    5.8065    0.4127    0.7399   21.2005   45.4232    0.0000   15.3887 202.42 202.4 124.3 10     0.0000    0.1161
ST1          ?    ?    ? P      ? 20001213 1510    4.0200 GAU  2.00e-02 -1.00e+00 -1.00e+00 -1.00e+00    1.0000 >    3.7237   -0.0044    1.4015   36.2928   46.2238    0.0000   16.2873 145.51 145.5 122.7  9     0.0000    0.0745
ST1          ?    ?    ? S      ? 20001213 1510    6.1300 GAU  2.00e-02 -1.00e+00 -1.00e+00 -1.00e+00    1.0000 >    5.9913   -0.1621    0.9047   36.2928   46.2238    0.0000   16.2873 145.51 145.5 122.5 10     0.0000    0.1198
ST21         ?    ?    ? P      ? 20001213 1510    4.8800 GAU  2.00e-02 -1.00e+00 -1.00e+00 -1.00e+00    1.0000 >    4.3213    0.2580    1.1552   36.1150   41.1978    0.0000   20.5483 153.89 153.9 114.6  9     0.0000    0.0864
ST21         ?    ?    ? S      ? 20001213 1510    7.2400 GAU  2.00e-02 -1.00e+00 -1.00e+00 -1.00e+00    1.0000 >    6.9112    0.0281    1.3337   36.1150   41.1978    0.0000   20.5483 153.89 153.9 115.5  9     0.0000    0.1382
ST5          ?    ?    ? P      ? 20001213 1510    5.2100 GAU  2.00e-02 -1.00e+00 -1.00e+00 -1.00e+00    1.0000 >    4.7103    0.1989    1.2711   45.9261   73.1552    0.0000   23.1943  54.39  54.4 109.8  9     0.0000    0.0942
ST11         ?    ?    ? P      ? 20001213 1510    5.5100 GAU  2.00e-02 -1.00e+00 -1.00e+00 -1.00e+00    1.0000 >    4.9117    0.2975    1.0556   13.0335   79.7825    0.0000   24.5441 325.12 325.1 106.4  9     0.0000    0.0982
ST23         ?    ?    ? P      ? 20001213 1510    5.4200 GAU  2.00e-02 -1.00e+00 -1.00e+00 -1.00e+00    1.0000 >    5.2010   -0.0817    1.1874   38.6464   35.8493    0.0000   26.4652 154.06 154.1 100.4  9     0.0000    0.1040
ST7          ?    ?    ? P      ? 20001213 1510    5.9000 GAU  2.00e-02 -1.00e+00 -1.00e+00 -1.00e+00    1.0000 >    5.3613    0.2379    1.1960   22.5319   32.5023    0.0000   27.5229 189.49 189.5  96.6  8     0.0000    0.1072
ST7          ?    ?    ? S      ? 20001213 1510    9.4400 GAU  2.00e-02 -1.00e+00 -1.00e+00 -1.00e+00    1.0000 >    8.5072    0.6321    0.3629   22.5319   32.5023    0.0000   27.5229 189.49 189.5 108.5  9     0.0000    0.1701
ST25         ?    ?    ? P      ? 20001213 1510    5.8400 GAU  2.00e-02 -1.00e+00 -1.00e+00 -1.00e+00    1.0000 >    5.4285    0.1107    1.3764   35.8320   33.0917    0.0000   27.9648 161.74 161.7  94.9  8     0.0000    0.1086
ST14         ?    ?    ? P      ? 20001213 1510    6.5000 GAU  2.00e-02 -1.00e+00 -1.00e+00 -1.00e+00    1.0000 >    6.2168   -0.0176    1.3049   58.1038   47.7138    0.0000   33.2492 111.04 111.0  73.9  8     0.0000    0.1243
ST15         ?    ?    ? P      ? 20001213 1510    7.0900 GAU  2.00e-02 -1.00e+00 -1.00e+00 -1.00e+00    1.0000 >    6.7498    0.0395    1.3476   38.9482   24.6853    0.0000   36.9257 161.24 161.2  67.2  8     0.0000    0.1350
ST6          ?    ?    ? P      ? 20001213 1510    7.2700 GAU  2.00e-02 -1.00e+00 -1.00e+00 -1.00e+00    1.0000 >    6.8799    0.0893    1.3524   64.5535   54.5857    0.0000   37.8235  97.69  97.7  67.1  8     0.0000    0.1376
ST6          ?    ?    ? S      ? 20001213 1510   11.3800 GAU  2.00e-02 -1.00e+00 -1.00e+00 -1.00e+00    1.0000 >   10.9504    0.1289    1.1856   64.5535   54.5857    0.0000   37.8235  97.69  97.7 103.1  9     0.0000    0.2190
ST19         ?    ?    ? P      ? 20001213 1510    7.1100 GAU  2.00e-02 -1.00e+00 -1.00e+00 -1.00e+00    1.0000 >    6.9206   -0.1113    1.0640   47.2048   27.2984    0.0000   38.1041 148.10 148.1  67.1  8     0.0000    0.1384
ST19         ?    ?    ? S      ? 20001213 1510   11.6500 GAU  2.00e-02 -1.00e+00 -1.00e+00 -1.00e+00    1.0000 >   11.0176    0.3316    0.9469   47.2048   27.2984    0.0000   38.1041 148.10 148.1 102.9  9     0.0000    0.2204
ST2          ?    ?    ? P      ? 20001213 1510    7.4300 GAU  2.00e-02 -1.00e+00 -1.00e+00 -1.00e+00    1.0000 >    6.9687    0.1605    1.3005   36.5585   96.8954    0.0000   38.4365  14.29  14.3  67.1  8     0.0000    0.1394
ST2          ?    ?    ? S      ? 20001213 1510   12.0400 GAU  2.00e-02 -1.00e+00 -1.00e+00 -1.00e+00    1.0000 >   11.0974    0.6419    0.4017   36.5585   96.8954    0.0000   38.4365  14.29  14.3 102.8  9     0.0000    0.2219
ST13         ?    ?    ? P      ? 20001213 1510    7.2400 GAU  2.00e-02 -1.00e+00 -1.00e+00 -1.00e+00    1.0000 >    7.0761   -0.1369    0.9860   52.0625   29.4778    0.0000   39.1775 140.36 140.4  67.0  8     0.0000    0.1415
ST13         ?    ?    ? S      ? 20001213 1510   11.7800 GAU  2.00e-02 -1.00e+00 -1.00e+00 -1.00e+00    1.0000 >   11.2753    0.2039    1.1227   52.0625   29.4778    0.0000   39.1775 140.36 140.4 102.5  9     0.0000    0.2255
ST18         ?    ?    ? P      ? 20001213 1510    7.6500 GAU  2.00e-02 -1.00e+00 -1.00e+00 -1.00e+00    1.0000 >    7.4716   -0.1223    1.0238   45.8666   22.1945    0.0000   41.9058 153.35 153.4  67.0  8     0.0000    0.1494
ST24         ?    ?    ? P      ? 20001213 1510    8.4500 GAU  2.00e-02 -1.00e+00 -1.00e+00 -1.00e+00    1.0000 >    8.2327   -0.0835    1.1060   55.9556   22.3725    0.0000   47.1578 142.23 142.2  67.0  8     0.0000    0.1647
ST24         ?    ?    ? S      ? 20001213 1510   14.0700 GAU  2.00e-02 -1.00e+00 -1.00e+00 -1.00e+00    1.0000 >   13.2006    0.5686    0.5443   55.9556   22.3725    0.0000   47.1578 142.23 142.2 100.2  9     0.0000    0.2640
ST26         ?    ?    ? P      ? 20001213 1510    8.8100 GAU  2.00e-02 -1.00e+00 -1.00e+00 -1.00e+00    1.0000 >    8.2815    0.2277    1.1740   52.5727   19.5815    0.0000   47.4946 147.52 147.5  67.0  8     0.0000    0.1656
ST4          ?    ?    ? P      ? 20001213 1510    9.0700 GAU  2.00e-02 -1.00e+00 -1.00e+00 -1.00e+00    1.0000 >    8.7660    0.0033    1.2353   28.7854    8.8400    0.0000   50.8374 178.07 178.1  66.9  8     0.0000    0.1753
ST4          ?    ?    ? S      ? 20001213 1510   14.9000 GAU  2.00e-02 -1.00e+00 -1.00e+00 -1.00e+00    1.0000 >   14.0925    0.5067    0.6471   28.7854    8.8400    0.0000   50.8374 178.07 178.1  99.5  9     0.0000    0.2819
ST16         ?    ?    ? P      ? 20001213 1510    9.4900 GAU  2.00e-02 -1.00e+00 -1.00e+00 -1.00e+00    1.0000 >    9.0090    0.1803    1.2201   39.8239    8.7066    0.0000   52.5141 165.94 165.9  66.9  8     0.0000    0.1802
ST17         ?    ?    ? P      ? 20001213 1510    9.7200 GAU  2.00e-02 -1.00e+00 -1.00e+00 -1.00e+00    1.0000 >    9.1887    0.2305    1.1489   64.4820   21.0492    0.0000   53.7544 135.90 135.9  66.9  8     0.0000    0.1838
ST17         ?    ?    ? S      ? 20001213 1510   15.9400 GAU  2.00e-02 -1.00e+00 -1.00e+00 -1.00e+00    1.0000 >   14.8009    0.8383    0.2424   64.4820   21.0492    0.0000   53.7544 135.90 135.9  98.9  9     0.0000    0.2960
ST0          ?    ?    ? P      ? 20001213 1510    9.9600 GAU  2.00e-02 -1.00e+00 -1.00e+00 -1.00e+00    1.0000 >    9.3628    0.2965    1.0311   57.5022   13.8883    0.0000   54.9553 146.37 146.4  66.9  8     0.0000    0.1873
END_PHASE
END_NLLOC

