NLLOC "./loc/alaska.20001213.151002_027.grid0" "LOCATED" "Location completed."
PUBLIC_ID None
SIGNATURE "NonLinLoc - Yifan Yu   obs:./obs/phase.obs   NLLoc:v7.00.16(17Apr2023)   run:24Aug2023 11h42m17"
COMMENT "2023-8-21 test"
GRID  201 201 41  0 0 0  0.5 0.5 0.5 PROB_DENSITY
SEARCH OCTREE nInitial 400 nEvaluated 20016 smallestNodeSide 0.156250/0.156250/0.078125 oct_tree_integral 1.947536e+01 scatter_volume 1.947536e+01
HYPOCENTER  x 8.51562 y 78.5156 z 12.3047  OT 59.7074  ix -1 iy -1 iz -1 MAXIMUM_LIKELIHOOD
GEOGRAPHIC  OT 2000 12 13  15 09 59.707430  Lat 36.106107 Long -117.905211 Depth 12.304688
QUALITY  Pmax 7.66271e+94 MFmin 41.7986 MFmax 45.8143 RMS 0.186364 Nphs 32 Gap 238.191 Dist 4.69216 Mamp -9.90 0 Mdur -9.90 0
VPVSRATIO  VpVsRatio 1.70345  Npair 8  Diff 4.63
STATISTICS  ExpectX 8.155633 Y 78.158061 Z 11.904044  CovXX 3.68062 XY 1.19996 XZ 1.51308 YY 3.54112 YZ 0.866607 ZZ 1.92089 EllAz1  260.203 Dip1  61.6839 Len1  1.91426 Az2  325.987 Dip2  -12.4623 Len2  2.97086 Len3  4.447819e+00
STAT_GEOG  ExpectLat 36.102891 Long -117.909222 Depth 11.904044
TRANSFORM  SIMPLE LatOrig 35.400000  LongOrig -118.000000  RotCW 0.000000
QML_OriginQuality  assocPhCt 32  usedPhCt 32  assocStaCt -1  usedStaCt 24  depthPhCt -1  stdErr 0.186364  azGap 238.191  secAzGap 252.979  gtLevel -  minDist 4.69216 maxDist 81.0949 medDist 54.1824
QML_OriginUncertainty  horUnc -1  minHorUnc 2.35381  maxHorUnc 3.32709  azMaxHorUnc 46.6634
QML_ConfidenceEllipsoid  semiMajorAxisLength 4.44782  semiMinorAxisLength 1.91426  semiIntermediateAxisLength 2.97086  majorAxisPlunge 24.9865  majorAxisAzimuth 50.0754  majorAxisRotation 98.9591
FOCALMECH  Hyp  36.106107 -117.905211 12.304688 Mech  0 0 0 mf  0 nObs -1
PHASE ID Ins Cmp On Pha  FM Date     HrMn   Sec     Err  ErrMag    Coda      Amp       Per       PriorWt  >   TTpred    Res       Weight    StaLoc(X  Y         Z)        SDist    SAzim  RAz  RDip RQual    Tcorr       TTerr
ST11         ?    ?    ? S      ? 20001213 1510    3.5500 GAU  2.00e-02 -1.00e+00 -1.00e+00 -1.00e+00    1.0000 >    3.8404    0.0022    1.4794   13.0335   79.7825    0.0000    4.6922  74.34  74.3 155.8  9     0.0000    0.0768
ST10         ?    ?    ? P      ? 20001213 1510    2.9200 GAU  2.00e-02 -1.00e+00 -1.00e+00 -1.00e+00    1.0000 >    3.4993   -0.2868    1.0008   21.1066   69.5192    0.0000   15.4748 125.55 125.5 121.2  9     0.0000    0.0700
ST3          ?    ?    ? S      ? 20001213 1510    4.4800 GAU  2.00e-02 -1.00e+00 -1.00e+00 -1.00e+00    1.0000 >    5.8214   -1.0489    0.0045   17.1949   64.7711    0.0000   16.2555 147.73 147.7 118.3  9     0.0000    0.1164
ST12         ?    ?    ? P      ? 20001213 1510    5.0200 GAU  2.00e-02 -1.00e+00 -1.00e+00 -1.00e+00    1.0000 >    5.5279   -0.2153    1.2140   31.4703   60.9238    0.0000   28.9204 127.47 127.5 103.3  9     0.0000    0.1106
ST12         ?    ?    ? S      ? 20001213 1510    8.1300 GAU  2.00e-02 -1.00e+00 -1.00e+00 -1.00e+00    1.0000 >    8.7451   -0.3225    0.8995   31.4703   60.9238    0.0000   28.9204 127.47 127.5 104.7  9     0.0000    0.1749
ST20         ?    ?    ? P      ? 20001213 1510    5.5900 GAU  2.00e-02 -1.00e+00 -1.00e+00 -1.00e+00    1.0000 >    5.7724    0.1101    1.2971   26.5943   53.9852    0.0000   30.4726 143.61 143.6 102.4  9     0.0000    0.1154
ST20         ?    ?    ? S      ? 20001213 1510    8.8200 GAU  2.00e-02 -1.00e+00 -1.00e+00 -1.00e+00    1.0000 >    9.1155   -0.0030    1.3458   26.5943   53.9852    0.0000   30.4726 143.61 143.6 103.8  9     0.0000    0.1823
ST2          ?    ?    ? P      ? 20001213 1510    6.8500 GAU  2.00e-02 -1.00e+00 -1.00e+00 -1.00e+00    1.0000 >    6.2563    0.8863    0.1106   36.5585   96.8954    0.0000   33.5294  56.76  56.8 100.8  9     0.0000    0.1251
ST2          ?    ?    ? S      ? 20001213 1510   11.2100 GAU  2.00e-02 -1.00e+00 -1.00e+00 -1.00e+00    1.0000 >    9.8485    1.6541    0.0029   36.5585   96.8954    0.0000   33.5294  56.76  56.8 102.4  9     0.0000    0.1970
ST8          ?    ?    ? S      ? 20001213 1510   10.9400 GAU  2.00e-02 -1.00e+00 -1.00e+00 -1.00e+00    1.0000 >   10.3085    0.9241    0.1242   21.2005   45.4232    0.0000   35.4403 159.03 159.0 101.7  9     0.0000    0.2062
ST5          ?    ?    ? P      ? 20001213 1510    6.8100 GAU  2.00e-02 -1.00e+00 -1.00e+00 -1.00e+00    1.0000 >    6.9342    0.1684    1.1409   45.9261   73.1552    0.0000   37.7926  98.15  98.2  91.5  9     0.0000    0.1387
ST1          ?    ?    ? P      ? 20001213 1510    7.3900 GAU  2.00e-02 -1.00e+00 -1.00e+00 -1.00e+00    1.0000 >    7.6628    0.0197    1.3854   36.2928   46.2238    0.0000   42.5950 139.30 139.3  69.6  8     0.0000    0.1533
ST1          ?    ?    ? S      ? 20001213 1510   11.8200 GAU  2.00e-02 -1.00e+00 -1.00e+00 -1.00e+00    1.0000 >   12.0395    0.0731    1.1825   36.2928   46.2238    0.0000   42.5950 139.30 139.3  99.5  9     0.0000    0.2408
ST21         ?    ?    ? P      ? 20001213 1510    7.8600 GAU  2.00e-02 -1.00e+00 -1.00e+00 -1.00e+00    1.0000 >    8.2177   -0.0651    1.3794   36.1150   41.1978    0.0000   46.4149 143.51 143.5  64.1  9     0.0000    0.1644
ST21         ?    ?    ? S      ? 20001213 1510   12.8000 GAU  2.00e-02 -1.00e+00 -1.00e+00 -1.00e+00    1.0000 >   12.9675    0.1250    1.0985   36.1150   41.1978    0.0000   46.4149 143.51 143.5  98.6  9     0.0000    0.2594
ST23         ?    ?    ? P      ? 20001213 1510    8.5700 GAU  2.00e-02 -1.00e+00 -1.00e+00 -1.00e+00    1.0000 >    9.0609   -0.1983    1.1900   38.6464   35.8493    0.0000   52.2330 144.77 144.8  64.0 10     0.0000    0.1812
ST25         ?    ?    ? P      ? 20001213 1510    8.7100 GAU  2.00e-02 -1.00e+00 -1.00e+00 -1.00e+00    1.0000 >    9.1728   -0.1702    1.2362   35.8320   33.0917    0.0000   53.0049 148.98 149.0  64.0 10     0.0000    0.1835
ST25         ?    ?    ? S      ? 20001213 1510   14.4800 GAU  2.00e-02 -1.00e+00 -1.00e+00 -1.00e+00    1.0000 >   14.5728    0.1998    0.9679   35.8320   33.0917    0.0000   53.0049 148.98 149.0  97.5  9     0.0000    0.2915
ST9          ?    ?    ? P      ? 20001213 1510    9.6000 GAU  2.00e-02 -1.00e+00 -1.00e+00 -1.00e+00    1.0000 >    9.5140    0.3785    0.6326    9.8992   23.1731    0.0000   55.3599 178.57 178.6  64.0 10     0.0000    0.1903
ST14         ?    ?    ? P      ? 20001213 1510    9.6500 GAU  2.00e-02 -1.00e+00 -1.00e+00 -1.00e+00    1.0000 >    9.9511   -0.0086    1.3147   58.1038   47.7138    0.0000   58.3758 121.85 121.8  64.0 10     0.0000    0.1990
ST14         ?    ?    ? S      ? 20001213 1510   15.4900 GAU  2.00e-02 -1.00e+00 -1.00e+00 -1.00e+00    1.0000 >   15.8837   -0.1012    1.0640   58.1038   47.7138    0.0000   58.3758 121.85 121.8  96.7  9     0.0000    0.3177
ST6          ?    ?    ? S      ? 20001213 1510   16.3700 GAU  2.00e-02 -1.00e+00 -1.00e+00 -1.00e+00    1.0000 >   16.5087    0.1539    0.9764   64.5535   54.5857    0.0000   60.9334 113.12 113.1  96.4  9     0.0000    0.3302
ST15         ?    ?    ? P      ? 20001213 1510    9.9700 GAU  2.00e-02 -1.00e+00 -1.00e+00 -1.00e+00    1.0000 >   10.4528   -0.1902    1.1651   38.9482   24.6853    0.0000   61.8372 150.52 150.5  64.0 10     0.0000    0.2091
ST13         ?    ?    ? P      ? 20001213 1510   10.7200 GAU  2.00e-02 -1.00e+00 -1.00e+00 -1.00e+00    1.0000 >   10.9956    0.0170    1.2625   52.0625   29.4778    0.0000   65.5823 138.39 138.4  64.0 10     0.0000    0.2199
ST18         ?    ?    ? P      ? 20001213 1510   10.8600 GAU  2.00e-02 -1.00e+00 -1.00e+00 -1.00e+00    1.0000 >   11.2852   -0.1326    1.2122   45.8666   22.1945    0.0000   67.5808 146.45 146.4  64.0 10     0.0000    0.2257
ST4          ?    ?    ? P      ? 20001213 1510   11.3600 GAU  2.00e-02 -1.00e+00 -1.00e+00 -1.00e+00    1.0000 >   12.0074   -0.3548    0.8133   28.7854    8.8400    0.0000   72.5642 163.78 163.8  63.9 10     0.0000    0.2401
ST24         ?    ?    ? P      ? 20001213 1510   11.8600 GAU  2.00e-02 -1.00e+00 -1.00e+00 -1.00e+00    1.0000 >   12.1432    0.0094    1.2203   55.9556   22.3725    0.0000   73.5025 139.80 139.8  63.6 10     0.0000    0.2429
ST26         ?    ?    ? P      ? 20001213 1510   11.8100 GAU  2.00e-02 -1.00e+00 -1.00e+00 -1.00e+00    1.0000 >   12.1546   -0.0520    1.2253   52.5727   19.5815    0.0000   73.5816 143.22 143.2  63.6 10     0.0000    0.2431
ST26         ?    ?    ? S      ? 20001213 1510   19.5500 GAU  2.00e-02 -1.00e+00 -1.00e+00 -1.00e+00    1.0000 >   19.6035    0.2391    0.8395   52.5727   19.5815    0.0000   73.5816 143.22 143.2  95.1  9     0.0000    0.3921
ST16         ?    ?    ? P      ? 20001213 1510   12.2200 GAU  2.00e-02 -1.00e+00 -1.00e+00 -1.00e+00    1.0000 >   12.5707   -0.0581    1.2068   39.8239    8.7066    0.0000   76.5083 155.84 155.8  59.9  9     0.0000    0.2514
ST17         ?    ?    ? P      ? 20001213 1510   12.9000 GAU  2.00e-02 -1.00e+00 -1.00e+00 -1.00e+00    1.0000 >   13.0772    0.1154    1.1063   64.4820   21.0492    0.0000   80.2161 135.76 135.8  57.1 10     0.0000    0.2615
ST0          ?    ?    ? P      ? 20001213 1510   13.1600 GAU  2.00e-02 -1.00e+00 -1.00e+00 -1.00e+00    1.0000 >   13.1961    0.2565    0.9012   57.5022   13.8883    0.0000   81.0949 142.84 142.8  57.0 10     0.0000    0.2639
END_PHASE
END_NLLOC

