NLLOC "./loc/alaska.20001213.151002_003.grid0" "LOCATED" "Location completed."
PUBLIC_ID None
SIGNATURE "NonLinLoc - Yifan Yu   obs:./obs/phase.obs   NLLoc:v7.00.16(17Apr2023)   run:24Aug2023 11h42m43"
COMMENT "2023-8-21 test"
GRID  201 201 41  0 0 0  0.5 0.5 0.5 PROB_DENSITY
SEARCH OCTREE nInitial 400 nEvaluated 20000 smallestNodeSide 0.039062/0.039062/0.019531 oct_tree_integral 8.772751e-01 scatter_volume 8.772751e-01
HYPOCENTER  x 32.6367 y 47.3633 z 13.0957  OT 0.596853  ix -1 iy -1 iz -1 MAXIMUM_LIKELIHOOD
GEOGRAPHIC  OT 2000 12 13  15 10 0.596853  Lat 35.825948 Long -117.638001 Depth 13.095703
QUALITY  Pmax 5.58471e+104 MFmin 56.4082 MFmax 60.8104 RMS 0.17558 Nphs 34 Gap 58.0533 Dist 3.82955 Mamp -9.90 0 Mdur -9.90 0
VPVSRATIO  VpVsRatio 1.71514  Npair 11  Diff 4.32
STATISTICS  ExpectX 32.668082 Y 47.462425 Z 12.752201  CovXX 0.272293 XY 0.064643 XZ -0.196296 YY 0.0942929 YZ 0.00903065 ZZ 3.96962 EllAz1  341.124 Dip1  -1.05906 Len1  0.504192 Az2  251.071 Dip2  -2.83882 Len2  1.00156 Len3  3.748263e+00
STAT_GEOG  ExpectLat 35.826839 Long -117.637649 Depth 12.752201
TRANSFORM  SIMPLE LatOrig 35.400000  LongOrig -118.000000  RotCW 0.000000
QML_OriginQuality  assocPhCt 34  usedPhCt 34  assocStaCt -1  usedStaCt 23  depthPhCt -1  stdErr 0.17558  azGap 58.0533  secAzGap 104.211  gtLevel -  minDist 3.82955 maxDist 49.6871 medDist 25.4695
QML_OriginUncertainty  horUnc -1  minHorUnc 0.410581  maxHorUnc 0.821322  azMaxHorUnc 72.0041
QML_ConfidenceEllipsoid  semiMajorAxisLength 3.74826  semiMinorAxisLength 0.504192  semiIntermediateAxisLength 1.00156  majorAxisPlunge -86.9698  majorAxisAzimuth 91.5628  majorAxisRotation 159.429
FOCALMECH  Hyp  35.825948 -117.638001 13.095703 Mech  0 0 0 mf  0 nObs -1
PHASE ID Ins Cmp On Pha  FM Date     HrMn   Sec     Err  ErrMag    Coda      Amp       Per       PriorWt  >   TTpred    Res       Weight    StaLoc(X  Y         Z)        SDist    SAzim  RAz  RDip RQual    Tcorr       TTerr
ST1          ?    ?    ? P      ? 20001213 1510    2.5200 GAU  2.00e-02 -1.00e+00 -1.00e+00 -1.00e+00    1.0000 >    2.4157   -0.4926    0.0223   36.2928   46.2238    0.0000    3.8296 107.31 107.3 161.9  9     0.0000    0.0500
ST1          ?    ?    ? S      ? 20001213 1510    3.2800 GAU  2.00e-02 -1.00e+00 -1.00e+00 -1.00e+00    1.0000 >    3.9426   -1.2595    0.0000   36.2928   46.2238    0.0000    3.8296 107.31 107.3 160.6  9     0.0000    0.0789
ST21         ?    ?    ? S      ? 20001213 1510    4.1100 GAU  2.00e-02 -1.00e+00 -1.00e+00 -1.00e+00    1.0000 >    4.2898   -0.7766    0.0033   36.1150   41.1978    0.0000    7.0790 150.57 150.6 148.1  9     0.0000    0.0858
ST8          ?    ?    ? S      ? 20001213 1510    6.0800 GAU  2.00e-02 -1.00e+00 -1.00e+00 -1.00e+00    1.0000 >    4.9947    0.4885    0.5037   21.2005   45.4232    0.0000   11.5996 260.37 260.4 132.4  9     0.0000    0.0999
ST23         ?    ?    ? S      ? 20001213 1510    5.8000 GAU  2.00e-02 -1.00e+00 -1.00e+00 -1.00e+00    1.0000 >    5.2547   -0.0516    1.4602   38.6464   35.8493    0.0000   12.9880 152.44 152.4 128.4 10     0.0000    0.1051
ST12         ?    ?    ? P      ? 20001213 1510    3.9200 GAU  2.00e-02 -1.00e+00 -1.00e+00 -1.00e+00    1.0000 >    3.3245   -0.0014    1.7353   31.4703   60.9238    0.0000   13.6106 355.08 355.1 128.4 10     0.0000    0.0665
ST12         ?    ?    ? S      ? 20001213 1510    5.9300 GAU  2.00e-02 -1.00e+00 -1.00e+00 -1.00e+00    1.0000 >    5.3762   -0.0430    1.4754   31.4703   60.9238    0.0000   13.6106 355.08 355.1 126.8 10     0.0000    0.1075
ST25         ?    ?    ? P      ? 20001213 1510    4.0200 GAU  2.00e-02 -1.00e+00 -1.00e+00 -1.00e+00    1.0000 >    3.4552   -0.0321    1.6666   35.8320   33.0917    0.0000   14.6249 167.38 167.4 125.8 10     0.0000    0.0691
ST25         ?    ?    ? S      ? 20001213 1510    6.1600 GAU  2.00e-02 -1.00e+00 -1.00e+00 -1.00e+00    1.0000 >    5.5793   -0.0161    1.5118   35.8320   33.0917    0.0000   14.6249 167.38 167.4 124.4 10     0.0000    0.1116
ST7          ?    ?    ? P      ? 20001213 1510    4.5200 GAU  2.00e-02 -1.00e+00 -1.00e+00 -1.00e+00    1.0000 >    3.9129    0.0103    1.6864   22.5319   32.5023    0.0000   17.9709 214.21 214.2 118.8  9     0.0000    0.0783
ST7          ?    ?    ? S      ? 20001213 1510    7.3700 GAU  2.00e-02 -1.00e+00 -1.00e+00 -1.00e+00    1.0000 >    6.2861    0.4871    0.5146   22.5319   32.5023    0.0000   17.9709 214.21 214.2 117.8  9     0.0000    0.1257
ST3          ?    ?    ? P      ? 20001213 1510    5.4000 GAU  2.00e-02 -1.00e+00 -1.00e+00 -1.00e+00    1.0000 >    4.6913    0.1119    1.3409   17.1949   64.7711    0.0000   23.2698 318.43 318.4 110.7  9     0.0000    0.0938
ST15         ?    ?    ? P      ? 20001213 1510    5.3200 GAU  2.00e-02 -1.00e+00 -1.00e+00 -1.00e+00    1.0000 >    4.7321   -0.0089    1.6010   38.9482   24.6853    0.0000   23.5399 164.45 164.4 110.4  9     0.0000    0.0946
ST19         ?    ?    ? P      ? 20001213 1510    5.5500 GAU  2.00e-02 -1.00e+00 -1.00e+00 -1.00e+00    1.0000 >    4.9230    0.0301    1.5803   47.2048   27.2984    0.0000   24.7957 144.02 144.0 108.6  9     0.0000    0.0985
ST19         ?    ?    ? S      ? 20001213 1510    8.7100 GAU  2.00e-02 -1.00e+00 -1.00e+00 -1.00e+00    1.0000 >    7.8305    0.2827    0.8220   47.2048   27.2984    0.0000   24.7957 144.02 144.0 109.5  9     0.0000    0.1566
ST10         ?    ?    ? P      ? 20001213 1510    5.6100 GAU  2.00e-02 -1.00e+00 -1.00e+00 -1.00e+00    1.0000 >    4.9506    0.0625    1.5141   21.1066   69.5192    0.0000   24.9765 332.51 332.5 108.3  9     0.0000    0.0990
ST14         ?    ?    ? P      ? 20001213 1510    5.6800 GAU  2.00e-02 -1.00e+00 -1.00e+00 -1.00e+00    1.0000 >    5.0261    0.0571    1.5230   58.1038   47.7138    0.0000   25.4695  89.21  89.2 107.6  9     0.0000    0.1005
ST14         ?    ?    ? S      ? 20001213 1510    9.0300 GAU  2.00e-02 -1.00e+00 -1.00e+00 -1.00e+00    1.0000 >    7.9872    0.4460    0.5726   58.1038   47.7138    0.0000   25.4695  89.21  89.2 109.0  9     0.0000    0.1597
ST13         ?    ?    ? P      ? 20001213 1510    5.7400 GAU  2.00e-02 -1.00e+00 -1.00e+00 -1.00e+00    1.0000 >    5.1700   -0.0268    1.5319   52.0625   29.4778    0.0000   26.4055 132.64 132.6 106.4  9     0.0000    0.1034
ST18         ?    ?    ? P      ? 20001213 1510    5.9700 GAU  2.00e-02 -1.00e+00 -1.00e+00 -1.00e+00    1.0000 >    5.4840   -0.1109    1.1989   45.8666   22.1945    0.0000   28.4341 152.27 152.3 103.5  9     0.0000    0.1097
ST18         ?    ?    ? S      ? 20001213 1510    9.7800 GAU  2.00e-02 -1.00e+00 -1.00e+00 -1.00e+00    1.0000 >    8.6825    0.5007    0.5274   45.8666   22.1945    0.0000   28.4341 152.27 152.3 106.8  9     0.0000    0.1736
ST5          ?    ?    ? P      ? 20001213 1510    6.3000 GAU  2.00e-02 -1.00e+00 -1.00e+00 -1.00e+00    1.0000 >    5.5743    0.1288    1.2582   45.9261   73.1552    0.0000   29.0144  27.26  27.3 102.7  9     0.0000    0.1115
ST5          ?    ?    ? S      ? 20001213 1510   10.0400 GAU  2.00e-02 -1.00e+00 -1.00e+00 -1.00e+00    1.0000 >    8.8194    0.6237    0.4099   45.9261   73.1552    0.0000   29.0144  27.26  27.3 106.4  9     0.0000    0.1764
ST6          ?    ?    ? P      ? 20001213 1510    6.6200 GAU  2.00e-02 -1.00e+00 -1.00e+00 -1.00e+00    1.0000 >    6.1511   -0.1280    1.1000   64.5535   54.5857    0.0000   32.7237  77.25  77.2  91.3  8     0.0000    0.1230
ST24         ?    ?    ? P      ? 20001213 1510    7.2500 GAU  2.00e-02 -1.00e+00 -1.00e+00 -1.00e+00    1.0000 >    6.3772    0.2759    0.7764   55.9556   22.3725    0.0000   34.1806 136.98 137.0  84.3  9     0.0000    0.1275
ST26         ?    ?    ? P      ? 20001213 1510    7.1000 GAU  2.00e-02 -1.00e+00 -1.00e+00 -1.00e+00    1.0000 >    6.3794    0.1238    1.2610   52.5727   19.5815    0.0000   34.1946 144.34 144.3  84.2  9     0.0000    0.1276
ST26         ?    ?    ? S      ? 20001213 1510   11.4500 GAU  2.00e-02 -1.00e+00 -1.00e+00 -1.00e+00    1.0000 >   10.0518    0.8013    0.2524   52.5727   19.5815    0.0000   34.1946 144.34 144.3 103.6  9     0.0000    0.2010
ST11         ?    ?    ? P      ? 20001213 1510    7.4200 GAU  2.00e-02 -1.00e+00 -1.00e+00 -1.00e+00    1.0000 >    6.9254   -0.1022    1.1797   13.0335   79.7825    0.0000   37.8852 328.84 328.8  67.7  9     0.0000    0.1385
ST4          ?    ?    ? S      ? 20001213 1510   12.1000 GAU  2.00e-02 -1.00e+00 -1.00e+00 -1.00e+00    1.0000 >   11.1372    0.3660    0.7444   28.7854    8.8400    0.0000   38.7153 185.71 185.7 101.9  9     0.0000    0.2227
ST16         ?    ?    ? P      ? 20001213 1510    7.6700 GAU  2.00e-02 -1.00e+00 -1.00e+00 -1.00e+00    1.0000 >    7.1333   -0.0601    1.2953   39.8239    8.7066    0.0000   39.3192 169.47 169.5  64.8  9     0.0000    0.1427
ST16         ?    ?    ? S      ? 20001213 1510   12.6100 GAU  2.00e-02 -1.00e+00 -1.00e+00 -1.00e+00    1.0000 >   11.2827    0.7305    0.3249   39.8239    8.7066    0.0000   39.3192 169.47 169.5 101.7  9     0.0000    0.2257
ST0          ?    ?    ? P      ? 20001213 1510    8.1600 GAU  2.00e-02 -1.00e+00 -1.00e+00 -1.00e+00    1.0000 >    7.4783    0.0848    1.3087   57.5022   13.8883    0.0000   41.6997 143.39 143.4  64.0 10     0.0000    0.1496
ST0          ?    ?    ? S      ? 20001213 1510   13.2400 GAU  2.00e-02 -1.00e+00 -1.00e+00 -1.00e+00    1.0000 >   11.8571    0.7860    0.2801   57.5022   13.8883    0.0000   41.6997 143.39 143.4 100.9  9     0.0000    0.2371
ST2          ?    ?    ? P      ? 20001213 1510    9.1000 GAU  2.00e-02 -1.00e+00 -1.00e+00 -1.00e+00    1.0000 >    8.6359   -0.1328    1.0171   36.5585   96.8954    0.0000   49.6871   4.53   4.5  64.0 10     0.0000    0.1727
END_PHASE
END_NLLOC

