NLLOC "./loc/alaska.20001213.151002_024.grid0" "LOCATED" "Location completed."
PUBLIC_ID None
SIGNATURE "NonLinLoc - Yifan Yu   obs:./obs/phase.obs   NLLoc:v7.00.16(17Apr2023)   run:24Aug2023 11h42m15"
COMMENT "2023-8-21 test"
GRID  201 201 41  0 0 0  0.5 0.5 0.5 PROB_DENSITY
SEARCH OCTREE nInitial 400 nEvaluated 20008 smallestNodeSide 0.078125/0.078125/0.039062 oct_tree_integral 9.700965e-01 scatter_volume 9.700965e-01
HYPOCENTER  x 40.5859 y 39.3359 z 14.0039  OT 0.676674  ix -1 iy -1 iz -1 MAXIMUM_LIKELIHOOD
GEOGRAPHIC  OT 2000 12 13  15 10 0.676674  Lat 35.753756 Long -117.550238 Depth 14.003906
QUALITY  Pmax 6.00575e+125 MFmin 66.8368 MFmax 68.9883 RMS 0.23053 Nphs 40 Gap 62.9848 Dist 3.98978 Mamp -9.90 0 Mdur -9.90 0
VPVSRATIO  VpVsRatio 1.72229  Npair 17  Diff 4.6
STATISTICS  ExpectX 40.568504 Y 39.316253 Z 14.451245  CovXX 0.12653 XY 0.0224394 XZ 0.00708971 YY 0.0898091 YZ -0.0720979 ZZ 0.899642 EllAz1  156.483 Dip1  -4.76997 Len1  0.509309 Az2  246.621 Dip2  -1.65878 Len2  0.694035 Len3  1.788389e+00
STAT_GEOG  ExpectLat 35.753579 Long -117.550433 Depth 14.451245
TRANSFORM  SIMPLE LatOrig 35.400000  LongOrig -118.000000  RotCW 0.000000
QML_OriginQuality  assocPhCt 40  usedPhCt 40  assocStaCt -1  usedStaCt 23  depthPhCt -1  stdErr 0.23053  azGap 62.9848  secAzGap 69.8926  gtLevel -  minDist 3.98978 maxDist 57.7002 medDist 23.1067
QML_OriginUncertainty  horUnc -1  minHorUnc 0.426737  maxHorUnc 0.561672  azMaxHorUnc 64.6455
QML_ConfidenceEllipsoid  semiMajorAxisLength 1.78839  semiMinorAxisLength 0.509309  semiIntermediateAxisLength 0.694035  majorAxisPlunge 84.9486  majorAxisAzimuth 175.746  majorAxisRotation 108.917
FOCALMECH  Hyp  35.753756 -117.550238 14.003906 Mech  0 0 0 mf  0 nObs -1
PHASE ID Ins Cmp On Pha  FM Date     HrMn   Sec     Err  ErrMag    Coda      Amp       Per       PriorWt  >   TTpred    Res       Weight    StaLoc(X  Y         Z)        SDist    SAzim  RAz  RDip RQual    Tcorr       TTerr
ST23         ?    ?    ? P      ? 20001213 1510    2.2400 GAU  2.00e-02 -1.00e+00 -1.00e+00 -1.00e+00    1.0000 >    2.5632   -0.9999    0.0879   38.6464   35.8493    0.0000    3.9898 209.09 209.1 161.4  9     0.0000    0.0513
ST21         ?    ?    ? P      ? 20001213 1510    2.1500 GAU  2.00e-02 -1.00e+00 -1.00e+00 -1.00e+00    1.0000 >    2.6089   -1.1356    0.1586   36.1150   41.1978    0.0000    4.8431 292.61 292.6 158.0  9     0.0000    0.0522
ST21         ?    ?    ? S      ? 20001213 1510    3.1400 GAU  2.00e-02 -1.00e+00 -1.00e+00 -1.00e+00    1.0000 >    4.2405   -1.7772    0.0000   36.1150   41.1978    0.0000    4.8431 292.61 292.6 158.0  9     0.0000    0.0848
ST1          ?    ?    ? P      ? 20001213 1510    2.8000 GAU  2.00e-02 -1.00e+00 -1.00e+00 -1.00e+00    1.0000 >    2.8456   -0.7223    0.0971   36.2928   46.2238    0.0000    8.1162 328.07 328.1 145.9  9     0.0000    0.0569
ST1          ?    ?    ? S      ? 20001213 1510    4.1400 GAU  2.00e-02 -1.00e+00 -1.00e+00 -1.00e+00    1.0000 >    4.6160   -1.1526    0.1669   36.2928   46.2238    0.0000    8.1162 328.07 328.1 146.6 10     0.0000    0.0923
ST15         ?    ?    ? P      ? 20001213 1510    3.8100 GAU  2.00e-02 -1.00e+00 -1.00e+00 -1.00e+00    1.0000 >    3.5586   -0.4253    0.1738   38.9482   24.6853    0.0000   14.7419 186.38 186.4 124.5  9     0.0000    0.0712
ST15         ?    ?    ? S      ? 20001213 1510    5.7500 GAU  2.00e-02 -1.00e+00 -1.00e+00 -1.00e+00    1.0000 >    5.7330   -0.6597    0.1399   38.9482   24.6853    0.0000   14.7419 186.38 186.4 127.0 10     0.0000    0.1147
ST13         ?    ?    ? P      ? 20001213 1510    4.3400 GAU  2.00e-02 -1.00e+00 -1.00e+00 -1.00e+00    1.0000 >    3.6079    0.0554    1.6802   52.0625   29.4778    0.0000   15.1292 130.66 130.7 123.3  9     0.0000    0.0722
ST13         ?    ?    ? S      ? 20001213 1510    6.3600 GAU  2.00e-02 -1.00e+00 -1.00e+00 -1.00e+00    1.0000 >    5.8096   -0.1263    1.2209   52.0625   29.4778    0.0000   15.1292 130.66 130.7 126.1 10     0.0000    0.1162
ST18         ?    ?    ? P      ? 20001213 1510    4.6100 GAU  2.00e-02 -1.00e+00 -1.00e+00 -1.00e+00    1.0000 >    3.9818   -0.0485    1.6107   45.8666   22.1945    0.0000   17.9364 162.88 162.9 116.3  9     0.0000    0.0796
ST18         ?    ?    ? S      ? 20001213 1510    7.0100 GAU  2.00e-02 -1.00e+00 -1.00e+00 -1.00e+00    1.0000 >    6.3877   -0.0544    1.4507   45.8666   22.1945    0.0000   17.9364 162.88 162.9 120.6 10     0.0000    0.1278
ST7          ?    ?    ? P      ? 20001213 1510    4.8300 GAU  2.00e-02 -1.00e+00 -1.00e+00 -1.00e+00    1.0000 >    4.1724   -0.0191    1.6737   22.5319   32.5023    0.0000   19.3040 249.27 249.3 113.2  9     0.0000    0.0834
ST7          ?    ?    ? S      ? 20001213 1510    7.3400 GAU  2.00e-02 -1.00e+00 -1.00e+00 -1.00e+00    1.0000 >    6.6811   -0.0178    1.5018   22.5319   32.5023    0.0000   19.3040 249.27 249.3 118.3  9     0.0000    0.1336
ST14         ?    ?    ? P      ? 20001213 1510    4.8500 GAU  2.00e-02 -1.00e+00 -1.00e+00 -1.00e+00    1.0000 >    4.1885   -0.0151    1.6790   58.1038   47.7138    0.0000   19.4181  64.44  64.4 112.9  9     0.0000    0.0838
ST8          ?    ?    ? P      ? 20001213 1510    5.1900 GAU  2.00e-02 -1.00e+00 -1.00e+00 -1.00e+00    1.0000 >    4.3165    0.1968    1.1745   21.2005   45.4232    0.0000   20.3187 287.43 287.4 111.0  9     0.0000    0.0863
ST8          ?    ?    ? S      ? 20001213 1510    8.3700 GAU  2.00e-02 -1.00e+00 -1.00e+00 -1.00e+00    1.0000 >    6.9027    0.7906    0.1170   21.2005   45.4232    0.0000   20.3187 287.43 287.4 116.9  9     0.0000    0.1381
ST22         ?    ?    ? P      ? 20001213 1510    5.3400 GAU  2.00e-02 -1.00e+00 -1.00e+00 -1.00e+00    1.0000 >    4.4836    0.1798    1.2444   26.8589   55.8533    0.0000   21.4768 320.27 320.3 108.6  9     0.0000    0.0897
ST22         ?    ?    ? S      ? 20001213 1510    8.1100 GAU  2.00e-02 -1.00e+00 -1.00e+00 -1.00e+00    1.0000 >    7.1589    0.2744    1.0026   26.8589   55.8533    0.0000   21.4768 320.27 320.3 115.3  9     0.0000    0.1432
ST24         ?    ?    ? P      ? 20001213 1510    5.4400 GAU  2.00e-02 -1.00e+00 -1.00e+00 -1.00e+00    1.0000 >    4.6885    0.0749    1.5971   55.9556   22.3725    0.0000   22.8908 137.82 137.8 105.7  9     0.0000    0.0938
ST24         ?    ?    ? S      ? 20001213 1510    8.6300 GAU  2.00e-02 -1.00e+00 -1.00e+00 -1.00e+00    1.0000 >    7.4760    0.4774    0.5432   55.9556   22.3725    0.0000   22.8908 137.82 137.8 113.6  9     0.0000    0.1495
ST26         ?    ?    ? P      ? 20001213 1510    5.4500 GAU  2.00e-02 -1.00e+00 -1.00e+00 -1.00e+00    1.0000 >    4.7198    0.0536    1.6372   52.5727   19.5815    0.0000   23.1067 148.75 148.8 105.2  9     0.0000    0.0944
ST26         ?    ?    ? S      ? 20001213 1510    8.3300 GAU  2.00e-02 -1.00e+00 -1.00e+00 -1.00e+00    1.0000 >    7.5247    0.1286    1.3748   52.5727   19.5815    0.0000   23.1067 148.75 148.8 113.4  9     0.0000    0.1505
ST12         ?    ?    ? P      ? 20001213 1510    5.3600 GAU  2.00e-02 -1.00e+00 -1.00e+00 -1.00e+00    1.0000 >    4.7671   -0.0838    1.4376   31.4703   60.9238    0.0000   23.4335 337.11 337.1 104.4  9     0.0000    0.0953
ST12         ?    ?    ? S      ? 20001213 1510    8.2200 GAU  2.00e-02 -1.00e+00 -1.00e+00 -1.00e+00    1.0000 >    7.5987   -0.0554    1.3769   31.4703   60.9238    0.0000   23.4335 337.11 337.1 113.1  9     0.0000    0.1520
ST6          ?    ?    ? P      ? 20001213 1510    6.0700 GAU  2.00e-02 -1.00e+00 -1.00e+00 -1.00e+00    1.0000 >    5.4880   -0.0946    1.3644   64.5535   54.5857    0.0000   28.4077  57.53  57.5  88.2  9     0.0000    0.1098
ST6          ?    ?    ? S      ? 20001213 1510    9.7000 GAU  2.00e-02 -1.00e+00 -1.00e+00 -1.00e+00    1.0000 >    8.7442    0.2791    1.0083   64.5535   54.5857    0.0000   28.4077  57.53  57.5 108.7  9     0.0000    0.1749
ST17         ?    ?    ? P      ? 20001213 1510    6.8000 GAU  2.00e-02 -1.00e+00 -1.00e+00 -1.00e+00    1.0000 >    5.7318    0.3915    0.6791   64.4820   21.0492    0.0000   30.0903 127.43 127.4  81.4  8     0.0000    0.1146
ST0          ?    ?    ? P      ? 20001213 1510    6.9100 GAU  2.00e-02 -1.00e+00 -1.00e+00 -1.00e+00    1.0000 >    5.7995    0.4338    0.5946   57.5022   13.8883    0.0000   30.5572 146.39 146.4  80.1  8     0.0000    0.1160
ST16         ?    ?    ? P      ? 20001213 1510    6.5100 GAU  2.00e-02 -1.00e+00 -1.00e+00 -1.00e+00    1.0000 >    5.8113    0.0220    1.5924   39.8239    8.7066    0.0000   30.6388 181.43 181.4  80.0  8     0.0000    0.1162
ST16         ?    ?    ? S      ? 20001213 1510   10.2200 GAU  2.00e-02 -1.00e+00 -1.00e+00 -1.00e+00    1.0000 >    9.2669    0.2764    1.0162   39.8239    8.7066    0.0000   30.6388 181.43 181.4 107.2  9     0.0000    0.1853
ST5          ?    ?    ? P      ? 20001213 1510    6.9800 GAU  2.00e-02 -1.00e+00 -1.00e+00 -1.00e+00    1.0000 >    6.3330   -0.0297    1.5072   45.9261   73.1552    0.0000   34.2383   8.97   9.0  77.9  8     0.0000    0.1267
ST5          ?    ?    ? S      ? 20001213 1510   11.1300 GAU  2.00e-02 -1.00e+00 -1.00e+00 -1.00e+00    1.0000 >   10.1179    0.3355    0.8860   45.9261   73.1552    0.0000   34.2383   8.97   9.0 105.3  9     0.0000    0.2024
ST3          ?    ?    ? S      ? 20001213 1510   10.8400 GAU  2.00e-02 -1.00e+00 -1.00e+00 -1.00e+00    1.0000 >   10.1932   -0.0299    1.2730   17.1949   64.7711    0.0000   34.5556 317.40 317.4 105.1  9     0.0000    0.2039
ST9          ?    ?    ? P      ? 20001213 1510    6.9900 GAU  2.00e-02 -1.00e+00 -1.00e+00 -1.00e+00    1.0000 >    6.3974   -0.0841    1.3642    9.8992   23.1731    0.0000   34.6831 242.22 242.2  77.8  8     0.0000    0.1279
ST9          ?    ?    ? S      ? 20001213 1510   11.4400 GAU  2.00e-02 -1.00e+00 -1.00e+00 -1.00e+00    1.0000 >   10.2235    0.5398    0.4840    9.8992   23.1731    0.0000   34.6831 242.22 242.2 105.0  9     0.0000    0.2045
ST10         ?    ?    ? P      ? 20001213 1510    6.9000 GAU  2.00e-02 -1.00e+00 -1.00e+00 -1.00e+00    1.0000 >    6.5772   -0.3538    0.3994   21.1066   69.5192    0.0000   35.9232 327.16 327.2  77.7  8     0.0000    0.1315
ST10         ?    ?    ? S      ? 20001213 1510   11.3200 GAU  2.00e-02 -1.00e+00 -1.00e+00 -1.00e+00    1.0000 >   10.5187    0.1246    1.2587   21.1066   69.5192    0.0000   35.9232 327.16 327.2 104.5  9     0.0000    0.2104
ST11         ?    ?    ? P      ? 20001213 1510    9.1700 GAU  2.00e-02 -1.00e+00 -1.00e+00 -1.00e+00    1.0000 >    8.4635    0.0298    1.4158   13.0335   79.7825    0.0000   48.9393 325.74 325.7  77.2  8     0.0000    0.1693
ST11         ?    ?    ? S      ? 20001213 1510   14.7600 GAU  2.00e-02 -1.00e+00 -1.00e+00 -1.00e+00    1.0000 >   13.6489    0.4344    0.7126   13.0335   79.7825    0.0000   48.9393 325.74 325.7 100.3  9     0.0000    0.2730
ST2          ?    ?    ? P      ? 20001213 1510   10.3800 GAU  2.00e-02 -1.00e+00 -1.00e+00 -1.00e+00    1.0000 >    9.7332   -0.0299    1.2975   36.5585   96.8954    0.0000   57.7002 356.00 356.0  77.0  8     0.0000    0.1947
END_PHASE
END_NLLOC

