NLLOC "./loc/alaska.20001213.151002_029.grid0" "LOCATED" "Location completed."
PUBLIC_ID None
SIGNATURE "NonLinLoc - Yifan Yu   obs:./obs/phase.obs   NLLoc:v7.00.16(17Apr2023)   run:24Aug2023 11h39m32"
COMMENT "2023-8-21 test"
GRID  201 201 41  0 0 0  0.5 0.5 0.5 PROB_DENSITY
SEARCH OCTREE nInitial 400 nEvaluated 20008 smallestNodeSide 0.078125/0.078125/0.039062 oct_tree_integral 1.370020e+00 scatter_volume 1.370020e+00
HYPOCENTER  x 24.8828 y 58.2422 z 14.0039  OT 0.608482  ix -1 iy -1 iz -1 MAXIMUM_LIKELIHOOD
GEOGRAPHIC  OT 2000 12 13  15 10 0.608482  Lat 35.923784 Long -117.723664 Depth 14.003906
QUALITY  Pmax 8.4089e+101 MFmin 51.3599 MFmax 53.9001 RMS 0.159299 Nphs 33 Gap 107.205 Dist 3.10027 Mamp -9.90 0 Mdur -9.90 0
VPVSRATIO  VpVsRatio 1.69414  Npair 10  Diff 5.4
STATISTICS  ExpectX 24.753613 Y 58.289901 Z 14.490139  CovXX 0.340669 XY 0.0925848 XZ -0.122634 YY 0.145966 YZ 0.0227943 ZZ 0.427184 EllAz1  333.406 Dip1  -12.7266 Len1  0.575606 Az2  234.402 Dip2  -34.721 Len2  1.03324 Len3  1.351616e+00
STAT_GEOG  ExpectLat 35.924213 Long -117.725098 Depth 14.490139
TRANSFORM  SIMPLE LatOrig 35.400000  LongOrig -118.000000  RotCW 0.000000
QML_OriginQuality  assocPhCt 33  usedPhCt 33  assocStaCt -1  usedStaCt 23  depthPhCt -1  stdErr 0.159299  azGap 107.205  secAzGap 107.205  gtLevel -  minDist 3.10027 maxDist 55.0572 medDist 36.3854
QML_OriginUncertainty  horUnc -1  minHorUnc 0.50063  maxHorUnc 0.932003  azMaxHorUnc 68.2188
QML_ConfidenceEllipsoid  semiMajorAxisLength 1.35162  semiMinorAxisLength 0.575606  semiIntermediateAxisLength 1.03324  majorAxisPlunge -52.3599  majorAxisAzimuth 80.4349  majorAxisRotation 123.303
FOCALMECH  Hyp  35.923784 -117.723664 14.003906 Mech  0 0 0 mf  0 nObs -1
PHASE ID Ins Cmp On Pha  FM Date     HrMn   Sec     Err  ErrMag    Coda      Amp       Per       PriorWt  >   TTpred    Res       Weight    StaLoc(X  Y         Z)        SDist    SAzim  RAz  RDip RQual    Tcorr       TTerr
ST22         ?    ?    ? P      ? 20001213 1510    2.0500 GAU  2.00e-02 -1.00e+00 -1.00e+00 -1.00e+00    1.0000 >    2.5240   -1.0824    0.0207   26.8589   55.8533    0.0000    3.1003 140.40 140.4 165.1  9     0.0000    0.0505
ST20         ?    ?    ? P      ? 20001213 1510    2.2800 GAU  2.00e-02 -1.00e+00 -1.00e+00 -1.00e+00    1.0000 >    2.5945   -0.9230    0.0225   26.5943   53.9852    0.0000    4.5881 158.10 158.1 159.0  9     0.0000    0.0519
ST20         ?    ?    ? S      ? 20001213 1510    2.9000 GAU  2.00e-02 -1.00e+00 -1.00e+00 -1.00e+00    1.0000 >    4.2173   -1.9258    0.0000   26.5943   53.9852    0.0000    4.5881 158.10 158.1 159.0  9     0.0000    0.0843
ST3          ?    ?    ? P      ? 20001213 1510    3.6600 GAU  2.00e-02 -1.00e+00 -1.00e+00 -1.00e+00    1.0000 >    3.0290    0.0225    1.4207   17.1949   64.7711    0.0000   10.0862 310.34 310.3 139.3  9     0.0000    0.0606
ST3          ?    ?    ? S      ? 20001213 1510    5.4000 GAU  2.00e-02 -1.00e+00 -1.00e+00 -1.00e+00    1.0000 >    4.9036   -0.1120    1.4049   17.1949   64.7711    0.0000   10.0862 310.34 310.3 140.7 10     0.0000    0.0981
ST10         ?    ?    ? P      ? 20001213 1510    3.6800 GAU  2.00e-02 -1.00e+00 -1.00e+00 -1.00e+00    1.0000 >    3.2193   -0.1478    1.3587   21.1066   69.5192    0.0000   11.8924 341.49 341.5 133.7  9     0.0000    0.0644
ST10         ?    ?    ? S      ? 20001213 1510    5.6500 GAU  2.00e-02 -1.00e+00 -1.00e+00 -1.00e+00    1.0000 >    5.2005   -0.1590    1.3024   21.1066   69.5192    0.0000   11.8924 341.49 341.5 134.9  9     0.0000    0.1040
ST8          ?    ?    ? S      ? 20001213 1510    6.1600 GAU  2.00e-02 -1.00e+00 -1.00e+00 -1.00e+00    1.0000 >    5.4631    0.0884    1.2334   21.2005   45.4232    0.0000   13.3374 196.03 196.0 130.3 10     0.0000    0.1093
ST21         ?    ?    ? P      ? 20001213 1510    5.0500 GAU  2.00e-02 -1.00e+00 -1.00e+00 -1.00e+00    1.0000 >    4.3300    0.1115    1.1749   36.1150   41.1978    0.0000   20.4126 146.62 146.6 110.8  9     0.0000    0.0866
ST21         ?    ?    ? S      ? 20001213 1510    7.4800 GAU  2.00e-02 -1.00e+00 -1.00e+00 -1.00e+00    1.0000 >    6.9233   -0.0518    1.3742   36.1150   41.1978    0.0000   20.4126 146.62 146.6 116.7  9     0.0000    0.1385
ST11         ?    ?    ? P      ? 20001213 1510    5.7300 GAU  2.00e-02 -1.00e+00 -1.00e+00 -1.00e+00    1.0000 >    4.9339    0.1876    0.8838   13.0335   79.7825    0.0000   24.5843 331.18 331.2 101.4  9     0.0000    0.0987
ST5          ?    ?    ? P      ? 20001213 1510    5.7600 GAU  2.00e-02 -1.00e+00 -1.00e+00 -1.00e+00    1.0000 >    5.1089    0.0426    1.3557   45.9261   73.1552    0.0000   25.7919  54.68  54.7  97.8  9     0.0000    0.1022
ST7          ?    ?    ? P      ? 20001213 1510    5.7500 GAU  2.00e-02 -1.00e+00 -1.00e+00 -1.00e+00    1.0000 >    5.1169    0.0247    1.3887   22.5319   32.5023    0.0000   25.8470 185.22 185.2  97.6  9     0.0000    0.1023
ST23         ?    ?    ? P      ? 20001213 1510    5.5900 GAU  2.00e-02 -1.00e+00 -1.00e+00 -1.00e+00    1.0000 >    5.1803   -0.1988    1.1890   38.6464   35.8493    0.0000   26.2846 148.42 148.4  96.1  9     0.0000    0.1036
ST23         ?    ?    ? S      ? 20001213 1510    8.8300 GAU  2.00e-02 -1.00e+00 -1.00e+00 -1.00e+00    1.0000 >    8.2514   -0.0299    1.3055   38.6464   35.8493    0.0000   26.2846 148.42 148.4 110.4  9     0.0000    0.1650
ST25         ?    ?    ? P      ? 20001213 1510    5.7400 GAU  2.00e-02 -1.00e+00 -1.00e+00 -1.00e+00    1.0000 >    5.3464   -0.2148    1.1339   35.8320   33.0917    0.0000   27.4305 156.47 156.5  92.0  9     0.0000    0.1069
ST25         ?    ?    ? S      ? 20001213 1510    9.0400 GAU  2.00e-02 -1.00e+00 -1.00e+00 -1.00e+00    1.0000 >    8.5168   -0.0852    1.2818   35.8320   33.0917    0.0000   27.4305 156.47 156.5 109.5  9     0.0000    0.1703
ST15         ?    ?    ? P      ? 20001213 1510    6.8400 GAU  2.00e-02 -1.00e+00 -1.00e+00 -1.00e+00    1.0000 >    6.6441   -0.4126    0.4726   38.9482   24.6853    0.0000   36.3854 157.26 157.3  77.7  8     0.0000    0.1329
ST15         ?    ?    ? S      ? 20001213 1510   11.2100 GAU  2.00e-02 -1.00e+00 -1.00e+00 -1.00e+00    1.0000 >   10.6290   -0.0274    1.1830   38.9482   24.6853    0.0000   36.3854 157.26 157.3 104.3  9     0.0000    0.2126
ST9          ?    ?    ? P      ? 20001213 1510    7.3700 GAU  2.00e-02 -1.00e+00 -1.00e+00 -1.00e+00    1.0000 >    6.8979   -0.1363    1.2953    9.8992   23.1731    0.0000   38.1360 203.14 203.1  77.6  8     0.0000    0.1380
ST9          ?    ?    ? S      ? 20001213 1510   11.7600 GAU  2.00e-02 -1.00e+00 -1.00e+00 -1.00e+00    1.0000 >   11.0472    0.1043    1.0355    9.8992   23.1731    0.0000   38.1360 203.14 203.1 103.6  9     0.0000    0.2209
ST19         ?    ?    ? P      ? 20001213 1510    7.3500 GAU  2.00e-02 -1.00e+00 -1.00e+00 -1.00e+00    1.0000 >    6.9006   -0.1591    1.2509   47.2048   27.2984    0.0000   38.1548 144.19 144.2  77.6  8     0.0000    0.1380
ST19         ?    ?    ? S      ? 20001213 1510   11.8100 GAU  2.00e-02 -1.00e+00 -1.00e+00 -1.00e+00    1.0000 >   11.0517    0.1498    0.9546   47.2048   27.2984    0.0000   38.1548 144.19 144.2 103.5  9     0.0000    0.2210
ST13         ?    ?    ? P      ? 20001213 1510    7.4300 GAU  2.00e-02 -1.00e+00 -1.00e+00 -1.00e+00    1.0000 >    7.1063   -0.2848    0.8899   52.0625   29.4778    0.0000   39.5743 136.62 136.6  77.5  8     0.0000    0.1421
ST6          ?    ?    ? S      ? 20001213 1510   11.7900 GAU  2.00e-02 -1.00e+00 -1.00e+00 -1.00e+00    1.0000 >   11.4551   -0.2736    0.8831   64.5535   54.5857    0.0000   39.8388  95.27  95.3 102.9  9     0.0000    0.2291
ST2          ?    ?    ? P      ? 20001213 1510    7.9300 GAU  2.00e-02 -1.00e+00 -1.00e+00 -1.00e+00    1.0000 >    7.2228    0.0987    1.1626   36.5585   96.8954    0.0000   40.3781  16.81  16.8  77.5  8     0.0000    0.1445
ST18         ?    ?    ? S      ? 20001213 1510   12.5000 GAU  2.00e-02 -1.00e+00 -1.00e+00 -1.00e+00    1.0000 >   11.9046   -0.0131    1.1167   45.8666   22.1945    0.0000   41.7104 149.80 149.8 102.3  9     0.0000    0.2381
ST24         ?    ?    ? S      ? 20001213 1510   14.3400 GAU  2.00e-02 -1.00e+00 -1.00e+00 -1.00e+00    1.0000 >   13.2903    0.4412    0.4019   55.9556   22.3725    0.0000   47.4569 139.10 139.1 100.7  9     0.0000    0.2658
ST26         ?    ?    ? S      ? 20001213 1510   14.0900 GAU  2.00e-02 -1.00e+00 -1.00e+00 -1.00e+00    1.0000 >   13.3138    0.1677    0.8755   52.5727   19.5815    0.0000   47.5540 144.39 144.4 100.7  9     0.0000    0.2663
ST4          ?    ?    ? P      ? 20001213 1510    8.8200 GAU  2.00e-02 -1.00e+00 -1.00e+00 -1.00e+00    1.0000 >    8.5529   -0.3414    0.7253   28.7854    8.8400    0.0000   49.5561 175.48 175.5  77.2  8     0.0000    0.1711
ST17         ?    ?    ? P      ? 20001213 1510    9.9300 GAU  2.00e-02 -1.00e+00 -1.00e+00 -1.00e+00    1.0000 >    9.2444    0.0772    1.1431   64.4820   21.0492    0.0000   54.3269 133.21 133.2  77.1  8     0.0000    0.1849
ST17         ?    ?    ? S      ? 20001213 1510   15.9500 GAU  2.00e-02 -1.00e+00 -1.00e+00 -1.00e+00    1.0000 >   14.9550    0.3865    0.5117   64.4820   21.0492    0.0000   54.3269 133.21 133.2  99.2  9     0.0000    0.2991
ST0          ?    ?    ? P      ? 20001213 1510    9.8900 GAU  2.00e-02 -1.00e+00 -1.00e+00 -1.00e+00    1.0000 >    9.3502   -0.0687    1.2473   57.5022   13.8883    0.0000   55.0572 143.67 143.7  77.1  8     0.0000    0.1870
END_PHASE
END_NLLOC

