NLLOC "./loc/alaska.20001213.151001_020.grid0" "LOCATED" "Location completed."
PUBLIC_ID None
SIGNATURE "NonLinLoc - Yifan Yu   obs:./obs/phase.obs   NLLoc:v7.00.16(17Apr2023)   run:21Aug2023 13h19m41"
COMMENT "2023-8-21 test"
GRID  201 201 41  0 0 0  0.5 0.5 0.5 PROB_DENSITY
SEARCH OCTREE nInitial 400 nEvaluated 5480 smallestNodeSide 0.019531/0.019531/0.009766 oct_tree_integral 2.198841e-02 scatter_volume 2.198220e-02
HYPOCENTER  x 47.2949 y 28.1152 z 0.00488281  OT 1.21655  ix -1 iy -1 iz -1 MAXIMUM_LIKELIHOOD
GEOGRAPHIC  OT 2000 12 13  15 10 1.216554  Lat 35.652846 Long -117.476554 Depth 0.004883
QUALITY  Pmax 3.86042e+178 MFmin 90.7273 MFmax 92.6276 RMS 0.220429 Nphs 54 Gap 40.9458 Dist 0.821801 Mamp -9.90 0 Mdur -9.90 0
VPVSRATIO  VpVsRatio 1.70535  Npair 27  Diff 7.58
STATISTICS  ExpectX 47.253589 Y 28.104412 Z 0.429783  CovXX 0.0668157 XY -0.0020278 XZ -0.132307 YY 0.0163837 YZ 0.00795422 ZZ 0.442591 EllAz1  357.358 Dip1  -1.88662 Len1  0.239246 Az2  266.763 Dip2  -17.4949 Len2  0.296658 Len3  1.307973e+00
STAT_GEOG  ExpectLat 35.652749 Long -117.477012 Depth 0.429783
TRANSFORM  SIMPLE LatOrig 35.400000  LongOrig -118.000000  RotCW 0.000000
QML_OriginQuality  assocPhCt 54  usedPhCt 54  assocStaCt -1  usedStaCt 27  depthPhCt -1  stdErr 0.220429  azGap 40.9458  secAzGap 40.9458  gtLevel -  minDist 0.821801 maxDist 69.6131 medDist 22.3816
QML_OriginUncertainty  horUnc -1  minHorUnc 0.193637  maxHorUnc 0.392254  azMaxHorUnc 92.2988
QML_ConfidenceEllipsoid  semiMajorAxisLength 1.30797  semiMinorAxisLength 0.239246  semiIntermediateAxisLength 0.296658  majorAxisPlunge -72.3971  majorAxisAzimuth 93.3171  majorAxisRotation 172.366
FOCALMECH  Hyp  35.652846 -117.476554 0.004883 Mech  0 0 0 mf  0 nObs -1
PHASE ID Ins Cmp On Pha  FM Date     HrMn   Sec     Err  ErrMag    Coda      Amp       Per       PriorWt  >   TTpred    Res       Weight    StaLoc(X  Y         Z)        SDist    SAzim  RAz  RDip RQual    Tcorr       TTerr
ST19         ?    ?    ? P      ? 20001213 1510    1.2800 GAU  2.00e-02 -1.00e+00 -1.00e+00 -1.00e+00    1.0000 >    0.1553   -0.0919    1.6231   47.2048   27.2984    0.0000    0.8218 186.30   6.3 200.0  0     0.0000    0.0500
ST19         ?    ?    ? S      ? 20001213 1510    1.4700 GAU  2.00e-02 -1.00e+00 -1.00e+00 -1.00e+00    1.0000 >    0.2735   -0.0201    2.3192   47.2048   27.2984    0.0000    0.8218 186.30   6.3 200.0  0     0.0000    0.0500
ST13         ?    ?    ? P      ? 20001213 1510    2.1000 GAU  2.00e-02 -1.00e+00 -1.00e+00 -1.00e+00    1.0000 >    0.9356   -0.0522    2.0864   52.0625   29.4778    0.0000    4.9585  74.05 254.0 200.0  0     0.0000    0.0500
ST13         ?    ?    ? S      ? 20001213 1510    2.8700 GAU  2.00e-02 -1.00e+00 -1.00e+00 -1.00e+00    1.0000 >    1.6474    0.0060    2.3570   52.0625   29.4778    0.0000    4.9585  74.05 254.0 200.0  0     0.0000    0.0500
ST18         ?    ?    ? P      ? 20001213 1510    2.3700 GAU  2.00e-02 -1.00e+00 -1.00e+00 -1.00e+00    1.0000 >    1.1492    0.0042    2.3591   45.8666   22.1945    0.0000    6.0905 193.56  13.6 200.0  0     0.0000    0.0500
ST18         ?    ?    ? S      ? 20001213 1510    3.3000 GAU  2.00e-02 -1.00e+00 -1.00e+00 -1.00e+00    1.0000 >    2.0235    0.0599    2.0093   45.8666   22.1945    0.0000    6.0905 193.56  13.6 200.0  0     0.0000    0.0500
ST15         ?    ?    ? P      ? 20001213 1510    2.9100 GAU  2.00e-02 -1.00e+00 -1.00e+00 -1.00e+00    1.0000 >    1.7027   -0.0092    2.3528   38.9482   24.6853    0.0000    9.0240 247.66  67.7 200.0  0     0.0000    0.0500
ST15         ?    ?    ? S      ? 20001213 1510    4.1900 GAU  2.00e-02 -1.00e+00 -1.00e+00 -1.00e+00    1.0000 >    2.9981   -0.0246    2.2221   38.9482   24.6853    0.0000    9.0240 247.66  67.7 200.0  0     0.0000    0.0600
ST26         ?    ?    ? P      ? 20001213 1510    3.4200 GAU  2.00e-02 -1.00e+00 -1.00e+00 -1.00e+00    1.0000 >    1.8932    0.3102    0.7858   52.5727   19.5815    0.0000   10.0339 148.27 328.3 200.0  0     0.0000    0.0500
ST26         ?    ?    ? S      ? 20001213 1510    5.0800 GAU  2.00e-02 -1.00e+00 -1.00e+00 -1.00e+00    1.0000 >    3.3336    0.5298    0.3111   52.5727   19.5815    0.0000   10.0339 148.27 328.3 200.0  0     0.0000    0.0667
ST24         ?    ?    ? P      ? 20001213 1510    3.5800 GAU  2.00e-02 -1.00e+00 -1.00e+00 -1.00e+00    1.0000 >    1.9607    0.4027    0.5743   55.9556   22.3725    0.0000   10.3917 123.55 303.5 200.0  0     0.0000    0.0500
ST24         ?    ?    ? S      ? 20001213 1510    5.3800 GAU  2.00e-02 -1.00e+00 -1.00e+00 -1.00e+00    1.0000 >    3.4525    0.7110    0.2926   55.9556   22.3725    0.0000   10.3917 123.55 303.5 200.0  0     0.0000    0.0690
ST23         ?    ?    ? P      ? 20001213 1510    3.4300 GAU  2.00e-02 -1.00e+00 -1.00e+00 -1.00e+00    1.0000 >    2.1891    0.0243    2.2961   38.6464   35.8493    0.0000   11.6022 311.81 131.8 200.0  0     0.0000    0.0500
ST23         ?    ?    ? S      ? 20001213 1510    5.0400 GAU  2.00e-02 -1.00e+00 -1.00e+00 -1.00e+00    1.0000 >    3.8546   -0.0312    2.0589   38.6464   35.8493    0.0000   11.6022 311.81 131.8 200.0  0     0.0000    0.0771
ST25         ?    ?    ? P      ? 20001213 1510    3.6200 GAU  2.00e-02 -1.00e+00 -1.00e+00 -1.00e+00    1.0000 >    2.3579    0.0456    2.1465   35.8320   33.0917    0.0000   12.4965 293.47 113.5 200.0  0     0.0000    0.0500
ST25         ?    ?    ? S      ? 20001213 1510    5.3700 GAU  2.00e-02 -1.00e+00 -1.00e+00 -1.00e+00    1.0000 >    4.1517    0.0017    2.0776   35.8320   33.0917    0.0000   12.4965 293.47 113.5 200.0  0     0.0000    0.0830
ST21         ?    ?    ? P      ? 20001213 1510    4.6200 GAU  2.00e-02 -1.00e+00 -1.00e+00 -1.00e+00    1.0000 >    3.2470    0.1565    1.1710   36.1150   41.1978    0.0000   17.2088 319.48 139.5 200.0  0     0.0000    0.0649
ST21         ?    ?    ? S      ? 20001213 1510    7.0000 GAU  2.00e-02 -1.00e+00 -1.00e+00 -1.00e+00    1.0000 >    5.7173    0.0662    1.7493   36.1150   41.1978    0.0000   17.2088 319.48 139.5 200.0  0     0.0000    0.1143
ST0          ?    ?    ? P      ? 20001213 1510    5.3200 GAU  2.00e-02 -1.00e+00 -1.00e+00 -1.00e+00    1.0000 >    3.3038    0.7997    0.2737   57.5022   13.8883    0.0000   17.5098 144.34 324.3 200.0  0     0.0000    0.0661
ST0          ?    ?    ? S      ? 20001213 1510    8.2400 GAU  2.00e-02 -1.00e+00 -1.00e+00 -1.00e+00    1.0000 >    5.8173    1.2062    0.0786   57.5022   13.8883    0.0000   17.5098 144.34 324.3 200.0  0     0.0000    0.1163
ST17         ?    ?    ? P      ? 20001213 1510    5.5200 GAU  2.00e-02 -1.00e+00 -1.00e+00 -1.00e+00    1.0000 >    3.5062    0.7972    0.2773   64.4820   21.0492    0.0000   18.5829 112.35 292.3 200.0  0     0.0000    0.0701
ST17         ?    ?    ? S      ? 20001213 1510    8.5900 GAU  2.00e-02 -1.00e+00 -1.00e+00 -1.00e+00    1.0000 >    6.1738    1.1997    0.0803   64.4820   21.0492    0.0000   18.5829 112.35 292.3 200.0  0     0.0000    0.1235
ST16         ?    ?    ? P      ? 20001213 1510    5.3900 GAU  2.00e-02 -1.00e+00 -1.00e+00 -1.00e+00    1.0000 >    3.9240    0.2495    0.9116   39.8239    8.7066    0.0000   20.7969 201.05  21.1 200.0  0     0.0000    0.0785
ST16         ?    ?    ? S      ? 20001213 1510    8.2500 GAU  2.00e-02 -1.00e+00 -1.00e+00 -1.00e+00    1.0000 >    6.9093    0.1241    1.4974   39.8239    8.7066    0.0000   20.7969 201.05  21.1 200.0  0     0.0000    0.1382
ST1          ?    ?    ? P      ? 20001213 1510    5.4800 GAU  2.00e-02 -1.00e+00 -1.00e+00 -1.00e+00    1.0000 >    3.9979    0.2655    0.8865   36.2928   46.2238    0.0000   21.1888 328.72 148.7 200.0  0     0.0000    0.0800
ST1          ?    ?    ? S      ? 20001213 1510    8.4900 GAU  2.00e-02 -1.00e+00 -1.00e+00 -1.00e+00    1.0000 >    7.0395    0.2339    1.1185   36.2928   46.2238    0.0000   21.1888 328.72 148.7 200.0  0     0.0000    0.1408
ST14         ?    ?    ? P      ? 20001213 1510    5.4900 GAU  2.00e-02 -1.00e+00 -1.00e+00 -1.00e+00    1.0000 >    4.2230    0.0505    1.9468   58.1038   47.7138    0.0000   22.3816  28.88 208.9 200.0  0     0.0000    0.0845
ST14         ?    ?    ? S      ? 20001213 1510    8.6200 GAU  2.00e-02 -1.00e+00 -1.00e+00 -1.00e+00    1.0000 >    7.4358   -0.0323    1.6119   58.1038   47.7138    0.0000   22.3816  28.88 208.9 200.0  0     0.0000    0.1487
ST7          ?    ?    ? P      ? 20001213 1510    6.2700 GAU  2.00e-02 -1.00e+00 -1.00e+00 -1.00e+00    1.0000 >    4.7450    0.3084    0.8321   22.5319   32.5023    0.0000   25.1486 280.05 100.0 200.0  0     0.0000    0.0949
ST7          ?    ?    ? S      ? 20001213 1510   10.1300 GAU  2.00e-02 -1.00e+00 -1.00e+00 -1.00e+00    1.0000 >    8.3551    0.5584    0.4644   22.5319   32.5023    0.0000   25.1486 280.05 100.0 200.0  0     0.0000    0.1671
ST4          ?    ?    ? P      ? 20001213 1510    6.2100 GAU  2.00e-02 -1.00e+00 -1.00e+00 -1.00e+00    1.0000 >    5.0422   -0.0487    1.8234   28.7854    8.8400    0.0000   26.7233 223.84  43.8 200.0  0     0.0000    0.1008
ST4          ?    ?    ? S      ? 20001213 1510    9.6100 GAU  2.00e-02 -1.00e+00 -1.00e+00 -1.00e+00    1.0000 >    8.8782   -0.4848    0.3964   28.7854    8.8400    0.0000   26.7233 223.84  43.8 200.0  0     0.0000    0.1776
ST8          ?    ?    ? P      ? 20001213 1510    7.4900 GAU  2.00e-02 -1.00e+00 -1.00e+00 -1.00e+00    1.0000 >    5.9081    0.3654    0.7343   21.2005   45.4232    0.0000   31.3127 303.56 123.6 200.0  0     0.0000    0.1182
ST8          ?    ?    ? S      ? 20001213 1510   12.1100 GAU  2.00e-02 -1.00e+00 -1.00e+00 -1.00e+00    1.0000 >   10.4029    0.4905    0.6073   21.2005   45.4232    0.0000   31.3127 303.56 123.6 200.0  0     0.0000    0.2081
ST6          ?    ?    ? P      ? 20001213 1510    6.8400 GAU  2.00e-02 -1.00e+00 -1.00e+00 -1.00e+00    1.0000 >    5.9622   -0.3388    0.4792   64.5535   54.5857    0.0000   31.5997  33.10 213.1 200.0  0     0.0000    0.1192
ST6          ?    ?    ? S      ? 20001213 1510   10.8800 GAU  2.00e-02 -1.00e+00 -1.00e+00 -1.00e+00    1.0000 >   10.4983   -0.8348    0.2631   64.5535   54.5857    0.0000   31.5997  33.10 213.1 200.0  0     0.0000    0.2100
ST20         ?    ?    ? P      ? 20001213 1510    7.4700 GAU  2.00e-02 -1.00e+00 -1.00e+00 -1.00e+00    1.0000 >    6.2515    0.0020    1.7786   26.5943   53.9852    0.0000   33.1326 321.33 141.3 200.0  0     0.0000    0.1250
ST20         ?    ?    ? S      ? 20001213 1510   12.0000 GAU  2.00e-02 -1.00e+00 -1.00e+00 -1.00e+00    1.0000 >   11.0075   -0.2241    0.9787   26.5943   53.9852    0.0000   33.1326 321.33 141.3 200.0  0     0.0000    0.2202
ST22         ?    ?    ? P      ? 20001213 1510    7.6200 GAU  2.00e-02 -1.00e+00 -1.00e+00 -1.00e+00    1.0000 >    6.5007   -0.0972    1.4860   26.8589   55.8533    0.0000   34.4533 323.62 143.6 200.0  0     0.0000    0.1300
ST22         ?    ?    ? S      ? 20001213 1510   12.2500 GAU  2.00e-02 -1.00e+00 -1.00e+00 -1.00e+00    1.0000 >   11.4463   -0.4129    0.5786   26.8589   55.8533    0.0000   34.4533 323.62 143.6 200.0  0     0.0000    0.2289
ST12         ?    ?    ? P      ? 20001213 1510    7.7400 GAU  2.00e-02 -1.00e+00 -1.00e+00 -1.00e+00    1.0000 >    6.8728   -0.3493    0.5062   31.4703   60.9238    0.0000   36.4255 334.25 154.3 200.0  0     0.0000    0.1375
ST12         ?    ?    ? S      ? 20001213 1510   12.3800 GAU  2.00e-02 -1.00e+00 -1.00e+00 -1.00e+00    1.0000 >   12.1015   -0.9381    0.2386   31.4703   60.9238    0.0000   36.4255 334.25 154.3 200.0  0     0.0000    0.2420
ST9          ?    ?    ? P      ? 20001213 1510    8.1900 GAU  2.00e-02 -1.00e+00 -1.00e+00 -1.00e+00    1.0000 >    7.1172   -0.1437    1.2571    9.8992   23.1731    0.0000   37.7209 262.47  82.5 200.0  0     0.0000    0.1423
ST9          ?    ?    ? S      ? 20001213 1510   13.4000 GAU  2.00e-02 -1.00e+00 -1.00e+00 -1.00e+00    1.0000 >   12.5319   -0.3485    0.7237    9.8992   23.1731    0.0000   37.7209 262.47  82.5 200.0  0     0.0000    0.2506
ST5          ?    ?    ? P      ? 20001213 1510    8.9800 GAU  2.00e-02 -1.00e+00 -1.00e+00 -1.00e+00    1.0000 >    8.5020   -0.7386    0.2766   45.9261   73.1552    0.0000   45.0608 358.26 178.3 200.0  0     0.0000    0.1700
ST5          ?    ?    ? S      ? 20001213 1510   14.3200 GAU  2.00e-02 -1.00e+00 -1.00e+00 -1.00e+00    1.0000 >   14.9703   -1.8669    0.1058   45.9261   73.1552    0.0000   45.0608 358.26 178.3 200.0  0     0.0000    0.2994
ST3          ?    ?    ? P      ? 20001213 1510    9.3300 GAU  2.00e-02 -1.00e+00 -1.00e+00 -1.00e+00    1.0000 >    8.9478   -0.8343    0.2577   17.1949   64.7711    0.0000   47.4306 320.61 140.6 200.0  0     0.0000    0.1790
ST3          ?    ?    ? S      ? 20001213 1510   15.1400 GAU  2.00e-02 -1.00e+00 -1.00e+00 -1.00e+00    1.0000 >   15.7554   -1.8320    0.1097   17.1949   64.7711    0.0000   47.4306 320.61 140.6 200.0  0     0.0000    0.3151
ST10         ?    ?    ? P      ? 20001213 1510    9.4900 GAU  2.00e-02 -1.00e+00 -1.00e+00 -1.00e+00    1.0000 >    9.2368   -0.9634    0.2216   21.1066   69.5192    0.0000   48.9910 327.69 147.7 200.0  0     0.0000    0.1847
ST10         ?    ?    ? S      ? 20001213 1510   15.4500 GAU  2.00e-02 -1.00e+00 -1.00e+00 -1.00e+00    1.0000 >   16.2646   -2.0312    0.0914   21.1066   69.5192    0.0000   48.9910 327.69 147.7 200.0  0     0.0000    0.3253
ST11         ?    ?    ? P      ? 20001213 1510   11.4100 GAU  2.00e-02 -1.00e+00 -1.00e+00 -1.00e+00    1.0000 >   11.5532   -1.3598    0.1341   13.0335   79.7825    0.0000   61.9947 326.45 146.5 200.0  0     0.0000    0.2311
ST11         ?    ?    ? S      ? 20001213 1510   18.9900 GAU  2.00e-02 -1.00e+00 -1.00e+00 -1.00e+00    1.0000 >   20.3455   -2.5721    0.0438   13.0335   79.7825    0.0000   61.9947 326.45 146.5 200.0  0     0.0000    0.4069
ST2          ?    ?    ? P      ? 20001213 1510   12.5200 GAU  2.00e-02 -1.00e+00 -1.00e+00 -1.00e+00    1.0000 >   12.7889   -1.4854    0.1278   36.5585   96.8954    0.0000   69.6131 351.13 171.1 200.0  0     0.0000    0.2558
ST2          ?    ?    ? S      ? 20001213 1510   20.2900 GAU  2.00e-02 -1.00e+00 -1.00e+00 -1.00e+00    1.0000 >   22.5223   -3.4489    0.0091   36.5585   96.8954    0.0000   69.6131 351.13 171.1 200.0  0     0.0000    0.4504
END_PHASE
END_NLLOC

