NLLOC "./loc/alaska.20001213.151002_026.grid0" "LOCATED" "Location completed."
PUBLIC_ID None
SIGNATURE "NonLinLoc - Yifan Yu   obs:./obs/phase.obs   NLLoc:v7.00.16(17Apr2023)   run:24Aug2023 11h42m16"
COMMENT "2023-8-21 test"
GRID  201 201 41  0 0 0  0.5 0.5 0.5 PROB_DENSITY
SEARCH OCTREE nInitial 400 nEvaluated 20000 smallestNodeSide 0.078125/0.078125/0.039062 oct_tree_integral 2.184675e+00 scatter_volume 2.173590e+00
HYPOCENTER  x 34.7266 y 17.3828 z 14.0039  OT 0.351316  ix -1 iy -1 iz -1 MAXIMUM_LIKELIHOOD
GEOGRAPHIC  OT 2000 12 13  15 10 0.351316  Lat 35.556327 Long -117.616120 Depth 14.003906
QUALITY  Pmax 1.48532e+104 MFmin 54.2868 MFmax 58.48 RMS 0.20733 Nphs 34 Gap 68.3111 Dist 8.43495 Mamp -9.90 0 Mdur -9.90 0
VPVSRATIO  VpVsRatio 1.67433  Npair 11  Diff 4.36
STATISTICS  ExpectX 34.934199 Y 17.313568 Z 14.308829  CovXX 0.514967 XY 0.0163665 XZ 0.0913071 YY 0.255324 YZ -0.209846 ZZ 0.650305 EllAz1  170.801 Dip1  -24.2085 Len1  0.744687 Az2  255.032 Dip2  12.6042 Len2  1.32615 Len3  1.643614e+00
STAT_GEOG  ExpectLat 35.555704 Long -117.613828 Depth 14.308829
TRANSFORM  SIMPLE LatOrig 35.400000  LongOrig -118.000000  RotCW 0.000000
QML_OriginQuality  assocPhCt 34  usedPhCt 34  assocStaCt -1  usedStaCt 23  depthPhCt -1  stdErr 0.20733  azGap 68.3111  secAzGap 133.562  gtLevel -  minDist 8.43495 maxDist 79.5337 medDist 23.8554
QML_OriginUncertainty  horUnc -1  minHorUnc 0.764776  maxHorUnc 1.0894  azMaxHorUnc 86.4073
QML_ConfidenceEllipsoid  semiMajorAxisLength 1.64361  semiMinorAxisLength 0.744687  semiIntermediateAxisLength 1.32615  majorAxisPlunge 62.3218  majorAxisAzimuth 139.799  majorAxisRotation 73.1687
FOCALMECH  Hyp  35.556327 -117.616120 14.003906 Mech  0 0 0 mf  0 nObs -1
PHASE ID Ins Cmp On Pha  FM Date     HrMn   Sec     Err  ErrMag    Coda      Amp       Per       PriorWt  >   TTpred    Res       Weight    StaLoc(X  Y         Z)        SDist    SAzim  RAz  RDip RQual    Tcorr       TTerr
ST15         ?    ?    ? P      ? 20001213 1510    2.8300 GAU  2.00e-02 -1.00e+00 -1.00e+00 -1.00e+00    1.0000 >    2.8734   -0.3947    0.4777   38.9482   24.6853    0.0000    8.4349  30.03  30.0 144.8  9     0.0000    0.0575
ST16         ?    ?    ? P      ? 20001213 1510    3.3700 GAU  2.00e-02 -1.00e+00 -1.00e+00 -1.00e+00    1.0000 >    3.0267   -0.0080    1.5664   39.8239    8.7066    0.0000   10.0628 149.57 149.6 139.4  9     0.0000    0.0605
ST16         ?    ?    ? S      ? 20001213 1510    5.2100 GAU  2.00e-02 -1.00e+00 -1.00e+00 -1.00e+00    1.0000 >    4.8999   -0.0412    1.4344   39.8239    8.7066    0.0000   10.0628 149.57 149.6 140.7 10     0.0000    0.0980
ST4          ?    ?    ? P      ? 20001213 1510    3.4300 GAU  2.00e-02 -1.00e+00 -1.00e+00 -1.00e+00    1.0000 >    3.0613    0.0174    1.5539   28.7854    8.8400    0.0000   10.4056 214.82 214.8 138.3  9     0.0000    0.0612
ST18         ?    ?    ? P      ? 20001213 1510    3.4900 GAU  2.00e-02 -1.00e+00 -1.00e+00 -1.00e+00    1.0000 >    3.2463   -0.1076    1.2506   45.8666   22.1945    0.0000   12.1348  66.64  66.6 132.9  9     0.0000    0.0649
ST18         ?    ?    ? S      ? 20001213 1510    5.2800 GAU  2.00e-02 -1.00e+00 -1.00e+00 -1.00e+00    1.0000 >    5.2431   -0.3144    0.6565   45.8666   22.1945    0.0000   12.1348  66.64  66.6 134.0  9     0.0000    0.1049
ST25         ?    ?    ? P      ? 20001213 1510    3.6700 GAU  2.00e-02 -1.00e+00 -1.00e+00 -1.00e+00    1.0000 >    3.6880   -0.3693    0.5356   35.8320   33.0917    0.0000   15.7477   4.03   4.0 121.6  9     0.0000    0.0738
ST26         ?    ?    ? P      ? 20001213 1510    4.5500 GAU  2.00e-02 -1.00e+00 -1.00e+00 -1.00e+00    1.0000 >    3.9879    0.2107    0.9283   52.5727   19.5815    0.0000   17.9810  82.98  83.0 116.2  9     0.0000    0.0798
ST26         ?    ?    ? S      ? 20001213 1510    7.2100 GAU  2.00e-02 -1.00e+00 -1.00e+00 -1.00e+00    1.0000 >    6.3971    0.4616    0.6312   52.5727   19.5815    0.0000   17.9810  82.98  83.0 120.5 10     0.0000    0.1279
ST23         ?    ?    ? S      ? 20001213 1510    6.8600 GAU  2.00e-02 -1.00e+00 -1.00e+00 -1.00e+00    1.0000 >    6.5890   -0.0803    1.2876   38.6464   35.8493    0.0000   18.8779  11.98  12.0 119.0 10     0.0000    0.1318
ST7          ?    ?    ? P      ? 20001213 1510    4.5800 GAU  2.00e-02 -1.00e+00 -1.00e+00 -1.00e+00    1.0000 >    4.1894    0.0393    1.4741   22.5319   32.5023    0.0000   19.4244 321.11 321.1 112.9  9     0.0000    0.0838
ST7          ?    ?    ? S      ? 20001213 1510    7.3800 GAU  2.00e-02 -1.00e+00 -1.00e+00 -1.00e+00    1.0000 >    6.7072    0.3215    0.8381   22.5319   32.5023    0.0000   19.4244 321.11 321.1 118.1  9     0.0000    0.1341
ST13         ?    ?    ? P      ? 20001213 1510    4.8900 GAU  2.00e-02 -1.00e+00 -1.00e+00 -1.00e+00    1.0000 >    4.4345    0.1042    1.2927   52.0625   29.4778    0.0000   21.1382  55.10  55.1 109.3  9     0.0000    0.0887
ST13         ?    ?    ? S      ? 20001213 1510    7.5400 GAU  2.00e-02 -1.00e+00 -1.00e+00 -1.00e+00    1.0000 >    7.0837    0.1050    1.2589   52.0625   29.4778    0.0000   21.1382  55.10  55.1 115.7  9     0.0000    0.1417
ST24         ?    ?    ? P      ? 20001213 1510    5.4100 GAU  2.00e-02 -1.00e+00 -1.00e+00 -1.00e+00    1.0000 >    4.5315    0.5272    0.5079   55.9556   22.3725    0.0000   21.8076  76.77  76.8 107.9  9     0.0000    0.0906
ST0          ?    ?    ? P      ? 20001213 1510    5.5100 GAU  2.00e-02 -1.00e+00 -1.00e+00 -1.00e+00    1.0000 >    4.7104    0.4483    0.6544   57.5022   13.8883    0.0000   23.0421  98.72  98.7 105.4  9     0.0000    0.0942
ST0          ?    ?    ? S      ? 20001213 1510    9.1700 GAU  2.00e-02 -1.00e+00 -1.00e+00 -1.00e+00    1.0000 >    7.5101    1.3086    0.0009   57.5022   13.8883    0.0000   23.0421  98.72  98.7 113.5  9     0.0000    0.1502
ST21         ?    ?    ? P      ? 20001213 1510    5.2000 GAU  2.00e-02 -1.00e+00 -1.00e+00 -1.00e+00    1.0000 >    4.8282    0.0204    1.4667   36.1150   41.1978    0.0000   23.8554   3.34   3.3 103.3  9     0.0000    0.0966
ST21         ?    ?    ? S      ? 20001213 1510    8.1500 GAU  2.00e-02 -1.00e+00 -1.00e+00 -1.00e+00    1.0000 >    7.6945    0.1042    1.2459   36.1150   41.1978    0.0000   23.8554   3.34   3.3 112.7  9     0.0000    0.1539
ST9          ?    ?    ? P      ? 20001213 1510    5.7600 GAU  2.00e-02 -1.00e+00 -1.00e+00 -1.00e+00    1.0000 >    5.0657    0.3430    0.7717    9.8992   23.1731    0.0000   25.4937 283.13 283.1  98.7  9     0.0000    0.1013
ST1          ?    ?    ? P      ? 20001213 1510    5.8600 GAU  2.00e-02 -1.00e+00 -1.00e+00 -1.00e+00    1.0000 >    5.5569   -0.0482    1.3895   36.2928   46.2238    0.0000   28.8835   3.11   3.1  86.3  9     0.0000    0.1111
ST8          ?    ?    ? P      ? 20001213 1510    6.6800 GAU  2.00e-02 -1.00e+00 -1.00e+00 -1.00e+00    1.0000 >    5.8828    0.4459    0.6568   21.2005   45.4232    0.0000   31.1322 334.25 334.2  79.2  8     0.0000    0.1177
ST20         ?    ?    ? P      ? 20001213 1510    7.1000 GAU  2.00e-02 -1.00e+00 -1.00e+00 -1.00e+00    1.0000 >    6.8049   -0.0563    1.3189   26.5943   53.9852    0.0000   37.4949 347.47 347.5  77.6  8     0.0000    0.1361
ST20         ?    ?    ? S      ? 20001213 1510   11.7100 GAU  2.00e-02 -1.00e+00 -1.00e+00 -1.00e+00    1.0000 >   10.8939    0.4648    0.6364   26.5943   53.9852    0.0000   37.4949 347.47 347.5 103.8  9     0.0000    0.2179
ST22         ?    ?    ? P      ? 20001213 1510    7.3600 GAU  2.00e-02 -1.00e+00 -1.00e+00 -1.00e+00    1.0000 >    7.0617   -0.0530    1.3118   26.8589   55.8533    0.0000   39.2668 348.44 348.4  77.5  8     0.0000    0.1412
ST22         ?    ?    ? S      ? 20001213 1510   12.0600 GAU  2.00e-02 -1.00e+00 -1.00e+00 -1.00e+00    1.0000 >   11.3180    0.3907    0.7625   26.8589   55.8533    0.0000   39.2668 348.44 348.4 103.1  9     0.0000    0.2264
ST6          ?    ?    ? P      ? 20001213 1510    8.4900 GAU  2.00e-02 -1.00e+00 -1.00e+00 -1.00e+00    1.0000 >    8.2815   -0.1428    1.1170   64.5535   54.5857    0.0000   47.6833  38.72  38.7  77.2  8     0.0000    0.1656
ST3          ?    ?    ? S      ? 20001213 1510   14.4500 GAU  2.00e-02 -1.00e+00 -1.00e+00 -1.00e+00    1.0000 >   14.0334    0.0653    1.0725   17.1949   64.7711    0.0000   50.5273 339.70 339.7 100.0  9     0.0000    0.2807
ST10         ?    ?    ? P      ? 20001213 1510    9.2400 GAU  2.00e-02 -1.00e+00 -1.00e+00 -1.00e+00    1.0000 >    9.1805   -0.2918    0.7748   21.1066   69.5192    0.0000   53.8860 345.36 345.4  77.1  8     0.0000    0.1836
ST10         ?    ?    ? S      ? 20001213 1510   15.0200 GAU  2.00e-02 -1.00e+00 -1.00e+00 -1.00e+00    1.0000 >   14.8480   -0.1793    0.9114   21.1066   69.5192    0.0000   53.8860 345.36 345.4  99.3  9     0.0000    0.2970
ST5          ?    ?    ? P      ? 20001213 1510   10.0200 GAU  2.00e-02 -1.00e+00 -1.00e+00 -1.00e+00    1.0000 >    9.6152    0.0535    1.2282   45.9261   73.1552    0.0000   56.8858  11.35  11.4  77.0  8     0.0000    0.1923
ST5          ?    ?    ? S      ? 20001213 1510   16.1700 GAU  2.00e-02 -1.00e+00 -1.00e+00 -1.00e+00    1.0000 >   15.5767    0.2420    0.9229   45.9261   73.1552    0.0000   56.8858  11.35  11.4  98.8  9     0.0000    0.3115
ST11         ?    ?    ? P      ? 20001213 1510   11.1000 GAU  2.00e-02 -1.00e+00 -1.00e+00 -1.00e+00    1.0000 >   10.9452   -0.1965    0.9659   13.0335   79.7825    0.0000   66.0629 340.83 340.8  76.9  8     0.0000    0.2189
ST2          ?    ?    ? P      ? 20001213 1510   13.1500 GAU  2.00e-02 -1.00e+00 -1.00e+00 -1.00e+00    1.0000 >   12.8357   -0.0370    1.0979   36.5585   96.8954    0.0000   79.5337   1.32   1.3  62.6  9     0.0000    0.2567
END_PHASE
END_NLLOC

