NLLOC "./loc/alaska.20001213.151001_011.grid0" "LOCATED" "Location completed."
PUBLIC_ID None
SIGNATURE "NonLinLoc - Yifan Yu   obs:./obs/phase.obs   NLLoc:v7.00.16(17Apr2023)   run:21Aug2023 13h19m32"
COMMENT "2023-8-21 test"
GRID  201 201 41  0 0 0  0.5 0.5 0.5 PROB_DENSITY
SEARCH OCTREE nInitial 400 nEvaluated 20000 smallestNodeSide 0.039062/0.039062/0.019531 oct_tree_integral 3.013571e-01 scatter_volume 2.999014e-01
HYPOCENTER  x 38.0859 y 38.6328 z 0.0195312  OT 1.39706  ix -1 iy -1 iz -1 MAXIMUM_LIKELIHOOD
GEOGRAPHIC  OT 2000 12 13  15 10 1.397059  Lat 35.747433 Long -117.577976 Depth 0.019531
QUALITY  Pmax 6.31695e+181 MFmin 92.3069 MFmax 92.6366 RMS 0.197466 Nphs 54 Gap 57.627 Dist 2.83939 Mamp -9.90 0 Mdur -9.90 0
VPVSRATIO  VpVsRatio 1.7041  Npair 27  Diff 6.27
STATISTICS  ExpectX 37.953673 Y 38.789214 Z 0.879828  CovXX 0.0560801 XY -0.00997192 XZ -0.0280969 YY 0.0520009 YZ 0.0142069 ZZ 0.464498 EllAz1  40.7723 Dip1  1.03341 Len1  0.392941 Az2  310.851 Dip2  -4.33862 Len2  0.46739 Len3  1.283880e+00
STAT_GEOG  ExpectLat 35.748839 Long -117.579434 Depth 0.879828
TRANSFORM  SIMPLE LatOrig 35.400000  LongOrig -118.000000  RotCW 0.000000
QML_OriginQuality  assocPhCt 54  usedPhCt 54  assocStaCt -1  usedStaCt 27  depthPhCt -1  stdErr 0.197466  azGap 57.627  secAzGap 57.627  gtLevel -  minDist 2.83939 maxDist 58.2826 medDist 23.252
QML_OriginUncertainty  horUnc -1  minHorUnc 0.317621  maxHorUnc 0.384322  azMaxHorUnc 129.22
QML_ConfidenceEllipsoid  semiMajorAxisLength 1.28388  semiMinorAxisLength 0.392941  semiIntermediateAxisLength 0.46739  majorAxisPlunge -85.5395  majorAxisAzimuth 117.402  majorAxisRotation 193.567
FOCALMECH  Hyp  35.747433 -117.577976 0.019531 Mech  0 0 0 mf  0 nObs -1
PHASE ID Ins Cmp On Pha  FM Date     HrMn   Sec     Err  ErrMag    Coda      Amp       Per       PriorWt  >   TTpred    Res       Weight    StaLoc(X  Y         Z)        SDist    SAzim  RAz  RDip RQual    Tcorr       TTerr
ST23         ?    ?    ? P      ? 20001213 1510    1.6800 GAU  2.00e-02 -1.00e+00 -1.00e+00 -1.00e+00    1.0000 >    0.5361   -0.2531    1.1407   38.6464   35.8493    0.0000    2.8394 168.61 348.6 200.0  0     0.0000    0.0500
ST23         ?    ?    ? S      ? 20001213 1510    2.1200 GAU  2.00e-02 -1.00e+00 -1.00e+00 -1.00e+00    1.0000 >    0.9439   -0.2209    1.2119   38.6464   35.8493    0.0000    2.8394 168.61 348.6 200.0  0     0.0000    0.0500
ST21         ?    ?    ? P      ? 20001213 1510    1.7500 GAU  2.00e-02 -1.00e+00 -1.00e+00 -1.00e+00    1.0000 >    0.6106   -0.2577    1.1256   36.1150   41.1978    0.0000    3.2348 322.46 142.5 200.0  0     0.0000    0.0500
ST21         ?    ?    ? S      ? 20001213 1510    2.2400 GAU  2.00e-02 -1.00e+00 -1.00e+00 -1.00e+00    1.0000 >    1.0752   -0.2322    1.1934   36.1150   41.1978    0.0000    3.2348 322.46 142.5 200.0  0     0.0000    0.0500
ST25         ?    ?    ? P      ? 20001213 1510    2.4500 GAU  2.00e-02 -1.00e+00 -1.00e+00 -1.00e+00    1.0000 >    1.1289   -0.0759    1.6988   35.8320   33.0917    0.0000    5.9820 202.13  22.1 200.0  0     0.0000    0.0500
ST25         ?    ?    ? S      ? 20001213 1510    3.4000 GAU  2.00e-02 -1.00e+00 -1.00e+00 -1.00e+00    1.0000 >    1.9877    0.0152    1.9911   35.8320   33.0917    0.0000    5.9820 202.13  22.1 200.0  0     0.0000    0.0500
ST1          ?    ?    ? P      ? 20001213 1510    2.8600 GAU  2.00e-02 -1.00e+00 -1.00e+00 -1.00e+00    1.0000 >    1.4719   -0.0089    2.0051   36.2928   46.2238    0.0000    7.7999 346.71 166.7 200.0  0     0.0000    0.0500
ST1          ?    ?    ? S      ? 20001213 1510    4.0500 GAU  2.00e-02 -1.00e+00 -1.00e+00 -1.00e+00    1.0000 >    2.5917    0.0613    1.7568   36.2928   46.2238    0.0000    7.7999 346.71 166.7 200.0  0     0.0000    0.0518
ST15         ?    ?    ? P      ? 20001213 1510    4.0500 GAU  2.00e-02 -1.00e+00 -1.00e+00 -1.00e+00    1.0000 >    2.6368    0.0162    1.9769   38.9482   24.6853    0.0000   13.9741 176.46 356.5 200.0  0     0.0000    0.0527
ST15         ?    ?    ? S      ? 20001213 1510    6.0500 GAU  2.00e-02 -1.00e+00 -1.00e+00 -1.00e+00    1.0000 >    4.6428    0.0101    1.7857   38.9482   24.6853    0.0000   13.9741 176.46 356.5 200.0  0     0.0000    0.0929
ST19         ?    ?    ? P      ? 20001213 1510    4.1100 GAU  2.00e-02 -1.00e+00 -1.00e+00 -1.00e+00    1.0000 >    2.7449   -0.0320    1.9315   47.2048   27.2984    0.0000   14.5472 141.18 321.2 200.0  0     0.0000    0.0549
ST19         ?    ?    ? S      ? 20001213 1510    6.1900 GAU  2.00e-02 -1.00e+00 -1.00e+00 -1.00e+00    1.0000 >    4.8332   -0.0403    1.7662   47.2048   27.2984    0.0000   14.5472 141.18 321.2 200.0  0     0.0000    0.0967
ST13         ?    ?    ? P      ? 20001213 1510    4.5300 GAU  2.00e-02 -1.00e+00 -1.00e+00 -1.00e+00    1.0000 >    3.1526   -0.0196    1.9320   52.0625   29.4778    0.0000   16.7080 123.23 303.2 200.0  0     0.0000    0.0631
ST13         ?    ?    ? S      ? 20001213 1510    6.9200 GAU  2.00e-02 -1.00e+00 -1.00e+00 -1.00e+00    1.0000 >    5.5511   -0.0281    1.7218   52.0625   29.4778    0.0000   16.7080 123.23 303.2 200.0  0     0.0000    0.1110
ST7          ?    ?    ? P      ? 20001213 1510    5.1700 GAU  2.00e-02 -1.00e+00 -1.00e+00 -1.00e+00    1.0000 >    3.1546    0.6184    0.1996   22.5319   32.5023    0.0000   16.7185 248.49  68.5 200.0  0     0.0000    0.0631
ST7          ?    ?    ? S      ? 20001213 1510    8.1600 GAU  2.00e-02 -1.00e+00 -1.00e+00 -1.00e+00    1.0000 >    5.5546    1.2084    0.0192   22.5319   32.5023    0.0000   16.7185 248.49  68.5 200.0  0     0.0000    0.1111
ST18         ?    ?    ? P      ? 20001213 1510    4.8900 GAU  2.00e-02 -1.00e+00 -1.00e+00 -1.00e+00    1.0000 >    3.4316    0.0614    1.7190   45.8666   22.1945    0.0000   18.1867 154.67 334.7 200.0  0     0.0000    0.0686
ST18         ?    ?    ? S      ? 20001213 1510    7.4800 GAU  2.00e-02 -1.00e+00 -1.00e+00 -1.00e+00    1.0000 >    6.0423    0.0406    1.6005   45.8666   22.1945    0.0000   18.1867 154.67 334.7 200.0  0     0.0000    0.1208
ST8          ?    ?    ? P      ? 20001213 1510    5.7000 GAU  2.00e-02 -1.00e+00 -1.00e+00 -1.00e+00    1.0000 >    3.4340    0.8689    0.1187   21.2005   45.4232    0.0000   18.1996 291.91 111.9 200.0  0     0.0000    0.0687
ST8          ?    ?    ? S      ? 20001213 1510    8.9800 GAU  2.00e-02 -1.00e+00 -1.00e+00 -1.00e+00    1.0000 >    6.0466    1.5363    0.0097   21.2005   45.4232    0.0000   18.1996 291.91 111.9 200.0  0     0.0000    0.1209
ST20         ?    ?    ? P      ? 20001213 1510    5.5200 GAU  2.00e-02 -1.00e+00 -1.00e+00 -1.00e+00    1.0000 >    3.6184    0.5045    0.2527   26.5943   53.9852    0.0000   19.1769 323.18 143.2 200.0  0     0.0000    0.0724
ST20         ?    ?    ? S      ? 20001213 1510    8.5900 GAU  2.00e-02 -1.00e+00 -1.00e+00 -1.00e+00    1.0000 >    6.3713    0.8217    0.1677   26.5943   53.9852    0.0000   19.1769 323.18 143.2 200.0  0     0.0000    0.1274
ST22         ?    ?    ? P      ? 20001213 1510    5.7200 GAU  2.00e-02 -1.00e+00 -1.00e+00 -1.00e+00    1.0000 >    3.8788    0.4441    0.2603   26.8589   55.8533    0.0000   20.5570 326.90 146.9 200.0  0     0.0000    0.0776
ST22         ?    ?    ? S      ? 20001213 1510    8.9200 GAU  2.00e-02 -1.00e+00 -1.00e+00 -1.00e+00    1.0000 >    6.8298    0.6932    0.2235   26.8589   55.8533    0.0000   20.5570 326.90 146.9 200.0  0     0.0000    0.1366
ST14         ?    ?    ? P      ? 20001213 1510    5.4600 GAU  2.00e-02 -1.00e+00 -1.00e+00 -1.00e+00    1.0000 >    4.1475   -0.0846    1.6832   58.1038   47.7138    0.0000   21.9813  65.60 245.6 200.0  0     0.0000    0.0830
ST14         ?    ?    ? S      ? 20001213 1510    8.5000 GAU  2.00e-02 -1.00e+00 -1.00e+00 -1.00e+00    1.0000 >    7.3029   -0.2000    1.3063   58.1038   47.7138    0.0000   21.9813  65.60 245.6 200.0  0     0.0000    0.1461
ST12         ?    ?    ? P      ? 20001213 1510    5.9000 GAU  2.00e-02 -1.00e+00 -1.00e+00 -1.00e+00    1.0000 >    4.3873    0.1157    1.3542   31.4703   60.9238    0.0000   23.2520 343.47 163.5 200.0  0     0.0000    0.0877
ST12         ?    ?    ? S      ? 20001213 1510    9.1500 GAU  2.00e-02 -1.00e+00 -1.00e+00 -1.00e+00    1.0000 >    7.7251    0.0279    1.5043   31.4703   60.9238    0.0000   23.2520 343.47 163.5 200.0  0     0.0000    0.1545
ST26         ?    ?    ? P      ? 20001213 1510    6.1100 GAU  2.00e-02 -1.00e+00 -1.00e+00 -1.00e+00    1.0000 >    4.5159    0.1971    0.8628   52.5727   19.5815    0.0000   23.9336 142.75 322.8 200.0  0     0.0000    0.0903
ST26         ?    ?    ? S      ? 20001213 1510    9.6000 GAU  2.00e-02 -1.00e+00 -1.00e+00 -1.00e+00    1.0000 >    7.9516    0.2514    0.7933   52.5727   19.5815    0.0000   23.9336 142.75 322.8 200.0  0     0.0000    0.1590
ST24         ?    ?    ? P      ? 20001213 1510    6.1600 GAU  2.00e-02 -1.00e+00 -1.00e+00 -1.00e+00    1.0000 >    4.5587    0.2043    0.8268   55.9556   22.3725    0.0000   24.1604 132.30 312.3 200.0  0     0.0000    0.0912
ST24         ?    ?    ? S      ? 20001213 1510    9.6600 GAU  2.00e-02 -1.00e+00 -1.00e+00 -1.00e+00    1.0000 >    8.0269    0.2360    0.8470   55.9556   22.3725    0.0000   24.1604 132.30 312.3 200.0  0     0.0000    0.1605
ST16         ?    ?    ? P      ? 20001213 1510    6.9500 GAU  2.00e-02 -1.00e+00 -1.00e+00 -1.00e+00    1.0000 >    5.6561   -0.1031    1.6014   39.8239    8.7066    0.0000   29.9767 176.68 356.7 200.0  0     0.0000    0.1131
ST16         ?    ?    ? S      ? 20001213 1510   11.0500 GAU  2.00e-02 -1.00e+00 -1.00e+00 -1.00e+00    1.0000 >    9.9592   -0.3062    0.9980   39.8239    8.7066    0.0000   29.9767 176.68 356.7 200.0  0     0.0000    0.1992
ST6          ?    ?    ? P      ? 20001213 1510    6.7700 GAU  2.00e-02 -1.00e+00 -1.00e+00 -1.00e+00    1.0000 >    5.8309   -0.4580    0.5164   64.5535   54.5857    0.0000   30.9035  58.92 238.9 200.0  0     0.0000    0.1166
ST6          ?    ?    ? S      ? 20001213 1510   10.7100 GAU  2.00e-02 -1.00e+00 -1.00e+00 -1.00e+00    1.0000 >   10.2671   -0.9541    0.1781   64.5535   54.5857    0.0000   30.9035  58.92 238.9 200.0  0     0.0000    0.2053
ST4          ?    ?    ? P      ? 20001213 1510    7.0500 GAU  2.00e-02 -1.00e+00 -1.00e+00 -1.00e+00    1.0000 >    5.8889   -0.2360    1.1961   28.7854    8.8400    0.0000   31.2107 197.34  17.3 200.0  0     0.0000    0.1178
ST4          ?    ?    ? S      ? 20001213 1510   11.4300 GAU  2.00e-02 -1.00e+00 -1.00e+00 -1.00e+00    1.0000 >   10.3692   -0.3362    0.9246   28.7854    8.8400    0.0000   31.2107 197.34  17.3 200.0  0     0.0000    0.2074
ST0          ?    ?    ? P      ? 20001213 1510    7.3900 GAU  2.00e-02 -1.00e+00 -1.00e+00 -1.00e+00    1.0000 >    5.9346    0.0584    1.5579   57.5022   13.8883    0.0000   31.4529 141.88 321.9 200.0  0     0.0000    0.1187
ST0          ?    ?    ? S      ? 20001213 1510   11.7000 GAU  2.00e-02 -1.00e+00 -1.00e+00 -1.00e+00    1.0000 >   10.4496   -0.1467    1.3161   57.5022   13.8883    0.0000   31.4529 141.88 321.9 200.0  0     0.0000    0.2090
ST17         ?    ?    ? P      ? 20001213 1510    7.3900 GAU  2.00e-02 -1.00e+00 -1.00e+00 -1.00e+00    1.0000 >    5.9843    0.0086    1.6667   64.4820   21.0492    0.0000   31.7165 123.67 303.7 200.0  0     0.0000    0.1197
ST17         ?    ?    ? S      ? 20001213 1510   11.6900 GAU  2.00e-02 -1.00e+00 -1.00e+00 -1.00e+00    1.0000 >   10.5372   -0.2442    1.1383   64.4820   21.0492    0.0000   31.7165 123.67 303.7 200.0  0     0.0000    0.2107
ST9          ?    ?    ? P      ? 20001213 1510    7.5000 GAU  2.00e-02 -1.00e+00 -1.00e+00 -1.00e+00    1.0000 >    6.0658    0.0372    1.6072    9.8992   23.1731    0.0000   32.1481 241.26  61.3 200.0  0     0.0000    0.1213
ST9          ?    ?    ? S      ? 20001213 1510   12.1500 GAU  2.00e-02 -1.00e+00 -1.00e+00 -1.00e+00    1.0000 >   10.6806    0.0724    1.2631    9.8992   23.1731    0.0000   32.1481 241.26  61.3 200.0  0     0.0000    0.2136
ST3          ?    ?    ? P      ? 20001213 1510    7.4100 GAU  2.00e-02 -1.00e+00 -1.00e+00 -1.00e+00    1.0000 >    6.3135   -0.3006    0.9864   17.1949   64.7711    0.0000   33.4611 321.37 141.4 200.0  0     0.0000    0.1263
ST3          ?    ?    ? S      ? 20001213 1510   11.8600 GAU  2.00e-02 -1.00e+00 -1.00e+00 -1.00e+00    1.0000 >   11.1168   -0.6538    0.3497   17.1949   64.7711    0.0000   33.4611 321.37 141.4 200.0  0     0.0000    0.2223
ST10         ?    ?    ? P      ? 20001213 1510    7.5800 GAU  2.00e-02 -1.00e+00 -1.00e+00 -1.00e+00    1.0000 >    6.6502   -0.4673    0.5217   21.1066   69.5192    0.0000   35.2458 331.20 151.2 200.0  0     0.0000    0.1330
ST10         ?    ?    ? S      ? 20001213 1510   12.1600 GAU  2.00e-02 -1.00e+00 -1.00e+00 -1.00e+00    1.0000 >   11.7097   -0.9468    0.1900   21.1066   69.5192    0.0000   35.2458 331.20 151.2 200.0  0     0.0000    0.2342
ST5          ?    ?    ? P      ? 20001213 1510    7.6200 GAU  2.00e-02 -1.00e+00 -1.00e+00 -1.00e+00    1.0000 >    6.6796   -0.4567    0.5466   45.9261   73.1552    0.0000   35.4015  12.80 192.8 200.0  0     0.0000    0.1336
ST5          ?    ?    ? S      ? 20001213 1510   12.0000 GAU  2.00e-02 -1.00e+00 -1.00e+00 -1.00e+00    1.0000 >   11.7614   -1.1585    0.1454   45.9261   73.1552    0.0000   35.4015  12.80 192.8 200.0  0     0.0000    0.2352
ST11         ?    ?    ? P      ? 20001213 1510    9.5000 GAU  2.00e-02 -1.00e+00 -1.00e+00 -1.00e+00    1.0000 >    9.0859   -0.9830    0.1672   13.0335   79.7825    0.0000   48.1759 328.67 148.7 200.0  0     0.0000    0.1817
ST11         ?    ?    ? S      ? 20001213 1510   15.6900 GAU  2.00e-02 -1.00e+00 -1.00e+00 -1.00e+00    1.0000 >   15.9988   -1.7058    0.0462   13.0335   79.7825    0.0000   48.1759 328.67 148.7 200.0  0     0.0000    0.3200
ST2          ?    ?    ? P      ? 20001213 1510   10.9300 GAU  2.00e-02 -1.00e+00 -1.00e+00 -1.00e+00    1.0000 >   10.9031   -1.3702    0.0958   36.5585   96.8954    0.0000   58.2826 358.50 178.5 200.0  0     0.0000    0.2181
ST2          ?    ?    ? S      ? 20001213 1510   17.6400 GAU  2.00e-02 -1.00e+00 -1.00e+00 -1.00e+00    1.0000 >   19.1995   -2.9565    0.0010   36.5585   96.8954    0.0000   58.2826 358.50 178.5 200.0  0     0.0000    0.3840
END_PHASE
END_NLLOC

