NLLOC "./loc/alaska.20001213.151002_028.grid0" "LOCATED" "Location completed."
PUBLIC_ID None
SIGNATURE "NonLinLoc - Yifan Yu   obs:./obs/phase.obs   NLLoc:v7.00.16(17Apr2023)   run:24Aug2023 11h39m58"
COMMENT "2023-8-21 test"
GRID  201 201 41  0 0 0  0.5 0.5 0.5 PROB_DENSITY
SEARCH OCTREE nInitial 400 nEvaluated 20016 smallestNodeSide 0.039062/0.039062/0.019531 oct_tree_integral 3.293124e-01 scatter_volume 3.253724e-01
HYPOCENTER  x 39.8633 y 35.4883 z 6.2793  OT 1.07277  ix -1 iy -1 iz -1 MAXIMUM_LIKELIHOOD
GEOGRAPHIC  OT 2000 12 13  15 10 1.072769  Lat 35.719153 Long -117.558439 Depth 6.279297
QUALITY  Pmax 1.21996e+110 MFmin 60.263 MFmax 60.3374 RMS 0.182973 Nphs 35 Gap 60.0608 Dist 1.26927 Mamp -9.90 0 Mdur -9.90 0
VPVSRATIO  VpVsRatio 1.72422  Npair 9  Diff 5.34
STATISTICS  ExpectX 39.818571 Y 35.474153 Z 6.461803  CovXX 0.112602 XY 0.0232942 XZ -0.119864 YY 0.0513231 YZ -0.051941 ZZ 0.451504 EllAz1  346.888 Dip1  3.27653 Len1  0.388895 Az2  258.006 Dip2  -18.8188 Len2  0.517242 Len3  1.324268e+00
STAT_GEOG  ExpectLat 35.719026 Long -117.558935 Depth 6.461803
TRANSFORM  SIMPLE LatOrig 35.400000  LongOrig -118.000000  RotCW 0.000000
QML_OriginQuality  assocPhCt 35  usedPhCt 35  assocStaCt -1  usedStaCt 26  depthPhCt -1  stdErr 0.182973  azGap 60.0608  secAzGap 64.2236  gtLevel -  minDist 1.26927 maxDist 61.496 medDist 23.4635
QML_OriginUncertainty  horUnc -1  minHorUnc 0.316211  maxHorUnc 0.526344  azMaxHorUnc 71.3777
QML_ConfidenceEllipsoid  semiMajorAxisLength 1.32427  semiMinorAxisLength 0.388895  semiIntermediateAxisLength 0.517242  majorAxisPlunge -70.8768  majorAxisAzimuth 67.3846  majorAxisRotation 192.714
FOCALMECH  Hyp  35.719153 -117.558439 6.279297 Mech  0 0 0 mf  0 nObs -1
PHASE ID Ins Cmp On Pha  FM Date     HrMn   Sec     Err  ErrMag    Coda      Amp       Per       PriorWt  >   TTpred    Res       Weight    StaLoc(X  Y         Z)        SDist    SAzim  RAz  RDip RQual    Tcorr       TTerr
ST23         ?    ?    ? S      ? 20001213 1510    3.2300 GAU  2.00e-02 -1.00e+00 -1.00e+00 -1.00e+00    1.0000 >    2.1347    0.0225    1.4397   38.6464   35.8493    0.0000    1.2693 286.52 286.5 164.2  9     0.0000    0.0500
ST25         ?    ?    ? P      ? 20001213 1510    2.6500 GAU  2.00e-02 -1.00e+00 -1.00e+00 -1.00e+00    1.0000 >    1.4530    0.1243    1.0793   35.8320   33.0917    0.0000    4.6899 239.27 239.3 142.7  9     0.0000    0.0500
ST25         ?    ?    ? S      ? 20001213 1510    3.4500 GAU  2.00e-02 -1.00e+00 -1.00e+00 -1.00e+00    1.0000 >    2.5972   -0.2200    1.1522   35.8320   33.0917    0.0000    4.6899 239.27 239.3 135.4  9     0.0000    0.0519
ST21         ?    ?    ? P      ? 20001213 1510    2.8900 GAU  2.00e-02 -1.00e+00 -1.00e+00 -1.00e+00    1.0000 >    1.7177    0.0995    1.2143   36.1150   41.1978    0.0000    6.8299 326.71 326.7 129.8  9     0.0000    0.0500
ST15         ?    ?    ? P      ? 20001213 1510    3.1900 GAU  2.00e-02 -1.00e+00 -1.00e+00 -1.00e+00    1.0000 >    2.3245   -0.2073    1.2225   38.9482   24.6853    0.0000   10.8417 184.84 184.8 116.0  9     0.0000    0.0500
ST15         ?    ?    ? S      ? 20001213 1510    5.0700 GAU  2.00e-02 -1.00e+00 -1.00e+00 -1.00e+00    1.0000 >    4.0750   -0.0777    1.4710   38.9482   24.6853    0.0000   10.8417 184.84 184.8  96.5  9     0.0000    0.0815
ST19         ?    ?    ? S      ? 20001213 1510    5.2900 GAU  2.00e-02 -1.00e+00 -1.00e+00 -1.00e+00    1.0000 >    4.1153    0.1019    1.1807   47.2048   27.2984    0.0000   10.9987 138.13 138.1  95.8  9     0.0000    0.0823
ST1          ?    ?    ? S      ? 20001213 1510    5.0600 GAU  2.00e-02 -1.00e+00 -1.00e+00 -1.00e+00    1.0000 >    4.1963   -0.2091    1.1688   36.2928   46.2238    0.0000   11.3137 341.60 341.6  94.3  9     0.0000    0.0839
ST13         ?    ?    ? P      ? 20001213 1510    3.7100 GAU  2.00e-02 -1.00e+00 -1.00e+00 -1.00e+00    1.0000 >    2.7794   -0.1422    1.4091   52.0625   29.4778    0.0000   13.5995 116.23 116.2 110.3  9     0.0000    0.0556
ST18         ?    ?    ? P      ? 20001213 1510    3.8100 GAU  2.00e-02 -1.00e+00 -1.00e+00 -1.00e+00    1.0000 >    2.9462   -0.2090    1.2044   45.8666   22.1945    0.0000   14.5864 155.70 155.7 108.6  9     0.0000    0.0589
ST7          ?    ?    ? P      ? 20001213 1510    4.5300 GAU  2.00e-02 -1.00e+00 -1.00e+00 -1.00e+00    1.0000 >    3.4614   -0.0041    1.4657   22.5319   32.5023    0.0000   17.5867 260.22 260.2 104.8  9     0.0000    0.0692
ST26         ?    ?    ? P      ? 20001213 1510    5.0100 GAU  2.00e-02 -1.00e+00 -1.00e+00 -1.00e+00    1.0000 >    3.9444   -0.0072    1.4636   52.5727   19.5815    0.0000   20.3606 141.38 141.4 102.2  9     0.0000    0.0789
ST26         ?    ?    ? S      ? 20001213 1510    7.6500 GAU  2.00e-02 -1.00e+00 -1.00e+00 -1.00e+00    1.0000 >    6.5023    0.0749    1.1988   52.5727   19.5815    0.0000   20.3606 141.38 141.4  71.0  8     0.0000    0.1300
ST8          ?    ?    ? P      ? 20001213 1510    5.3500 GAU  2.00e-02 -1.00e+00 -1.00e+00 -1.00e+00    1.0000 >    4.0813    0.1959    0.6944   21.2005   45.4232    0.0000   21.1424 298.03 298.0 101.7  9     0.0000    0.0816
ST14         ?    ?    ? P      ? 20001213 1510    5.2500 GAU  2.00e-02 -1.00e+00 -1.00e+00 -1.00e+00    1.0000 >    4.2245   -0.0473    1.4773   58.1038   47.7138    0.0000   21.9586  56.17  56.2 101.1  9     0.0000    0.0845
ST14         ?    ?    ? S      ? 20001213 1510    7.9500 GAU  2.00e-02 -1.00e+00 -1.00e+00 -1.00e+00    1.0000 >    6.8986   -0.0214    1.3587   58.1038   47.7138    0.0000   21.9586  56.17  56.2  69.2  9     0.0000    0.1380
ST20         ?    ?    ? S      ? 20001213 1510    8.3100 GAU  2.00e-02 -1.00e+00 -1.00e+00 -1.00e+00    1.0000 >    7.0975    0.1397    0.9668   26.5943   53.9852    0.0000   22.7640 324.35 324.3  68.8  9     0.0000    0.1420
ST22         ?    ?    ? P      ? 20001213 1510    5.5400 GAU  2.00e-02 -1.00e+00 -1.00e+00 -1.00e+00    1.0000 >    4.6123   -0.1451    1.3668   26.8589   55.8533    0.0000   24.1629 327.44 327.4  99.9  9     0.0000    0.0922
ST16         ?    ?    ? P      ? 20001213 1510    5.6400 GAU  2.00e-02 -1.00e+00 -1.00e+00 -1.00e+00    1.0000 >    5.0745   -0.5073    0.2510   39.8239    8.7066    0.0000   26.7817 180.08 180.1  98.7  9     0.0000    0.1015
ST16         ?    ?    ? S      ? 20001213 1510    9.0400 GAU  2.00e-02 -1.00e+00 -1.00e+00 -1.00e+00    1.0000 >    8.0870   -0.1198    1.2538   39.8239    8.7066    0.0000   26.7817 180.08 180.1  68.2  8     0.0000    0.1617
ST12         ?    ?    ? S      ? 20001213 1510    9.0900 GAU  2.00e-02 -1.00e+00 -1.00e+00 -1.00e+00    1.0000 >    8.0877   -0.0705    1.2958   31.4703   60.9238    0.0000   26.7844 341.74 341.7  68.2  8     0.0000    0.1618
ST0          ?    ?    ? P      ? 20001213 1510    6.3400 GAU  2.00e-02 -1.00e+00 -1.00e+00 -1.00e+00    1.0000 >    5.2700   -0.0028    1.4209   57.5022   13.8883    0.0000   27.8871 140.76 140.8  98.3  9     0.0000    0.1054
ST17         ?    ?    ? P      ? 20001213 1510    6.3500 GAU  2.00e-02 -1.00e+00 -1.00e+00 -1.00e+00    1.0000 >    5.3857   -0.1084    1.4062   64.4820   21.0492    0.0000   28.5406 120.39 120.4  98.1  9     0.0000    0.1077
ST4          ?    ?    ? P      ? 20001213 1510    5.8200 GAU  2.00e-02 -1.00e+00 -1.00e+00 -1.00e+00    1.0000 >    5.4420   -0.6948    0.2545   28.7854    8.8400    0.0000   28.8591 202.57 202.6  98.0  9     0.0000    0.1088
ST6          ?    ?    ? S      ? 20001213 1510   10.1500 GAU  2.00e-02 -1.00e+00 -1.00e+00 -1.00e+00    1.0000 >    9.1777   -0.1005    1.2141   64.5535   54.5857    0.0000   31.2140  52.28  52.3  68.2  8     0.0000    0.1836
ST9          ?    ?    ? P      ? 20001213 1510    6.4600 GAU  2.00e-02 -1.00e+00 -1.00e+00 -1.00e+00    1.0000 >    6.0690   -0.6818    0.2595    9.8992   23.1731    0.0000   32.3962 247.66 247.7  96.9  9     0.0000    0.1214
ST9          ?    ?    ? S      ? 20001213 1510   10.6300 GAU  2.00e-02 -1.00e+00 -1.00e+00 -1.00e+00    1.0000 >    9.4686    0.0886    1.0471    9.8992   23.1731    0.0000   32.3962 247.66 247.7  68.2  8     0.0000    0.1894
ST3          ?    ?    ? P      ? 20001213 1510    7.0900 GAU  2.00e-02 -1.00e+00 -1.00e+00 -1.00e+00    1.0000 >    6.8923   -0.8750    0.1967   17.1949   64.7711    0.0000   37.0316 322.26 322.3  95.4  9     0.0000    0.1378
ST3          ?    ?    ? S      ? 20001213 1510   11.4200 GAU  2.00e-02 -1.00e+00 -1.00e+00 -1.00e+00    1.0000 >   10.6092   -0.2620    0.9047   17.1949   64.7711    0.0000   37.0316 322.26 322.3  68.2  8     0.0000    0.2122
ST5          ?    ?    ? S      ? 20001213 1510   11.8600 GAU  2.00e-02 -1.00e+00 -1.00e+00 -1.00e+00    1.0000 >   10.8848   -0.0976    1.1237   45.9261   73.1552    0.0000   38.1518   9.14   9.1  68.2  8     0.0000    0.2177
ST10         ?    ?    ? P      ? 20001213 1510    7.4400 GAU  2.00e-02 -1.00e+00 -1.00e+00 -1.00e+00    1.0000 >    7.2169   -0.8497    0.2108   21.1066   69.5192    0.0000   38.8576 331.14 331.1  91.4  9     0.0000    0.1443
ST10         ?    ?    ? S      ? 20001213 1510   11.6500 GAU  2.00e-02 -1.00e+00 -1.00e+00 -1.00e+00    1.0000 >   11.0585   -0.4813    0.4972   21.1066   69.5192    0.0000   38.8576 331.14 331.1  68.2  8     0.0000    0.2212
ST11         ?    ?    ? P      ? 20001213 1510    9.1400 GAU  2.00e-02 -1.00e+00 -1.00e+00 -1.00e+00    1.0000 >    9.3489   -1.2816    0.0639   13.0335   79.7825    0.0000   51.7862 328.80 328.8  64.6 10     0.0000    0.1870
ST11         ?    ?    ? S      ? 20001213 1510   15.2800 GAU  2.00e-02 -1.00e+00 -1.00e+00 -1.00e+00    1.0000 >   14.2398   -0.0325    0.9658   13.0335   79.7825    0.0000   51.7862 328.80 328.8  68.2  8     0.0000    0.2848
ST2          ?    ?    ? P      ? 20001213 1510   10.8000 GAU  2.00e-02 -1.00e+00 -1.00e+00 -1.00e+00    1.0000 >   10.9089   -1.1817    0.1004   36.5585   96.8954    0.0000   61.4960 356.92 356.9  60.5  9     0.0000    0.2182
END_PHASE
END_NLLOC

