NLLOC "./loc/alaska.20001213.151002_005.grid0" "LOCATED" "Location completed."
PUBLIC_ID None
SIGNATURE "NonLinLoc - Yifan Yu   obs:./obs/phase.obs   NLLoc:v7.00.16(17Apr2023)   run:24Aug2023 11h42m44"
COMMENT "2023-8-21 test"
GRID  201 201 41  0 0 0  0.5 0.5 0.5 PROB_DENSITY
SEARCH OCTREE nInitial 400 nEvaluated 20008 smallestNodeSide 0.039062/0.039062/0.019531 oct_tree_integral 2.161789e-01 scatter_volume 2.127676e-01
HYPOCENTER  x 47.5195 y 30.6836 z 3.83789  OT 1.11  ix -1 iy -1 iz -1 MAXIMUM_LIKELIHOOD
GEOGRAPHIC  OT 2000 12 13  15 10 1.110004  Lat 35.675944 Long -117.473916 Depth 3.837891
QUALITY  Pmax 5.17997e+101 MFmin 56.8846 MFmax 57.9433 RMS 0.168665 Nphs 33 Gap 69.3888 Dist 3.3998 Mamp -9.90 0 Mdur -9.90 0
VPVSRATIO  VpVsRatio 1.77162  Npair 7  Diff 6.57
STATISTICS  ExpectX 47.498418 Y 30.647169 Z 3.882271  CovXX 0.077739 XY 0.0600521 XZ -0.00669587 YY 0.094846 YZ -0.0320859 ZZ 0.124307 EllAz1  313.175 Dip1  9.55954 Len1  0.284583 Az2  236.291 Dip2  -53.4189 Len2  0.614459 Len3  7.677765e-01
STAT_GEOG  ExpectLat 35.675616 Long -117.474152 Depth 3.882271
TRANSFORM  SIMPLE LatOrig 35.400000  LongOrig -118.000000  RotCW 0.000000
QML_OriginQuality  assocPhCt 33  usedPhCt 33  assocStaCt -1  usedStaCt 26  depthPhCt -1  stdErr 0.168665  azGap 69.3888  secAzGap 84.12  gtLevel -  minDist 3.3998 maxDist 67.1129 medDist 24.1696
QML_OriginUncertainty  horUnc -1  minHorUnc 0.242814  maxHorUnc 0.581366  azMaxHorUnc 40.9468
QML_ConfidenceEllipsoid  semiMajorAxisLength 0.767776  semiMinorAxisLength 0.284583  semiIntermediateAxisLength 0.614459  majorAxisPlunge -34.9145  majorAxisAzimuth 36.4239  majorAxisRotation 149.046
FOCALMECH  Hyp  35.675944 -117.473916 3.837891 Mech  0 0 0 mf  0 nObs -1
PHASE ID Ins Cmp On Pha  FM Date     HrMn   Sec     Err  ErrMag    Coda      Amp       Per       PriorWt  >   TTpred    Res       Weight    StaLoc(X  Y         Z)        SDist    SAzim  RAz  RDip RQual    Tcorr       TTerr
ST19         ?    ?    ? P      ? 20001213 1510    2.0800 GAU  2.00e-02 -1.00e+00 -1.00e+00 -1.00e+00    1.0000 >    0.9685    0.0015    1.7551   47.2048   27.2984    0.0000    3.3998 185.31 185.3 137.8  9     0.0000    0.0500
ST19         ?    ?    ? S      ? 20001213 1510    2.8000 GAU  2.00e-02 -1.00e+00 -1.00e+00 -1.00e+00    1.0000 >    1.8120   -0.1220    1.3305   47.2048   27.2984    0.0000    3.3998 185.31 185.3 133.9  9     0.0000    0.0500
ST13         ?    ?    ? P      ? 20001213 1510    2.2500 GAU  2.00e-02 -1.00e+00 -1.00e+00 -1.00e+00    1.0000 >    1.1463   -0.0064    1.7654   52.0625   29.4778    0.0000    4.7002 104.86 104.9 127.7  9     0.0000    0.0500
ST18         ?    ?    ? P      ? 20001213 1510    2.9100 GAU  2.00e-02 -1.00e+00 -1.00e+00 -1.00e+00    1.0000 >    1.7927    0.0073    1.7428   45.8666   22.1945    0.0000    8.6485 191.02 191.0 111.4  9     0.0000    0.0500
ST18         ?    ?    ? S      ? 20001213 1510    3.9700 GAU  2.00e-02 -1.00e+00 -1.00e+00 -1.00e+00    1.0000 >    3.3283   -0.4683    0.5578   45.8666   22.1945    0.0000    8.6485 191.02 191.0  97.3  9     0.0000    0.0666
ST23         ?    ?    ? P      ? 20001213 1510    3.1700 GAU  2.00e-02 -1.00e+00 -1.00e+00 -1.00e+00    1.0000 >    2.0771   -0.0171    1.7682   38.6464   35.8493    0.0000   10.2672 300.21 300.2 107.8  9     0.0000    0.0500
ST23         ?    ?    ? S      ? 20001213 1510    4.8500 GAU  2.00e-02 -1.00e+00 -1.00e+00 -1.00e+00    1.0000 >    3.8235   -0.0835    1.5312   38.6464   35.8493    0.0000   10.2672 300.21 300.2  89.4  9     0.0000    0.0765
ST24         ?    ?    ? P      ? 20001213 1510    3.5200 GAU  2.00e-02 -1.00e+00 -1.00e+00 -1.00e+00    1.0000 >    2.3586    0.0514    1.5273   55.9556   22.3725    0.0000   11.8424 134.57 134.6 104.9  9     0.0000    0.0500
ST25         ?    ?    ? P      ? 20001213 1510    3.5300 GAU  2.00e-02 -1.00e+00 -1.00e+00 -1.00e+00    1.0000 >    2.3749    0.0451    1.5695   35.8320   33.0917    0.0000   11.9330 281.64 281.6 104.8  9     0.0000    0.0500
ST26         ?    ?    ? P      ? 20001213 1510    3.4100 GAU  2.00e-02 -1.00e+00 -1.00e+00 -1.00e+00    1.0000 >    2.4225   -0.1225    1.3275   52.5727   19.5815    0.0000   12.1980 155.53 155.5 104.3  9     0.0000    0.0500
ST21         ?    ?    ? S      ? 20001213 1510    6.4600 GAU  2.00e-02 -1.00e+00 -1.00e+00 -1.00e+00    1.0000 >    5.4023   -0.0523    1.5010   36.1150   41.1978    0.0000   15.5117 312.67 312.7  76.3  8     0.0000    0.1080
ST1          ?    ?    ? P      ? 20001213 1510    4.9300 GAU  2.00e-02 -1.00e+00 -1.00e+00 -1.00e+00    1.0000 >    3.6800    0.1400    0.9226   36.2928   46.2238    0.0000   19.1713 324.15 324.2  89.8  9     0.0000    0.0736
ST17         ?    ?    ? S      ? 20001213 1510    7.7600 GAU  2.00e-02 -1.00e+00 -1.00e+00 -1.00e+00    1.0000 >    6.5927    0.0572    1.2919   64.4820   21.0492    0.0000   19.5076 119.60 119.6  68.1  9     0.0000    0.1319
ST0          ?    ?    ? P      ? 20001213 1510    5.0700 GAU  2.00e-02 -1.00e+00 -1.00e+00 -1.00e+00    1.0000 >    3.7464    0.2136    0.5247   57.5022   13.8883    0.0000   19.5381 149.27 149.3  88.9  9     0.0000    0.0749
ST0          ?    ?    ? S      ? 20001213 1510    7.6100 GAU  2.00e-02 -1.00e+00 -1.00e+00 -1.00e+00    1.0000 >    6.6016   -0.1016    1.3107   57.5022   13.8883    0.0000   19.5381 149.27 149.3  68.0  9     0.0000    0.1320
ST14         ?    ?    ? P      ? 20001213 1510    4.8200 GAU  2.00e-02 -1.00e+00 -1.00e+00 -1.00e+00    1.0000 >    3.8392   -0.1292    1.2972   58.1038   47.7138    0.0000   20.0513  31.86  31.9  87.6  9     0.0000    0.0768
ST16         ?    ?    ? P      ? 20001213 1510    5.4100 GAU  2.00e-02 -1.00e+00 -1.00e+00 -1.00e+00    1.0000 >    4.4207   -0.1207    1.3347   39.8239    8.7066    0.0000   23.2854 199.30 199.3  82.0  8     0.0000    0.0884
ST7          ?    ?    ? P      ? 20001213 1510    5.9400 GAU  2.00e-02 -1.00e+00 -1.00e+00 -1.00e+00    1.0000 >    4.7368    0.0932    1.2294   22.5319   32.5023    0.0000   25.0537 274.16 274.2  80.2  8     0.0000    0.0947
ST7          ?    ?    ? S      ? 20001213 1510    9.3300 GAU  2.00e-02 -1.00e+00 -1.00e+00 -1.00e+00    1.0000 >    8.0515    0.1685    0.8718   22.5319   32.5023    0.0000   25.0537 274.16 274.2  52.3  9     0.0000    0.1610
ST4          ?    ?    ? P      ? 20001213 1510    6.0000 GAU  2.00e-02 -1.00e+00 -1.00e+00 -1.00e+00    1.0000 >    5.4018   -0.5118    0.5279   28.7854    8.8400    0.0000   28.7769 220.62 220.6  78.3  8     0.0000    0.1080
ST4          ?    ?    ? S      ? 20001213 1510    9.5800 GAU  2.00e-02 -1.00e+00 -1.00e+00 -1.00e+00    1.0000 >    8.9720   -0.5020    0.5232   28.7854    8.8400    0.0000   28.7769 220.62 220.6  51.4  9     0.0000    0.1794
ST6          ?    ?    ? P      ? 20001213 1510    6.0800 GAU  2.00e-02 -1.00e+00 -1.00e+00 -1.00e+00    1.0000 >    5.5043   -0.5343    0.5076   64.5535   54.5857    0.0000   29.3507  35.48  35.5  78.2  8     0.0000    0.1101
ST8          ?    ?    ? S      ? 20001213 1510   11.1600 GAU  2.00e-02 -1.00e+00 -1.00e+00 -1.00e+00    1.0000 >    9.3139    0.7361    0.0294   21.2005   45.4232    0.0000   30.1653 299.25 299.3  51.3  9     0.0000    0.1863
ST20         ?    ?    ? P      ? 20001213 1510    6.8500 GAU  2.00e-02 -1.00e+00 -1.00e+00 -1.00e+00    1.0000 >    5.8556   -0.1156    1.3061   26.5943   53.9852    0.0000   31.3182 318.08 318.1  78.1  8     0.0000    0.1171
ST22         ?    ?    ? S      ? 20001213 1510   11.0700 GAU  2.00e-02 -1.00e+00 -1.00e+00 -1.00e+00    1.0000 >    9.9041    0.0559    1.0985   26.8589   55.8533    0.0000   32.5634 320.62 320.6  51.3  9     0.0000    0.1981
ST12         ?    ?    ? P      ? 20001213 1510    7.0400 GAU  2.00e-02 -1.00e+00 -1.00e+00 -1.00e+00    1.0000 >    6.3765   -0.4465    0.5534   31.4703   60.9238    0.0000   34.2352 332.04 332.0  78.0  8     0.0000    0.1275
ST9          ?    ?    ? P      ? 20001213 1510    7.6500 GAU  2.00e-02 -1.00e+00 -1.00e+00 -1.00e+00    1.0000 >    7.1136   -0.5736    0.4484    9.8992   23.1731    0.0000   38.3627 258.71 258.7  78.0  8     0.0000    0.1423
ST5          ?    ?    ? S      ? 20001213 1510   12.9800 GAU  2.00e-02 -1.00e+00 -1.00e+00 -1.00e+00    1.0000 >   12.3495   -0.4795    0.5846   45.9261   73.1552    0.0000   42.5015 357.85 357.9  51.3  9     0.0000    0.2470
ST3          ?    ?    ? S      ? 20001213 1510   13.8300 GAU  2.00e-02 -1.00e+00 -1.00e+00 -1.00e+00    1.0000 >   13.1178   -0.3978    0.7002   17.1949   64.7711    0.0000   45.6239 318.34 318.3  51.3  9     0.0000    0.2624
ST10         ?    ?    ? S      ? 20001213 1510   14.2900 GAU  2.00e-02 -1.00e+00 -1.00e+00 -1.00e+00    1.0000 >   13.4481   -0.2681    0.8665   21.1066   69.5192    0.0000   46.9664 325.78 325.8  51.3  9     0.0000    0.2690
ST11         ?    ?    ? P      ? 20001213 1510   10.7700 GAU  2.00e-02 -1.00e+00 -1.00e+00 -1.00e+00    1.0000 >   10.8642   -1.2042    0.0555   13.0335   79.7825    0.0000   59.9999 324.92 324.9  60.7  9     0.0000    0.2173
ST11         ?    ?    ? S      ? 20001213 1510   18.0600 GAU  2.00e-02 -1.00e+00 -1.00e+00 -1.00e+00    1.0000 >   16.6552    0.2948    0.5778   13.0335   79.7825    0.0000   59.9999 324.92 324.9  51.3  9     0.0000    0.3331
ST2          ?    ?    ? P      ? 20001213 1510   11.9000 GAU  2.00e-02 -1.00e+00 -1.00e+00 -1.00e+00    1.0000 >   11.9899   -1.1999    0.0616   36.5585   96.8954    0.0000   67.1129 350.60 350.6  53.3  9     0.0000    0.2398
END_PHASE
END_NLLOC

