NLLOC "./loc/alaska.20001213.151001_001.grid0" "LOCATED" "Location completed."
PUBLIC_ID None
SIGNATURE "NonLinLoc - Yifan Yu   obs:./obs/phase.obs   NLLoc:v7.00.16(17Apr2023)   run:24Aug2023 11h42m31"
COMMENT "2023-8-21 test"
GRID  201 201 41  0 0 0  0.5 0.5 0.5 PROB_DENSITY
SEARCH OCTREE nInitial 400 nEvaluated 20000 smallestNodeSide 0.039062/0.039062/0.019531 oct_tree_integral 9.008887e-01 scatter_volume 9.008887e-01
HYPOCENTER  x 38.5742 y 23.8086 z 2.88086  OT 1.26172  ix -1 iy -1 iz -1 MAXIMUM_LIKELIHOOD
GEOGRAPHIC  OT 2000 12 13  15 10 1.261722  Lat 35.614116 Long -117.573279 Depth 2.880859
QUALITY  Pmax 1.45534e+101 MFmin 57.414 MFmax 58.8103 RMS 0.234458 Nphs 34 Gap 57.61 Dist 0.953134 Mamp -9.90 0 Mdur -9.90 0
VPVSRATIO  VpVsRatio 1.69461  Npair 12  Diff 7.34
STATISTICS  ExpectX 38.059616 Y 22.945990 Z 3.754327  CovXX 0.206857 XY 0.180756 XZ -0.0931163 YY 0.42789 YZ -0.287234 ZZ 0.512951 EllAz1  309.4 Dip1  14.6183 Len1  0.563051 Az2  232.978 Dip2  -41.9895 Len2  0.916981 Len3  1.701028e+00
STAT_GEOG  ExpectLat 35.606358 Long -117.579013 Depth 3.754327
TRANSFORM  SIMPLE LatOrig 35.400000  LongOrig -118.000000  RotCW 0.000000
QML_OriginQuality  assocPhCt 34  usedPhCt 34  assocStaCt -1  usedStaCt 22  depthPhCt -1  stdErr 0.234458  azGap 57.61  secAzGap 93.4609  gtLevel -  minDist 0.953134 maxDist 73.1146 medDist 23.7122
QML_OriginUncertainty  horUnc -1  minHorUnc 0.492615  maxHorUnc 1.10329  azMaxHorUnc 29.2789
QML_ConfidenceEllipsoid  semiMajorAxisLength 1.70103  semiMinorAxisLength 0.563051  semiIntermediateAxisLength 0.916981  majorAxisPlunge -44.3554  majorAxisAzimuth 24.6258  majorAxisRotation 93.413
FOCALMECH  Hyp  35.614116 -117.573279 2.880859 Mech  0 0 0 mf  0 nObs -1
PHASE ID Ins Cmp On Pha  FM Date     HrMn   Sec     Err  ErrMag    Coda      Amp       Per       PriorWt  >   TTpred    Res       Weight    StaLoc(X  Y         Z)        SDist    SAzim  RAz  RDip RQual    Tcorr       TTerr
ST15         ?    ?    ? P      ? 20001213 1510    1.8600 GAU  2.00e-02 -1.00e+00 -1.00e+00 -1.00e+00    1.0000 >    0.5733    0.0250    1.9765   38.9482   24.6853    0.0000    0.9531  23.10  23.1 161.8  9     0.0000    0.0500
ST15         ?    ?    ? S      ? 20001213 1510    2.8300 GAU  2.00e-02 -1.00e+00 -1.00e+00 -1.00e+00    1.0000 >    1.1082    0.4601    0.1137   38.9482   24.6853    0.0000    0.9531  23.10  23.1 160.1  8     0.0000    0.0500
ST18         ?    ?    ? P      ? 20001213 1510    2.7500 GAU  2.00e-02 -1.00e+00 -1.00e+00 -1.00e+00    1.0000 >    1.5166   -0.0284    1.8982   45.8666   22.1945    0.0000    7.4689 102.48 102.5 110.9  9     0.0000    0.0500
ST18         ?    ?    ? S      ? 20001213 1510    4.0900 GAU  2.00e-02 -1.00e+00 -1.00e+00 -1.00e+00    1.0000 >    2.9035   -0.0753    1.5610   45.8666   22.1945    0.0000    7.4689 102.48 102.5 100.8  9     0.0000    0.0581
ST19         ?    ?    ? P      ? 20001213 1510    3.0700 GAU  2.00e-02 -1.00e+00 -1.00e+00 -1.00e+00    1.0000 >    1.8465   -0.0382    1.8455   47.2048   27.2984    0.0000    9.3094  67.98  68.0 107.4  9     0.0000    0.0500
ST19         ?    ?    ? S      ? 20001213 1510    4.8200 GAU  2.00e-02 -1.00e+00 -1.00e+00 -1.00e+00    1.0000 >    3.5082    0.0501    1.8489   47.2048   27.2984    0.0000    9.3094  67.98  68.0  94.1  9     0.0000    0.0702
ST25         ?    ?    ? P      ? 20001213 1510    3.2300 GAU  2.00e-02 -1.00e+00 -1.00e+00 -1.00e+00    1.0000 >    1.9135    0.0547    1.8771   35.8320   33.0917    0.0000    9.6796 343.54 343.5 106.8  9     0.0000    0.0500
ST25         ?    ?    ? S      ? 20001213 1510    4.8300 GAU  2.00e-02 -1.00e+00 -1.00e+00 -1.00e+00    1.0000 >    3.6298   -0.0616    1.6435   35.8320   33.0917    0.0000    9.6796 343.54 343.5  92.8  9     0.0000    0.0726
ST26         ?    ?    ? S      ? 20001213 1510    6.5500 GAU  2.00e-02 -1.00e+00 -1.00e+00 -1.00e+00    1.0000 >    5.2396    0.0487    1.6906   52.5727   19.5815    0.0000   14.6228 106.80 106.8  71.7  9     0.0000    0.1048
ST13         ?    ?    ? P      ? 20001213 1510    4.1900 GAU  2.00e-02 -1.00e+00 -1.00e+00 -1.00e+00    1.0000 >    2.8228    0.1055    1.5494   52.0625   29.4778    0.0000   14.6312  67.20  67.2 101.8  9     0.0000    0.0565
ST16         ?    ?    ? P      ? 20001213 1510    3.7500 GAU  2.00e-02 -1.00e+00 -1.00e+00 -1.00e+00    1.0000 >    2.9195   -0.4313    0.5865   39.8239    8.7066    0.0000   15.1536 175.27 175.3 101.4  9     0.0000    0.0584
ST16         ?    ?    ? S      ? 20001213 1510    5.5400 GAU  2.00e-02 -1.00e+00 -1.00e+00 -1.00e+00    1.0000 >    5.4061   -1.1278    0.2427   39.8239    8.7066    0.0000   15.1536 175.27 175.3  69.5  9     0.0000    0.1081
ST21         ?    ?    ? P      ? 20001213 1510    4.7500 GAU  2.00e-02 -1.00e+00 -1.00e+00 -1.00e+00    1.0000 >    3.3670    0.1213    1.4370   36.1150   41.1978    0.0000   17.5622 351.95 352.0 100.0  9     0.0000    0.0673
ST21         ?    ?    ? S      ? 20001213 1510    7.4000 GAU  2.00e-02 -1.00e+00 -1.00e+00 -1.00e+00    1.0000 >    6.1399   -0.0016    1.6200   36.1150   41.1978    0.0000   17.5622 351.95 352.0  63.5  9     0.0000    0.1228
ST4          ?    ?    ? S      ? 20001213 1510    6.1800 GAU  2.00e-02 -1.00e+00 -1.00e+00 -1.00e+00    1.0000 >    6.2367   -1.3184    0.1885   28.7854    8.8400    0.0000   17.8852 213.18 213.2  63.3  9     0.0000    0.1247
ST7          ?    ?    ? P      ? 20001213 1510    4.6900 GAU  2.00e-02 -1.00e+00 -1.00e+00 -1.00e+00    1.0000 >    3.4945   -0.0662    1.6183   22.5319   32.5023    0.0000   18.2465 298.45 298.5  99.7  9     0.0000    0.0699
ST7          ?    ?    ? S      ? 20001213 1510    7.7700 GAU  2.00e-02 -1.00e+00 -1.00e+00 -1.00e+00    1.0000 >    6.3450    0.1633    1.1697   22.5319   32.5023    0.0000   18.2465 298.45 298.5  63.1  9     0.0000    0.1269
ST0          ?    ?    ? P      ? 20001213 1510    5.5200 GAU  2.00e-02 -1.00e+00 -1.00e+00 -1.00e+00    1.0000 >    4.0774    0.1809    1.0146   57.5022   13.8883    0.0000   21.3701 117.66 117.7  97.9  9     0.0000    0.0815
ST0          ?    ?    ? S      ? 20001213 1510    8.4800 GAU  2.00e-02 -1.00e+00 -1.00e+00 -1.00e+00    1.0000 >    7.2730   -0.0548    1.4361   57.5022   13.8883    0.0000   21.3701 117.66 117.7  59.2  9     0.0000    0.1455
ST17         ?    ?    ? S      ? 20001213 1510    9.9000 GAU  2.00e-02 -1.00e+00 -1.00e+00 -1.00e+00    1.0000 >    8.5032    0.1351    1.2143   64.4820   21.0492    0.0000   26.0543  96.08  96.1  47.8  9     0.0000    0.1701
ST9          ?    ?    ? P      ? 20001213 1510    6.2300 GAU  2.00e-02 -1.00e+00 -1.00e+00 -1.00e+00    1.0000 >    5.4355   -0.4672    0.5711    9.8992   23.1731    0.0000   28.6821 268.73 268.7  82.2  8     0.0000    0.1087
ST14         ?    ?    ? P      ? 20001213 1510    6.6900 GAU  2.00e-02 -1.00e+00 -1.00e+00 -1.00e+00    1.0000 >    5.8312   -0.4029    0.5999   58.1038   47.7138    0.0000   30.8685  39.25  39.2  76.5  9     0.0000    0.1166
ST22         ?    ?    ? P      ? 20001213 1510    7.3800 GAU  2.00e-02 -1.00e+00 -1.00e+00 -1.00e+00    1.0000 >    6.4138   -0.2956    0.6945   26.8589   55.8533    0.0000   34.1191 339.92 339.9  72.4  9     0.0000    0.1283
ST22         ?    ?    ? S      ? 20001213 1510   12.0900 GAU  2.00e-02 -1.00e+00 -1.00e+00 -1.00e+00    1.0000 >   10.4929    0.3354    0.6170   26.8589   55.8533    0.0000   34.1191 339.92 339.9  46.9  9     0.0000    0.2099
ST12         ?    ?    ? P      ? 20001213 1510    7.6900 GAU  2.00e-02 -1.00e+00 -1.00e+00 -1.00e+00    1.0000 >    7.0694   -0.6411    0.4241   31.4703   60.9238    0.0000   37.7889 349.16 349.2  71.3  9     0.0000    0.1414
ST12         ?    ?    ? S      ? 20001213 1510   12.5000 GAU  2.00e-02 -1.00e+00 -1.00e+00 -1.00e+00    1.0000 >   11.3959   -0.1576    1.0978   31.4703   60.9238    0.0000   37.7889 349.16 349.2  46.9  9     0.0000    0.2279
ST6          ?    ?    ? P      ? 20001213 1510    7.9200 GAU  2.00e-02 -1.00e+00 -1.00e+00 -1.00e+00    1.0000 >    7.5135   -0.8552    0.3240   64.5535   54.5857    0.0000   40.2759  40.17  40.2  71.2 10     0.0000    0.1503
ST6          ?    ?    ? S      ? 20001213 1510   12.7700 GAU  2.00e-02 -1.00e+00 -1.00e+00 -1.00e+00    1.0000 >   12.0078   -0.4996    0.6132   64.5535   54.5857    0.0000   40.2759  40.17  40.2  46.9  9     0.0000    0.2402
ST3          ?    ?    ? P      ? 20001213 1510    8.9500 GAU  2.00e-02 -1.00e+00 -1.00e+00 -1.00e+00    1.0000 >    8.5725   -0.8842    0.3300   17.1949   64.7711    0.0000   46.2061 332.44 332.4  71.2 10     0.0000    0.1714
ST10         ?    ?    ? S      ? 20001213 1510   14.9500 GAU  2.00e-02 -1.00e+00 -1.00e+00 -1.00e+00    1.0000 >   14.1384   -0.4501    0.7005   21.1066   69.5192    0.0000   48.9344 339.09 339.1  46.9  9     0.0000    0.2828
ST5          ?    ?    ? P      ? 20001213 1510    9.5600 GAU  2.00e-02 -1.00e+00 -1.00e+00 -1.00e+00    1.0000 >    9.2305   -0.9323    0.3244   45.9261   73.1552    0.0000   49.8913   8.47   8.5  71.2 10     0.0000    0.1846
ST11         ?    ?    ? P      ? 20001213 1510   10.9300 GAU  2.00e-02 -1.00e+00 -1.00e+00 -1.00e+00    1.0000 >   11.2040   -1.5357    0.1259   13.0335   79.7825    0.0000   61.5256 335.47 335.5  58.8 10     0.0000    0.2241
ST2          ?    ?    ? P      ? 20001213 1510   12.8100 GAU  2.00e-02 -1.00e+00 -1.00e+00 -1.00e+00    1.0000 >   12.9779   -1.4297    0.1779   36.5585   96.8954    0.0000   73.1146 358.42 358.4  50.2 10     0.0000    0.2596
ST2          ?    ?    ? S      ? 20001213 1510   21.1200 GAU  2.00e-02 -1.00e+00 -1.00e+00 -1.00e+00    1.0000 >   20.0882   -0.2299    0.8677   36.5585   96.8954    0.0000   73.1146 358.42 358.4  46.9  9     0.0000    0.4018
END_PHASE
END_NLLOC

