NLLOC "./loc/alaska.20001213.151001_013.grid0" "LOCATED" "Location completed."
PUBLIC_ID None
SIGNATURE "NonLinLoc - Yifan Yu   obs:./obs/phase.obs   NLLoc:v7.00.16(17Apr2023)   run:21Aug2023 13h19m35"
COMMENT "2023-8-21 test"
GRID  201 201 41  0 0 0  0.5 0.5 0.5 PROB_DENSITY
SEARCH OCTREE nInitial 400 nEvaluated 20040 smallestNodeSide 0.039062/0.039062/0.019531 oct_tree_integral 3.833842e-01 scatter_volume 3.833842e-01
HYPOCENTER  x 49.5508 y 28.3789 z 1.2207  OT 1.14982  ix -1 iy -1 iz -1 MAXIMUM_LIKELIHOOD
GEOGRAPHIC  OT 2000 12 13  15 10 1.149822  Lat 35.655217 Long -117.451571 Depth 1.220703
QUALITY  Pmax 4.34915e+176 MFmin 89.8386 MFmax 91.5562 RMS 0.332216 Nphs 54 Gap 49.7764 Dist 2.58287 Mamp -9.90 0 Mdur -9.90 0
VPVSRATIO  VpVsRatio 1.70228  Npair 27  Diff 7.49
STATISTICS  ExpectX 49.958491 Y 27.855054 Z 1.672228  CovXX 0.209772 XY -0.178554 XZ 0.255372 YY 0.279973 YZ -0.27153 ZZ 1.21615 EllAz1  232.425 Dip1  1.82734 Len1  0.468246 Az2  323.148 Dip2  21.5799 Len2  0.99345 Len3  2.194454e+00
STAT_GEOG  ExpectLat 35.650506 Long -117.447091 Depth 1.672228
TRANSFORM  SIMPLE LatOrig 35.400000  LongOrig -118.000000  RotCW 0.000000
QML_OriginQuality  assocPhCt 54  usedPhCt 54  assocStaCt -1  usedStaCt 27  depthPhCt -1  stdErr 0.332216  azGap 49.7764  secAzGap 49.7764  gtLevel -  minDist 2.58287 maxDist 69.7374 medDist 22.2309
QML_OriginUncertainty  horUnc -1  minHorUnc 0.380359  maxHorUnc 0.990828  azMaxHorUnc 140.561
QML_ConfidenceEllipsoid  semiMajorAxisLength 2.19445  semiMinorAxisLength 0.468246  semiIntermediateAxisLength 0.99345  majorAxisPlunge 68.335  majorAxisAzimuth 137.818  majorAxisRotation 353.203
FOCALMECH  Hyp  35.655217 -117.451571 1.220703 Mech  0 0 0 mf  0 nObs -1
PHASE ID Ins Cmp On Pha  FM Date     HrMn   Sec     Err  ErrMag    Coda      Amp       Per       PriorWt  >   TTpred    Res       Weight    StaLoc(X  Y         Z)        SDist    SAzim  RAz  RDip RQual    Tcorr       TTerr
ST19         ?    ?    ? P      ? 20001213 1510    1.6500 GAU  2.00e-02 -1.00e+00 -1.00e+00 -1.00e+00    1.0000 >    0.5409   -0.0407    1.9731   47.2048   27.2984    0.0000    2.5829 245.27 245.3 115.0  9     0.0000    0.0500
ST19         ?    ?    ? S      ? 20001213 1510    2.1100 GAU  2.00e-02 -1.00e+00 -1.00e+00 -1.00e+00    1.0000 >    0.9523    0.0078    2.1029   47.2048   27.2984    0.0000    2.5829 245.27 245.3 115.0  9     0.0000    0.0500
ST13         ?    ?    ? P      ? 20001213 1510    1.6800 GAU  2.00e-02 -1.00e+00 -1.00e+00 -1.00e+00    1.0000 >    0.5682   -0.0380    1.9901   52.0625   29.4778    0.0000    2.7416  66.37  66.4 113.8  9     0.0000    0.0500
ST13         ?    ?    ? S      ? 20001213 1510    2.1600 GAU  2.00e-02 -1.00e+00 -1.00e+00 -1.00e+00    1.0000 >    1.0004    0.0098    2.0999   52.0625   29.4778    0.0000    2.7416  66.37  66.4 113.8  9     0.0000    0.0500
ST18         ?    ?    ? P      ? 20001213 1510    2.4600 GAU  2.00e-02 -1.00e+00 -1.00e+00 -1.00e+00    1.0000 >    1.3820   -0.0718    1.7140   45.8666   22.1945    0.0000    7.1986 210.78 210.8 100.3  9     0.0000    0.0500
ST18         ?    ?    ? S      ? 20001213 1510    3.4700 GAU  2.00e-02 -1.00e+00 -1.00e+00 -1.00e+00    1.0000 >    2.4334   -0.1132    1.2694   45.8666   22.1945    0.0000    7.1986 210.78 210.8 100.3  9     0.0000    0.0500
ST24         ?    ?    ? P      ? 20001213 1510    2.8700 GAU  2.00e-02 -1.00e+00 -1.00e+00 -1.00e+00    1.0000 >    1.6774    0.0427    1.9578   55.9556   22.3725    0.0000    8.7806 133.16 133.2  98.8  9     0.0000    0.0500
ST24         ?    ?    ? S      ? 20001213 1510    4.1800 GAU  2.00e-02 -1.00e+00 -1.00e+00 -1.00e+00    1.0000 >    2.9536    0.0766    1.6740   55.9556   22.3725    0.0000    8.7806 133.16 133.2  98.8  9     0.0000    0.0591
ST26         ?    ?    ? P      ? 20001213 1510    2.9300 GAU  2.00e-02 -1.00e+00 -1.00e+00 -1.00e+00    1.0000 >    1.7750    0.0052    2.1060   52.5727   19.5815    0.0000    9.3020 161.04 161.0  98.3  9     0.0000    0.0500
ST26         ?    ?    ? S      ? 20001213 1510    4.2500 GAU  2.00e-02 -1.00e+00 -1.00e+00 -1.00e+00    1.0000 >    3.1254   -0.0252    1.9856   52.5727   19.5815    0.0000    9.3020 161.04 161.0  98.3  9     0.0000    0.0625
ST15         ?    ?    ? P      ? 20001213 1510    3.3700 GAU  2.00e-02 -1.00e+00 -1.00e+00 -1.00e+00    1.0000 >    2.1358    0.0844    1.5977   38.9482   24.6853    0.0000   11.2276 250.79 250.8  97.1  9     0.0000    0.0500
ST15         ?    ?    ? S      ? 20001213 1510    4.9800 GAU  2.00e-02 -1.00e+00 -1.00e+00 -1.00e+00    1.0000 >    3.7607    0.0694    1.6983   38.9482   24.6853    0.0000   11.2276 250.79 250.8  97.1  9     0.0000    0.0752
ST23         ?    ?    ? P      ? 20001213 1510    4.1600 GAU  2.00e-02 -1.00e+00 -1.00e+00 -1.00e+00    1.0000 >    2.5094    0.5008    0.9578   38.6464   35.8493    0.0000   13.2178 304.41 304.4  96.3  9     0.0000    0.0502
ST23         ?    ?    ? S      ? 20001213 1510    6.2800 GAU  2.00e-02 -1.00e+00 -1.00e+00 -1.00e+00    1.0000 >    4.4186    0.7116    0.9011   38.6464   35.8493    0.0000   13.2178 304.41 304.4  96.3  9     0.0000    0.0884
ST25         ?    ?    ? P      ? 20001213 1510    4.3500 GAU  2.00e-02 -1.00e+00 -1.00e+00 -1.00e+00    1.0000 >    2.7514    0.4488    0.8210   35.8320   33.0917    0.0000   14.5057 288.96 289.0  95.8  9     0.0000    0.0550
ST25         ?    ?    ? S      ? 20001213 1510    6.6100 GAU  2.00e-02 -1.00e+00 -1.00e+00 -1.00e+00    1.0000 >    4.8446    0.6155    1.0581   35.8320   33.0917    0.0000   14.5057 288.96 289.0  95.8  9     0.0000    0.0969
ST0          ?    ?    ? P      ? 20001213 1510    4.8800 GAU  2.00e-02 -1.00e+00 -1.00e+00 -1.00e+00    1.0000 >    3.1318    0.5984    1.0905   57.5022   13.8883    0.0000   16.5289 151.25 151.2  95.2  9     0.0000    0.0626
ST0          ?    ?    ? S      ? 20001213 1510    7.5000 GAU  2.00e-02 -1.00e+00 -1.00e+00 -1.00e+00    1.0000 >    5.5145    0.8357    0.5802   57.5022   13.8883    0.0000   16.5289 151.25 151.2  95.2  9     0.0000    0.1103
ST17         ?    ?    ? P      ? 20001213 1510    5.0000 GAU  2.00e-02 -1.00e+00 -1.00e+00 -1.00e+00    1.0000 >    3.1514    0.6987    0.9266   64.4820   21.0492    0.0000   16.6333 116.15 116.1  95.2  9     0.0000    0.0630
ST17         ?    ?    ? S      ? 20001213 1510    7.7400 GAU  2.00e-02 -1.00e+00 -1.00e+00 -1.00e+00    1.0000 >    5.5490    1.0411    0.1938   64.4820   21.0492    0.0000   16.6333 116.15 116.1  95.2  9     0.0000    0.1110
ST21         ?    ?    ? P      ? 20001213 1510    5.2600 GAU  2.00e-02 -1.00e+00 -1.00e+00 -1.00e+00    1.0000 >    3.5158    0.5944    1.0905   36.1150   41.1978    0.0000   18.5700 313.65 313.7  94.7  9     0.0000    0.0703
ST21         ?    ?    ? S      ? 20001213 1510    8.1500 GAU  2.00e-02 -1.00e+00 -1.00e+00 -1.00e+00    1.0000 >    6.1907    0.8095    0.6592   36.1150   41.1978    0.0000   18.5700 313.65 313.7  94.7  9     0.0000    0.1238
ST14         ?    ?    ? P      ? 20001213 1510    5.5000 GAU  2.00e-02 -1.00e+00 -1.00e+00 -1.00e+00    1.0000 >    4.0000    0.3502    0.6639   58.1038   47.7138    0.0000   21.1422  23.86  23.9  94.2  9     0.0000    0.0800
ST14         ?    ?    ? S      ? 20001213 1510    8.6400 GAU  2.00e-02 -1.00e+00 -1.00e+00 -1.00e+00    1.0000 >    7.0432    0.4469    0.9136   58.1038   47.7138    0.0000   21.1422  23.86  23.9  94.2  9     0.0000    0.1409
ST16         ?    ?    ? P      ? 20001213 1510    5.5300 GAU  2.00e-02 -1.00e+00 -1.00e+00 -1.00e+00    1.0000 >    4.1513    0.2289    0.7567   39.8239    8.7066    0.0000   21.9457 206.31 206.3  94.1  9     0.0000    0.0830
ST16         ?    ?    ? S      ? 20001213 1510    8.5200 GAU  2.00e-02 -1.00e+00 -1.00e+00 -1.00e+00    1.0000 >    7.3096    0.0605    1.4643   39.8239    8.7066    0.0000   21.9457 206.31 206.3  94.1  9     0.0000    0.1462
ST1          ?    ?    ? P      ? 20001213 1510    5.9500 GAU  2.00e-02 -1.00e+00 -1.00e+00 -1.00e+00    1.0000 >    4.2050    0.5951    1.0811   36.2928   46.2238    0.0000   22.2309 323.39 323.4  94.1  9     0.0000    0.0841
ST1          ?    ?    ? S      ? 20001213 1510    9.3100 GAU  2.00e-02 -1.00e+00 -1.00e+00 -1.00e+00    1.0000 >    7.4042    0.7560    0.7846   36.2928   46.2238    0.0000   22.2309 323.39 323.4  94.1  9     0.0000    0.1481
ST7          ?    ?    ? P      ? 20001213 1510    6.8300 GAU  2.00e-02 -1.00e+00 -1.00e+00 -1.00e+00    1.0000 >    5.1659    0.5143    1.0023   22.5319   32.5023    0.0000   27.3317 278.68 278.7  93.4  9     0.0000    0.1033
ST7          ?    ?    ? S      ? 20001213 1510   11.0800 GAU  2.00e-02 -1.00e+00 -1.00e+00 -1.00e+00    1.0000 >    9.0961    0.8341    0.6274   22.5319   32.5023    0.0000   27.3317 278.68 278.7  93.4  9     0.0000    0.1819
ST4          ?    ?    ? P      ? 20001213 1510    6.5100 GAU  2.00e-02 -1.00e+00 -1.00e+00 -1.00e+00    1.0000 >    5.3884   -0.0282    1.6846   28.7854    8.8400    0.0000   28.5126 226.74 226.7  93.3  9     0.0000    0.1078
ST4          ?    ?    ? S      ? 20001213 1510   10.0900 GAU  2.00e-02 -1.00e+00 -1.00e+00 -1.00e+00    1.0000 >    9.4879   -0.5477    0.3538   28.7854    8.8400    0.0000   28.5126 226.74 226.7  93.3  9     0.0000    0.1898
ST6          ?    ?    ? P      ? 20001213 1510    6.8000 GAU  2.00e-02 -1.00e+00 -1.00e+00 -1.00e+00    1.0000 >    5.7059   -0.0557    1.5733   64.5535   54.5857    0.0000   30.1973  29.79  29.8  93.2  9     0.0000    0.1141
ST6          ?    ?    ? S      ? 20001213 1510   10.8300 GAU  2.00e-02 -1.00e+00 -1.00e+00 -1.00e+00    1.0000 >   10.0469   -0.3667    0.5780   64.5535   54.5857    0.0000   30.1973  29.79  29.8  93.2  9     0.0000    0.2009
ST8          ?    ?    ? P      ? 20001213 1510    8.0300 GAU  2.00e-02 -1.00e+00 -1.00e+00 -1.00e+00    1.0000 >    6.2491    0.6311    1.0046   21.2005   45.4232    0.0000   33.0794 301.01 301.0  92.9  9     0.0000    0.1250
ST8          ?    ?    ? S      ? 20001213 1510   13.0400 GAU  2.00e-02 -1.00e+00 -1.00e+00 -1.00e+00    1.0000 >   11.0034    0.8868    0.5406   21.2005   45.4232    0.0000   33.0794 301.01 301.0  92.9  9     0.0000    0.2201
ST20         ?    ?    ? P      ? 20001213 1510    7.9500 GAU  2.00e-02 -1.00e+00 -1.00e+00 -1.00e+00    1.0000 >    6.4962    0.3040    0.8328   26.5943   53.9852    0.0000   34.3901 318.12 318.1  92.6  9     0.0000    0.1299
ST20         ?    ?    ? S      ? 20001213 1510   12.8200 GAU  2.00e-02 -1.00e+00 -1.00e+00 -1.00e+00    1.0000 >   11.4385    0.2317    1.1236   26.5943   53.9852    0.0000   34.3901 318.12 318.1  92.7  9     0.0000    0.2288
ST22         ?    ?    ? P      ? 20001213 1510    8.1100 GAU  2.00e-02 -1.00e+00 -1.00e+00 -1.00e+00    1.0000 >    6.7306    0.2296    0.9800   26.8589   55.8533    0.0000   35.6337 320.45 320.4  91.8  9     0.0000    0.1346
ST22         ?    ?    ? S      ? 20001213 1510   13.0400 GAU  2.00e-02 -1.00e+00 -1.00e+00 -1.00e+00    1.0000 >   11.8513    0.0389    1.2233   26.8589   55.8533    0.0000   35.6337 320.45 320.4  91.9  9     0.0000    0.2370
ST12         ?    ?    ? P      ? 20001213 1510    8.1400 GAU  2.00e-02 -1.00e+00 -1.00e+00 -1.00e+00    1.0000 >    7.0314   -0.0412    1.4855   31.4703   60.9238    0.0000   37.2300 330.95 330.9  90.1  9     0.0000    0.1406
ST12         ?    ?    ? S      ? 20001213 1510   13.0000 GAU  2.00e-02 -1.00e+00 -1.00e+00 -1.00e+00    1.0000 >   12.3809   -0.5307    0.4247   31.4703   60.9238    0.0000   37.2300 330.95 330.9  90.2  9     0.0000    0.2476
ST9          ?    ?    ? P      ? 20001213 1510    8.6800 GAU  2.00e-02 -1.00e+00 -1.00e+00 -1.00e+00    1.0000 >    7.5471   -0.0170    1.4722    9.8992   23.1731    0.0000   39.9919 262.52 262.5  84.5  9     0.0000    0.1509
ST9          ?    ?    ? S      ? 20001213 1510   14.1900 GAU  2.00e-02 -1.00e+00 -1.00e+00 -1.00e+00    1.0000 >   13.2892   -0.2491    0.8507    9.8992   23.1731    0.0000   39.9919 262.52 262.5  84.7  8     0.0000    0.2658
ST5          ?    ?    ? P      ? 20001213 1510    9.2200 GAU  2.00e-02 -1.00e+00 -1.00e+00 -1.00e+00    1.0000 >    8.4436   -0.3734    0.5046   45.9261   73.1552    0.0000   44.9228 355.37 355.4  73.6  9     0.0000    0.1689
ST5          ?    ?    ? S      ? 20001213 1510   14.7100 GAU  2.00e-02 -1.00e+00 -1.00e+00 -1.00e+00    1.0000 >   14.8683   -1.3082    0.1419   45.9261   73.1552    0.0000   44.9228 355.37 355.4  73.7  9     0.0000    0.2974
ST3          ?    ?    ? P      ? 20001213 1510    9.7900 GAU  2.00e-02 -1.00e+00 -1.00e+00 -1.00e+00    1.0000 >    9.1182   -0.4780    0.4010   17.1949   64.7711    0.0000   48.6960 318.36 318.4  71.3 10     0.0000    0.1824
ST3          ?    ?    ? S      ? 20001213 1510   15.9300 GAU  2.00e-02 -1.00e+00 -1.00e+00 -1.00e+00    1.0000 >   16.0563   -1.2761    0.1507   17.1949   64.7711    0.0000   48.6960 318.36 318.4  71.4 10     0.0000    0.3211
ST10         ?    ?    ? P      ? 20001213 1510    9.9300 GAU  2.00e-02 -1.00e+00 -1.00e+00 -1.00e+00    1.0000 >    9.3539   -0.5737    0.3352   21.1066   69.5192    0.0000   50.0159 325.34 325.3  71.3 10     0.0000    0.1871
ST10         ?    ?    ? S      ? 20001213 1510   16.2000 GAU  2.00e-02 -1.00e+00 -1.00e+00 -1.00e+00    1.0000 >   16.4715   -1.4213    0.1260   21.1066   69.5192    0.0000   50.0159 325.34 325.3  71.3 10     0.0000    0.3294
ST11         ?    ?    ? P      ? 20001213 1510   11.8600 GAU  2.00e-02 -1.00e+00 -1.00e+00 -1.00e+00    1.0000 >   11.6129   -0.9027    0.2101   13.0335   79.7825    0.0000   63.0542 324.61 324.6  58.9 10     0.0000    0.2323
ST11         ?    ?    ? S      ? 20001213 1510   19.7500 GAU  2.00e-02 -1.00e+00 -1.00e+00 -1.00e+00    1.0000 >   20.4516   -1.8515    0.0681   13.0335   79.7825    0.0000   63.0542 324.61 324.6  59.0 10     0.0000    0.4090
ST2          ?    ?    ? P      ? 20001213 1510   12.7900 GAU  2.00e-02 -1.00e+00 -1.00e+00 -1.00e+00    1.0000 >   12.6813   -1.0411    0.1827   36.5585   96.8954    0.0000   69.7374 349.26 349.3  54.2  9     0.0000    0.2536
ST2          ?    ?    ? S      ? 20001213 1510   20.7400 GAU  2.00e-02 -1.00e+00 -1.00e+00 -1.00e+00    1.0000 >   22.3312   -2.7410    0.0106   36.5585   96.8954    0.0000   69.7374 349.26 349.3  53.8  9     0.0000    0.4466
END_PHASE
END_NLLOC

