NLLOC "./loc/alaska.20001213.151002_030.grid0" "LOCATED" "Location completed."
PUBLIC_ID None
SIGNATURE "NonLinLoc - Yifan Yu   obs:./obs/phase.obs   NLLoc:v7.00.16(17Apr2023)   run:24Aug2023 11h39m32"
COMMENT "2023-8-21 test"
GRID  201 201 41  0 0 0  0.5 0.5 0.5 PROB_DENSITY
SEARCH OCTREE nInitial 400 nEvaluated 20008 smallestNodeSide 0.078125/0.078125/0.039062 oct_tree_integral 1.872750e+00 scatter_volume 1.872750e+00
HYPOCENTER  x 44.3359 y 32.2266 z 10.1758  OT 0.740077  ix -1 iy -1 iz -1 MAXIMUM_LIKELIHOOD
GEOGRAPHIC  OT 2000 12 13  15 10 0.740077  Lat 35.689820 Long -117.509076 Depth 10.175781
QUALITY  Pmax 4.95005e+80 MFmin 47.5262 MFmax 48.7369 RMS 0.129183 Nphs 27 Gap 76.9017 Dist 5.70238 Mamp -9.90 0 Mdur -9.90 0
VPVSRATIO  VpVsRatio 1.67546  Npair 7  Diff 2.13
STATISTICS  ExpectX 44.230915 Y 32.088801 Z 10.280595  CovXX 0.173063 XY 0.0794298 XZ -0.221658 YY 0.23082 YZ 0.0684878 ZZ 1.06203 EllAz1  300.796 Dip1  -12.7701 Len1  0.48718 Az2  209.943 Dip2  -3.76084 Len2  0.997317 Len3  1.985625e+00
STAT_GEOG  ExpectLat 35.688581 Long -117.510247 Depth 10.280595
TRANSFORM  SIMPLE LatOrig 35.400000  LongOrig -118.000000  RotCW 0.000000
QML_OriginQuality  assocPhCt 27  usedPhCt 27  assocStaCt -1  usedStaCt 20  depthPhCt -1  stdErr 0.129183  azGap 76.9017  secAzGap 116.797  gtLevel -  minDist 5.70238 maxDist 65.1348 medDist 23.4939
QML_OriginUncertainty  horUnc -1  minHorUnc 0.51969  maxHorUnc 0.811698  azMaxHorUnc 35.0101
QML_ConfidenceEllipsoid  semiMajorAxisLength 1.98562  semiMinorAxisLength 0.48718  semiIntermediateAxisLength 0.997317  majorAxisPlunge -76.6696  majorAxisAzimuth 103.837  majorAxisRotation 104.852
FOCALMECH  Hyp  35.689820 -117.509076 10.175781 Mech  0 0 0 mf  0 nObs -1
PHASE ID Ins Cmp On Pha  FM Date     HrMn   Sec     Err  ErrMag    Coda      Amp       Per       PriorWt  >   TTpred    Res       Weight    StaLoc(X  Y         Z)        SDist    SAzim  RAz  RDip RQual    Tcorr       TTerr
ST19         ?    ?    ? P      ? 20001213 1510    2.8400 GAU  2.00e-02 -1.00e+00 -1.00e+00 -1.00e+00    1.0000 >    2.1140   -0.0141    1.6391   47.2048   27.2984    0.0000    5.7024 149.79 149.8 147.7  9     0.0000    0.0500
ST19         ?    ?    ? S      ? 20001213 1510    3.9400 GAU  2.00e-02 -1.00e+00 -1.00e+00 -1.00e+00    1.0000 >    3.5014   -0.3015    0.5779   47.2048   27.2984    0.0000    5.7024 149.79 149.8 145.9  9     0.0000    0.0700
ST23         ?    ?    ? P      ? 20001213 1510    2.9100 GAU  2.00e-02 -1.00e+00 -1.00e+00 -1.00e+00    1.0000 >    2.2100   -0.0401    1.5335   38.6464   35.8493    0.0000    6.7450 302.49 302.5 142.9  9     0.0000    0.0500
ST25         ?    ?    ? P      ? 20001213 1510    3.2100 GAU  2.00e-02 -1.00e+00 -1.00e+00 -1.00e+00    1.0000 >    2.4005    0.0694    1.4063   35.8320   33.0917    0.0000    8.5478 275.81 275.8 135.2 10     0.0000    0.0500
ST25         ?    ?    ? S      ? 20001213 1510    4.7400 GAU  2.00e-02 -1.00e+00 -1.00e+00 -1.00e+00    1.0000 >    3.9563    0.0436    1.4659   35.8320   33.0917    0.0000    8.5478 275.81 275.8 132.3  9     0.0000    0.0791
ST15         ?    ?    ? P      ? 20001213 1510    3.2300 GAU  2.00e-02 -1.00e+00 -1.00e+00 -1.00e+00    1.0000 >    2.4847    0.0053    1.6622   38.9482   24.6853    0.0000    9.2682 215.54 215.5 132.1  9     0.0000    0.0500
ST15         ?    ?    ? S      ? 20001213 1510    4.5000 GAU  2.00e-02 -1.00e+00 -1.00e+00 -1.00e+00    1.0000 >    4.0911   -0.3311    0.5164   38.9482   24.6853    0.0000    9.2682 215.54 215.5 129.1  9     0.0000    0.0818
ST21         ?    ?    ? S      ? 20001213 1510    5.7200 GAU  2.00e-02 -1.00e+00 -1.00e+00 -1.00e+00    1.0000 >    4.6849    0.2950    0.4412   36.1150   41.1978    0.0000   12.1683 317.50 317.5 118.9  9     0.0000    0.0937
ST26         ?    ?    ? P      ? 20001213 1510    4.0200 GAU  2.00e-02 -1.00e+00 -1.00e+00 -1.00e+00    1.0000 >    3.2864   -0.0064    1.5866   52.5727   19.5815    0.0000   15.0911 146.92 146.9 112.7  9     0.0000    0.0657
ST26         ?    ?    ? S      ? 20001213 1510    6.0300 GAU  2.00e-02 -1.00e+00 -1.00e+00 -1.00e+00    1.0000 >    5.3374   -0.0475    1.3513   52.5727   19.5815    0.0000   15.0911 146.92 146.9 111.9  9     0.0000    0.1067
ST24         ?    ?    ? P      ? 20001213 1510    4.0400 GAU  2.00e-02 -1.00e+00 -1.00e+00 -1.00e+00    1.0000 >    3.3080   -0.0081    1.5826   55.9556   22.3725    0.0000   15.2355 130.30 130.3 112.4  9     0.0000    0.0662
ST7          ?    ?    ? P      ? 20001213 1510    5.3900 GAU  2.00e-02 -1.00e+00 -1.00e+00 -1.00e+00    1.0000 >    4.3303    0.3196    0.3713   22.5319   32.5023    0.0000   21.8057 270.72 270.7 100.9  9     0.0000    0.0866
ST0          ?    ?    ? P      ? 20001213 1510    5.2800 GAU  2.00e-02 -1.00e+00 -1.00e+00 -1.00e+00    1.0000 >    4.4527    0.0872    1.2695   57.5022   13.8883    0.0000   22.5753 144.32 144.3 100.2  9     0.0000    0.0891
ST0          ?    ?    ? S      ? 20001213 1510    8.0700 GAU  2.00e-02 -1.00e+00 -1.00e+00 -1.00e+00    1.0000 >    7.1018    0.2281    0.7310   57.5022   13.8883    0.0000   22.5753 144.32 144.3 103.2  9     0.0000    0.1420
ST17         ?    ?    ? P      ? 20001213 1510    5.3300 GAU  2.00e-02 -1.00e+00 -1.00e+00 -1.00e+00    1.0000 >    4.5266    0.0634    1.3618   64.4820   21.0492    0.0000   23.0390 119.02 119.0  99.9  9     0.0000    0.0905
ST17         ?    ?    ? S      ? 20001213 1510    8.1800 GAU  2.00e-02 -1.00e+00 -1.00e+00 -1.00e+00    1.0000 >    7.2132    0.2268    0.7375   64.4820   21.0492    0.0000   23.0390 119.02 119.0 102.8  9     0.0000    0.1443
ST16         ?    ?    ? P      ? 20001213 1510    5.2100 GAU  2.00e-02 -1.00e+00 -1.00e+00 -1.00e+00    1.0000 >    4.6717   -0.2017    0.8358   39.8239    8.7066    0.0000   23.9489 190.86 190.9  99.1  9     0.0000    0.0934
ST8          ?    ?    ? S      ? 20001213 1510    9.9900 GAU  2.00e-02 -1.00e+00 -1.00e+00 -1.00e+00    1.0000 >    8.0801    1.1698    0.0199   21.2005   45.4232    0.0000   26.6345 299.70 299.7 100.7  9     0.0000    0.1616
ST4          ?    ?    ? P      ? 20001213 1510    5.9200 GAU  2.00e-02 -1.00e+00 -1.00e+00 -1.00e+00    1.0000 >    5.3335   -0.1536    1.0212   28.7854    8.8400    0.0000   28.0847 213.62 213.6  97.0  9     0.0000    0.1067
ST4          ?    ?    ? S      ? 20001213 1510    9.1500 GAU  2.00e-02 -1.00e+00 -1.00e+00 -1.00e+00    1.0000 >    8.4313   -0.0214    1.1862   28.7854    8.8400    0.0000   28.0847 213.62 213.6 100.1  9     0.0000    0.1686
ST22         ?    ?    ? P      ? 20001213 1510    6.3800 GAU  2.00e-02 -1.00e+00 -1.00e+00 -1.00e+00    1.0000 >    5.5426    0.0973    1.1941   26.8589   55.8533    0.0000   29.3883 323.51 323.5  96.4  9     0.0000    0.1109
ST6          ?    ?    ? S      ? 20001213 1510    9.5800 GAU  2.00e-02 -1.00e+00 -1.00e+00 -1.00e+00    1.0000 >    8.9311   -0.0912    1.1058   64.5535   54.5857    0.0000   30.1443  42.12  42.1  99.3  9     0.0000    0.1786
ST5          ?    ?    ? P      ? 20001213 1510    7.8700 GAU  2.00e-02 -1.00e+00 -1.00e+00 -1.00e+00    1.0000 >    7.4032   -0.2732    0.7130   45.9261   73.1552    0.0000   40.9596   2.22   2.2  94.0  9     0.0000    0.1481
ST3          ?    ?    ? P      ? 20001213 1510    8.3100 GAU  2.00e-02 -1.00e+00 -1.00e+00 -1.00e+00    1.0000 >    7.6313   -0.0614    1.2035   17.1949   64.7711    0.0000   42.3767 320.17 320.2  93.8  9     0.0000    0.1526
ST10         ?    ?    ? P      ? 20001213 1510    8.3500 GAU  2.00e-02 -1.00e+00 -1.00e+00 -1.00e+00    1.0000 >    7.8824   -0.2724    0.7215   21.1066   69.5192    0.0000   43.9357 328.08 328.1  93.6  9     0.0000    0.1576
ST11         ?    ?    ? S      ? 20001213 1510   16.9900 GAU  2.00e-02 -1.00e+00 -1.00e+00 -1.00e+00    1.0000 >   15.4802    0.7697    0.1142   13.0335   79.7825    0.0000   56.9333 326.65 326.6  94.3  9     0.0000    0.3096
ST2          ?    ?    ? P      ? 20001213 1510   11.5100 GAU  2.00e-02 -1.00e+00 -1.00e+00 -1.00e+00    1.0000 >   11.0814   -0.3115    0.6507   36.5585   96.8954    0.0000   65.1348 353.14 353.1  64.0 10     0.0000    0.2216
END_PHASE
END_NLLOC

