NLLOC "./loc/alaska.20001213.151001_016.grid0" "LOCATED" "Location completed."
PUBLIC_ID None
SIGNATURE "NonLinLoc - Yifan Yu   obs:./obs/phase.obs   NLLoc:v7.00.16(17Apr2023)   run:21Aug2023 13h19m38"
COMMENT "2023-8-21 test"
GRID  201 201 41  0 0 0  0.5 0.5 0.5 PROB_DENSITY
SEARCH OCTREE nInitial 400 nEvaluated 20008 smallestNodeSide 0.039062/0.039062/0.019531 oct_tree_integral 6.994183e-01 scatter_volume 6.994183e-01
HYPOCENTER  x 30.2148 y 63.7305 z 8.99414  OT 1.01546  ix -1 iy -1 iz -1 MAXIMUM_LIKELIHOOD
GEOGRAPHIC  OT 2000 12 13  15 10 1.015459  Lat 35.973141 Long -117.664240 Depth 8.994141
QUALITY  Pmax 3.85151e+182 MFmin 80.8092 MFmax 87.2748 RMS 0.237921 Nphs 54 Gap 67.963 Dist 3.07469 Mamp -9.90 0 Mdur -9.90 0
VPVSRATIO  VpVsRatio 1.70227  Npair 27  Diff 6.3
STATISTICS  ExpectX 30.298848 Y 63.759405 Z 9.622095  CovXX 0.261473 XY 0.0264735 XZ 0.106829 YY 0.107617 YZ 0.0387725 ZZ 1.03125 EllAz1  171.454 Dip1  1.38607 Len1  0.602076 Az2  261.652 Dip2  8.10966 Len2  0.939362 Len3  1.923094e+00
STAT_GEOG  ExpectLat 35.973401 Long -117.663305 Depth 9.622095
TRANSFORM  SIMPLE LatOrig 35.400000  LongOrig -118.000000  RotCW 0.000000
QML_OriginQuality  assocPhCt 54  usedPhCt 54  assocStaCt -1  usedStaCt 27  depthPhCt -1  stdErr 0.237921  azGap 67.963  secAzGap 67.963  gtLevel -  minDist 3.07469 maxDist 56.8229 medDist 32.1609
QML_OriginUncertainty  horUnc -1  minHorUnc 0.48717  maxHorUnc 0.78203  azMaxHorUnc 80.505
QML_ConfidenceEllipsoid  semiMajorAxisLength 1.92309  semiMinorAxisLength 0.602076  semiIntermediateAxisLength 0.939362  majorAxisPlunge 81.7712  majorAxisAzimuth 71.8227  majorAxisRotation 349.863
FOCALMECH  Hyp  35.973141 -117.664240 8.994141 Mech  0 0 0 mf  0 nObs -1
PHASE ID Ins Cmp On Pha  FM Date     HrMn   Sec     Err  ErrMag    Coda      Amp       Per       PriorWt  >   TTpred    Res       Weight    StaLoc(X  Y         Z)        SDist    SAzim  RAz  RDip RQual    Tcorr       TTerr
ST12         ?    ?    ? P      ? 20001213 1510    1.7600 GAU  2.00e-02 -1.00e+00 -1.00e+00 -1.00e+00    1.0000 >    1.7487   -1.0041    0.2396   31.4703   60.9238    0.0000    3.0747 155.90 155.9 159.6  9     0.0000    0.0500
ST12         ?    ?    ? S      ? 20001213 1510    2.2300 GAU  2.00e-02 -1.00e+00 -1.00e+00 -1.00e+00    1.0000 >    3.0793   -1.8647    0.0030   31.4703   60.9238    0.0000    3.0747 155.90 155.9 159.6  9     0.0000    0.0616
ST22         ?    ?    ? P      ? 20001213 1510    3.2800 GAU  2.00e-02 -1.00e+00 -1.00e+00 -1.00e+00    1.0000 >    2.2730   -0.0085    1.6963   26.8589   55.8533    0.0000    8.5623 203.08 203.1 132.5  9     0.0000    0.0500
ST22         ?    ?    ? S      ? 20001213 1510    4.7100 GAU  2.00e-02 -1.00e+00 -1.00e+00 -1.00e+00    1.0000 >    4.0026   -0.3081    0.7562   26.8589   55.8533    0.0000    8.5623 203.08 203.1 132.5  9     0.0000    0.0801
ST20         ?    ?    ? P      ? 20001213 1510    3.7400 GAU  2.00e-02 -1.00e+00 -1.00e+00 -1.00e+00    1.0000 >    2.5184    0.2061    1.1882   26.5943   53.9852    0.0000   10.3961 200.38 200.4 124.9  9     0.0000    0.0504
ST20         ?    ?    ? S      ? 20001213 1510    5.4200 GAU  2.00e-02 -1.00e+00 -1.00e+00 -1.00e+00    1.0000 >    4.4348   -0.0302    1.5932   26.5943   53.9852    0.0000   10.3961 200.38 200.4 124.9  9     0.0000    0.0887
ST10         ?    ?    ? P      ? 20001213 1510    3.5700 GAU  2.00e-02 -1.00e+00 -1.00e+00 -1.00e+00    1.0000 >    2.5743   -0.0198    1.6769   21.1066   69.5192    0.0000   10.7921 302.44 302.4 123.6  9     0.0000    0.0515
ST10         ?    ?    ? S      ? 20001213 1510    5.2700 GAU  2.00e-02 -1.00e+00 -1.00e+00 -1.00e+00    1.0000 >    4.5332   -0.2786    0.8411   21.1066   69.5192    0.0000   10.7921 302.44 302.4 123.6  9     0.0000    0.0907
ST3          ?    ?    ? P      ? 20001213 1510    4.0100 GAU  2.00e-02 -1.00e+00 -1.00e+00 -1.00e+00    1.0000 >    2.9086    0.0859    1.5746   17.1949   64.7711    0.0000   13.0614 274.57 274.6 117.1  9     0.0000    0.0582
ST3          ?    ?    ? S      ? 20001213 1510    5.9800 GAU  2.00e-02 -1.00e+00 -1.00e+00 -1.00e+00    1.0000 >    5.1218   -0.1573    1.2150   17.1949   64.7711    0.0000   13.0614 274.57 274.6 117.1  9     0.0000    0.1024
ST5          ?    ?    ? P      ? 20001213 1510    5.0100 GAU  2.00e-02 -1.00e+00 -1.00e+00 -1.00e+00    1.0000 >    3.7424    0.2521    1.0445   45.9261   73.1552    0.0000   18.3213  59.04  59.0 105.1  9     0.0000    0.0748
ST5          ?    ?    ? S      ? 20001213 1510    7.6400 GAU  2.00e-02 -1.00e+00 -1.00e+00 -1.00e+00    1.0000 >    6.5903    0.0343    1.5328   45.9261   73.1552    0.0000   18.3213  59.04  59.0 105.1  9     0.0000    0.1318
ST1          ?    ?    ? P      ? 20001213 1510    5.1600 GAU  2.00e-02 -1.00e+00 -1.00e+00 -1.00e+00    1.0000 >    3.7764    0.3682    0.5774   36.2928   46.2238    0.0000   18.5317 160.85 160.9 104.6  9     0.0000    0.0755
ST1          ?    ?    ? S      ? 20001213 1510    7.8300 GAU  2.00e-02 -1.00e+00 -1.00e+00 -1.00e+00    1.0000 >    6.6500    0.1645    1.3292   36.2928   46.2238    0.0000   18.5317 160.85 160.9 104.6  9     0.0000    0.1330
ST8          ?    ?    ? P      ? 20001213 1510    5.8000 GAU  2.00e-02 -1.00e+00 -1.00e+00 -1.00e+00    1.0000 >    4.0789    0.7057    0.0717   21.2005   45.4232    0.0000   20.4062 206.22 206.2  99.6  9     0.0000    0.0816
ST8          ?    ?    ? S      ? 20001213 1510    8.9900 GAU  2.00e-02 -1.00e+00 -1.00e+00 -1.00e+00    1.0000 >    7.1828    0.7917    0.0735   21.2005   45.4232    0.0000   20.4062 206.22 206.2  99.6  9     0.0000    0.1437
ST21         ?    ?    ? P      ? 20001213 1510    5.9100 GAU  2.00e-02 -1.00e+00 -1.00e+00 -1.00e+00    1.0000 >    4.5447    0.3499    0.6714   36.1150   41.1978    0.0000   23.2924 165.33 165.3  89.7  8     0.0000    0.0909
ST21         ?    ?    ? S      ? 20001213 1510    9.1900 GAU  2.00e-02 -1.00e+00 -1.00e+00 -1.00e+00    1.0000 >    8.0033    0.1713    1.2726   36.1150   41.1978    0.0000   23.2924 165.33 165.3  89.8  8     0.0000    0.1601
ST11         ?    ?    ? P      ? 20001213 1510    5.6900 GAU  2.00e-02 -1.00e+00 -1.00e+00 -1.00e+00    1.0000 >    4.5803    0.0942    1.5497   13.0335   79.7825    0.0000   23.5131 313.05 313.1  88.8  9     0.0000    0.0916
ST11         ?    ?    ? S      ? 20001213 1510    9.1500 GAU  2.00e-02 -1.00e+00 -1.00e+00 -1.00e+00    1.0000 >    8.0660    0.0685    1.4389   13.0335   79.7825    0.0000   23.5131 313.05 313.1  88.9  9     0.0000    0.1613
ST23         ?    ?    ? P      ? 20001213 1510    6.7100 GAU  2.00e-02 -1.00e+00 -1.00e+00 -1.00e+00    1.0000 >    5.4863    0.2083    1.2141   38.6464   35.8493    0.0000   29.1282 163.17 163.2  78.1  8     0.0000    0.1097
ST23         ?    ?    ? S      ? 20001213 1510   10.6000 GAU  2.00e-02 -1.00e+00 -1.00e+00 -1.00e+00    1.0000 >    9.6618   -0.0773    1.3183   38.6464   35.8493    0.0000   29.1282 163.17 163.2  78.1  8     0.0000    0.1932
ST25         ?    ?    ? P      ? 20001213 1510    7.0100 GAU  2.00e-02 -1.00e+00 -1.00e+00 -1.00e+00    1.0000 >    5.8123    0.1822    1.2953   35.8320   33.0917    0.0000   31.1495 169.61 169.6  77.9  8     0.0000    0.1162
ST25         ?    ?    ? S      ? 20001213 1510   11.1900 GAU  2.00e-02 -1.00e+00 -1.00e+00 -1.00e+00    1.0000 >   10.2360   -0.0615    1.3129   35.8320   33.0917    0.0000   31.1495 169.61 169.6  77.9  8     0.0000    0.2047
ST7          ?    ?    ? P      ? 20001213 1510    7.3400 GAU  2.00e-02 -1.00e+00 -1.00e+00 -1.00e+00    1.0000 >    5.9752    0.3494    0.7066   22.5319   32.5023    0.0000   32.1594 193.82 193.8  77.7  8     0.0000    0.1195
ST7          ?    ?    ? S      ? 20001213 1510   11.7500 GAU  2.00e-02 -1.00e+00 -1.00e+00 -1.00e+00    1.0000 >   10.5229    0.2116    1.1086   22.5319   32.5023    0.0000   32.1594 193.82 193.8  77.8  8     0.0000    0.2105
ST14         ?    ?    ? P      ? 20001213 1510    6.9400 GAU  2.00e-02 -1.00e+00 -1.00e+00 -1.00e+00    1.0000 >    5.9754   -0.0509    1.4951   58.1038   47.7138    0.0000   32.1609 119.87 119.9  77.7  8     0.0000    0.1195
ST14         ?    ?    ? S      ? 20001213 1510   10.8500 GAU  2.00e-02 -1.00e+00 -1.00e+00 -1.00e+00    1.0000 >   10.5234   -0.6888    0.4438   58.1038   47.7138    0.0000   32.1609 119.87 119.9  77.8  8     0.0000    0.2105
ST2          ?    ?    ? P      ? 20001213 1510    7.2000 GAU  2.00e-02 -1.00e+00 -1.00e+00 -1.00e+00    1.0000 >    6.2344   -0.0498    1.4871   36.5585   96.8954    0.0000   33.7662  10.83  10.8  77.6  8     0.0000    0.1247
ST2          ?    ?    ? S      ? 20001213 1510   11.5400 GAU  2.00e-02 -1.00e+00 -1.00e+00 -1.00e+00    1.0000 >   10.9794   -0.4549    0.6730   36.5585   96.8954    0.0000   33.7662  10.83  10.8  77.7  8     0.0000    0.2196
ST6          ?    ?    ? P      ? 20001213 1510    7.4800 GAU  2.00e-02 -1.00e+00 -1.00e+00 -1.00e+00    1.0000 >    6.5197   -0.0552    1.4671   64.5535   54.5857    0.0000   35.5355 104.91 104.9  77.5  8     0.0000    0.1304
ST6          ?    ?    ? S      ? 20001213 1510   11.7200 GAU  2.00e-02 -1.00e+00 -1.00e+00 -1.00e+00    1.0000 >   11.4821   -0.7775    0.3984   64.5535   54.5857    0.0000   35.5355 104.91 104.9  77.6  8     0.0000    0.2296
ST15         ?    ?    ? P      ? 20001213 1510    8.2400 GAU  2.00e-02 -1.00e+00 -1.00e+00 -1.00e+00    1.0000 >    7.2414   -0.0169    1.4836   38.9482   24.6853    0.0000   40.0099 167.39 167.4  77.4  8     0.0000    0.1448
ST15         ?    ?    ? S      ? 20001213 1510   13.3400 GAU  2.00e-02 -1.00e+00 -1.00e+00 -1.00e+00    1.0000 >   12.7532   -0.4287    0.7395   38.9482   24.6853    0.0000   40.0099 167.39 167.4  77.4  8     0.0000    0.2551
ST19         ?    ?    ? P      ? 20001213 1510    8.2900 GAU  2.00e-02 -1.00e+00 -1.00e+00 -1.00e+00    1.0000 >    7.2719    0.0026    1.4942   47.2048   27.2984    0.0000   40.1989 155.00 155.0  77.4  8     0.0000    0.1454
ST19         ?    ?    ? S      ? 20001213 1510   13.3300 GAU  2.00e-02 -1.00e+00 -1.00e+00 -1.00e+00    1.0000 >   12.8069   -0.4924    0.6576   47.2048   27.2984    0.0000   40.1989 155.00 155.0  77.4  8     0.0000    0.2561
ST13         ?    ?    ? P      ? 20001213 1510    8.3100 GAU  2.00e-02 -1.00e+00 -1.00e+00 -1.00e+00    1.0000 >    7.3410   -0.0464    1.4476   52.0625   29.4778    0.0000   40.6271 147.47 147.5  77.4  8     0.0000    0.1468
ST13         ?    ?    ? S      ? 20001213 1510   13.2800 GAU  2.00e-02 -1.00e+00 -1.00e+00 -1.00e+00    1.0000 >   12.9285   -0.6640    0.4885   52.0625   29.4778    0.0000   40.6271 147.47 147.5  77.4  8     0.0000    0.2586
ST18         ?    ?    ? P      ? 20001213 1510    8.8900 GAU  2.00e-02 -1.00e+00 -1.00e+00 -1.00e+00    1.0000 >    7.9474   -0.0729    1.3862   45.8666   22.1945    0.0000   44.3871 159.35 159.4  77.3  8     0.0000    0.1589
ST18         ?    ?    ? S      ? 20001213 1510   14.4100 GAU  2.00e-02 -1.00e+00 -1.00e+00 -1.00e+00    1.0000 >   13.9967   -0.6022    0.5568   45.8666   22.1945    0.0000   44.3871 159.35 159.4  77.3  8     0.0000    0.2799
ST9          ?    ?    ? P      ? 20001213 1510    9.1800 GAU  2.00e-02 -1.00e+00 -1.00e+00 -1.00e+00    1.0000 >    8.1045    0.0600    1.4433    9.8992   23.1731    0.0000   45.3611 206.61 206.6  77.3  8     0.0000    0.1621
ST9          ?    ?    ? S      ? 20001213 1510   14.7500 GAU  2.00e-02 -1.00e+00 -1.00e+00 -1.00e+00    1.0000 >   14.2734   -0.5389    0.6255    9.8992   23.1731    0.0000   45.3611 206.61 206.6  77.3  8     0.0000    0.2855
ST24         ?    ?    ? P      ? 20001213 1510    9.7500 GAU  2.00e-02 -1.00e+00 -1.00e+00 -1.00e+00    1.0000 >    8.6453    0.0892    1.3903   55.9556   22.3725    0.0000   48.7142 148.10 148.1  77.2  8     0.0000    0.1729
ST24         ?    ?    ? S      ? 20001213 1510   15.6700 GAU  2.00e-02 -1.00e+00 -1.00e+00 -1.00e+00    1.0000 >   15.2260   -0.5715    0.6029   55.9556   22.3725    0.0000   48.7142 148.10 148.1  77.3  8     0.0000    0.3045
ST26         ?    ?    ? P      ? 20001213 1510    9.8600 GAU  2.00e-02 -1.00e+00 -1.00e+00 -1.00e+00    1.0000 >    8.7700    0.0745    1.3985   52.5727   19.5815    0.0000   49.4874 153.14 153.1  77.2  8     0.0000    0.1754
ST26         ?    ?    ? S      ? 20001213 1510   15.9200 GAU  2.00e-02 -1.00e+00 -1.00e+00 -1.00e+00    1.0000 >   15.4457   -0.5411    0.6373   52.5727   19.5815    0.0000   49.4874 153.14 153.1  77.3  8     0.0000    0.3089
ST17         ?    ?    ? P      ? 20001213 1510   10.6300 GAU  2.00e-02 -1.00e+00 -1.00e+00 -1.00e+00    1.0000 >    9.6164   -0.0019    1.3766   64.4820   21.0492    0.0000   54.7350 141.24 141.2  75.3  8     0.0000    0.1923
ST17         ?    ?    ? S      ? 20001213 1510   17.0700 GAU  2.00e-02 -1.00e+00 -1.00e+00 -1.00e+00    1.0000 >   16.9364   -0.8819    0.3626   64.4820   21.0492    0.0000   54.7350 141.24 141.2  74.9  8     0.0000    0.3387
ST4          ?    ?    ? P      ? 20001213 1510   10.3900 GAU  2.00e-02 -1.00e+00 -1.00e+00 -1.00e+00    1.0000 >    9.6445   -0.2699    0.9696   28.7854    8.8400    0.0000   54.9091 181.49 181.5  74.8  8     0.0000    0.1929
ST4          ?    ?    ? S      ? 20001213 1510   16.9700 GAU  2.00e-02 -1.00e+00 -1.00e+00 -1.00e+00    1.0000 >   16.9858   -1.0313    0.2694   28.7854    8.8400    0.0000   54.9091 181.49 181.5  74.4  8     0.0000    0.3397
ST16         ?    ?    ? P      ? 20001213 1510   10.6600 GAU  2.00e-02 -1.00e+00 -1.00e+00 -1.00e+00    1.0000 >    9.7966   -0.1521    1.2021   39.8239    8.7066    0.0000   55.8566 170.09 170.1  71.3  8     0.0000    0.1959
ST16         ?    ?    ? S      ? 20001213 1510   17.4300 GAU  2.00e-02 -1.00e+00 -1.00e+00 -1.00e+00    1.0000 >   17.2533   -0.8388    0.3948   39.8239    8.7066    0.0000   55.8566 170.09 170.1  70.7  8     0.0000    0.3451
ST0          ?    ?    ? P      ? 20001213 1510   11.0400 GAU  2.00e-02 -1.00e+00 -1.00e+00 -1.00e+00    1.0000 >    9.9487    0.0758    1.3392   57.5022   13.8883    0.0000   56.8229 151.30 151.3  66.8  9     0.0000    0.1990
ST0          ?    ?    ? S      ? 20001213 1510   17.7900 GAU  2.00e-02 -1.00e+00 -1.00e+00 -1.00e+00    1.0000 >   17.5201   -0.7456    0.4680   57.5022   13.8883    0.0000   56.8229 151.30 151.3  66.1  9     0.0000    0.3504
END_PHASE
END_NLLOC

