NLLOC "./loc/alaska.20001213.151002_022.grid0" "LOCATED" "Location completed."
PUBLIC_ID None
SIGNATURE "NonLinLoc - Yifan Yu   obs:./obs/phase.obs   NLLoc:v7.00.16(17Apr2023)   run:24Aug2023 11h42m14"
COMMENT "2023-8-21 test"
GRID  201 201 41  0 0 0  0.5 0.5 0.5 PROB_DENSITY
SEARCH OCTREE nInitial 400 nEvaluated 20016 smallestNodeSide 0.156250/0.156250/0.078125 oct_tree_integral 1.063051e+01 scatter_volume 1.063051e+01
HYPOCENTER  x 22.5781 y 62.2656 z 12.0703  OT 59.8063  ix -1 iy -1 iz -1 MAXIMUM_LIKELIHOOD
GEOGRAPHIC  OT 2000 12 13  15 09 59.806326  Lat 35.959967 Long -117.749144 Depth 12.070312
QUALITY  Pmax 1.13699e+95 MFmin 47.0438 MFmax 51.426 RMS 0.209068 Nphs 32 Gap 146.739 Dist 7.40131 Mamp -9.90 0 Mdur -9.90 0
VPVSRATIO  VpVsRatio 1.66457  Npair 9  Diff 4.8
STATISTICS  ExpectX 22.336608 Y 61.994416 Z 12.227734  CovXX 1.55326 XY 0.272755 XZ 0.194362 YY 0.99314 YZ 0.117377 ZZ 0.8272 EllAz1  198.13 Dip1  68.9768 Len1  1.63909 Az2  333.335 Dip2  15.2554 Len2  1.77447 Len3  2.464438e+00
STAT_GEOG  ExpectLat 35.957528 Long -117.751835 Depth 12.227734
TRANSFORM  SIMPLE LatOrig 35.400000  LongOrig -118.000000  RotCW 0.000000
QML_OriginQuality  assocPhCt 32  usedPhCt 32  assocStaCt -1  usedStaCt 23  depthPhCt -1  stdErr 0.209068  azGap 146.739  secAzGap 151.326  gtLevel -  minDist 7.40131 maxDist 59.6662 medDist 37.3453
QML_OriginUncertainty  horUnc -1  minHorUnc 1.4245  maxHorUnc 1.9564  azMaxHorUnc 67.8785
QML_ConfidenceEllipsoid  semiMajorAxisLength 2.46444  semiMinorAxisLength 1.63909  semiIntermediateAxisLength 1.77447  majorAxisPlunge 14.1141  majorAxisAzimuth 67.2676  majorAxisRotation 76.0521
FOCALMECH  Hyp  35.959967 -117.749144 12.070312 Mech  0 0 0 mf  0 nObs -1
PHASE ID Ins Cmp On Pha  FM Date     HrMn   Sec     Err  ErrMag    Coda      Amp       Per       PriorWt  >   TTpred    Res       Weight    StaLoc(X  Y         Z)        SDist    SAzim  RAz  RDip RQual    Tcorr       TTerr
ST10         ?    ?    ? S      ? 20001213 1510    5.2900 GAU  2.00e-02 -1.00e+00 -1.00e+00 -1.00e+00    1.0000 >    4.1235    1.3602    0.0041   21.1066   69.5192    0.0000    7.4013 348.53 348.5 144.5  9     0.0000    0.0825
ST22         ?    ?    ? P      ? 20001213 1510    2.3800 GAU  2.00e-02 -1.00e+00 -1.00e+00 -1.00e+00    1.0000 >    2.5492    0.0245    1.6139   26.8589   55.8533    0.0000    7.7099 146.27 146.3 144.7  9     0.0000    0.0510
ST12         ?    ?    ? P      ? 20001213 1510    2.8700 GAU  2.00e-02 -1.00e+00 -1.00e+00 -1.00e+00    1.0000 >    2.6753    0.3884    0.6563   31.4703   60.9238    0.0000    8.9929  98.58  98.6 140.2 10     0.0000    0.0535
ST12         ?    ?    ? S      ? 20001213 1510    4.0800 GAU  2.00e-02 -1.00e+00 -1.00e+00 -1.00e+00    1.0000 >    4.3666   -0.0929    1.4865   31.4703   60.9238    0.0000    8.9929  98.58  98.6 138.8 10     0.0000    0.0873
ST20         ?    ?    ? P      ? 20001213 1510    2.4000 GAU  2.00e-02 -1.00e+00 -1.00e+00 -1.00e+00    1.0000 >    2.6973   -0.1037    1.4641   26.5943   53.9852    0.0000    9.2030 154.13 154.1 139.5 10     0.0000    0.0539
ST8          ?    ?    ? S      ? 20001213 1510    6.2100 GAU  2.00e-02 -1.00e+00 -1.00e+00 -1.00e+00    1.0000 >    5.9357    0.4680    0.5063   21.2005   45.4232    0.0000   16.8987 184.68 184.7 116.2  9     0.0000    0.1187
ST11         ?    ?    ? P      ? 20001213 1510    5.6200 GAU  2.00e-02 -1.00e+00 -1.00e+00 -1.00e+00    1.0000 >    4.1304    1.6833    0.0064   13.0335   79.7825    0.0000   19.9484 331.41 331.4 111.9  9     0.0000    0.0826
ST11         ?    ?    ? S      ? 20001213 1510    8.6300 GAU  2.00e-02 -1.00e+00 -1.00e+00 -1.00e+00    1.0000 >    6.6231    2.2006    0.0607   13.0335   79.7825    0.0000   19.9484 331.41 331.4 111.7  9     0.0000    0.1325
ST1          ?    ?    ? P      ? 20001213 1510    4.1600 GAU  2.00e-02 -1.00e+00 -1.00e+00 -1.00e+00    1.0000 >    4.3050    0.0486    1.5332   36.2928   46.2238    0.0000   21.1053 139.47 139.5 110.3  9     0.0000    0.0861
ST1          ?    ?    ? S      ? 20001213 1510    6.6600 GAU  2.00e-02 -1.00e+00 -1.00e+00 -1.00e+00    1.0000 >    6.8893   -0.0356    1.4616   36.2928   46.2238    0.0000   21.1053 139.47 139.5 110.3  9     0.0000    0.1378
ST21         ?    ?    ? S      ? 20001213 1510    7.5400 GAU  2.00e-02 -1.00e+00 -1.00e+00 -1.00e+00    1.0000 >    7.8096   -0.0759    1.3600   36.1150   41.1978    0.0000   25.0420 147.28 147.3 106.7  9     0.0000    0.1562
ST7          ?    ?    ? P      ? 20001213 1510    5.7600 GAU  2.00e-02 -1.00e+00 -1.00e+00 -1.00e+00    1.0000 >    5.6523    0.3014    0.8613   22.5319   32.5023    0.0000   29.7633 180.09 180.1 102.1  9     0.0000    0.1130
ST23         ?    ?    ? P      ? 20001213 1510    5.5900 GAU  2.00e-02 -1.00e+00 -1.00e+00 -1.00e+00    1.0000 >    5.8351   -0.0515    1.5077   38.6464   35.8493    0.0000   30.9195 148.69 148.7 101.4  9     0.0000    0.1167
ST23         ?    ?    ? S      ? 20001213 1510    8.9400 GAU  2.00e-02 -1.00e+00 -1.00e+00 -1.00e+00    1.0000 >    9.2090   -0.0753    1.2907   38.6464   35.8493    0.0000   30.9195 148.69 148.7 103.1  9     0.0000    0.1842
ST25         ?    ?    ? P      ? 20001213 1510    5.7800 GAU  2.00e-02 -1.00e+00 -1.00e+00 -1.00e+00    1.0000 >    6.0133   -0.0396    1.5107   35.8320   33.0917    0.0000   32.0435 155.57 155.6 100.9  9     0.0000    0.1203
ST25         ?    ?    ? S      ? 20001213 1510    9.2900 GAU  2.00e-02 -1.00e+00 -1.00e+00 -1.00e+00    1.0000 >    9.4788    0.0049    1.3349   35.8320   33.0917    0.0000   32.0435 155.57 155.6 102.6  9     0.0000    0.1896
ST2          ?    ?    ? S      ? 20001213 1510   12.8600 GAU  2.00e-02 -1.00e+00 -1.00e+00 -1.00e+00    1.0000 >   10.7573    2.2964    0.0624   36.5585   96.8954    0.0000   37.3453  21.98  22.0 100.6  9     0.0000    0.2151
ST14         ?    ?    ? S      ? 20001213 1510   10.9700 GAU  2.00e-02 -1.00e+00 -1.00e+00 -1.00e+00    1.0000 >   11.0102    0.1534    1.1671   58.1038   47.7138    0.0000   38.3905 112.27 112.3 100.3  9     0.0000    0.2202
ST6          ?    ?    ? P      ? 20001213 1510    7.6300 GAU  2.00e-02 -1.00e+00 -1.00e+00 -1.00e+00    1.0000 >    7.6894    0.1343    1.2734   64.5535   54.5857    0.0000   42.6721 100.37 100.4  74.7  8     0.0000    0.1538
ST19         ?    ?    ? P      ? 20001213 1510    7.5100 GAU  2.00e-02 -1.00e+00 -1.00e+00 -1.00e+00    1.0000 >    7.7037    0.0000    1.4283   47.2048   27.2984    0.0000   42.7689 144.84 144.8  74.2  8     0.0000    0.1541
ST13         ?    ?    ? P      ? 20001213 1510    7.3400 GAU  2.00e-02 -1.00e+00 -1.00e+00 -1.00e+00    1.0000 >    7.8976   -0.3640    0.5293   52.0625   29.4778    0.0000   44.0950 138.04 138.0  68.0  9     0.0000    0.1580
ST13         ?    ?    ? S      ? 20001213 1510   12.2800 GAU  2.00e-02 -1.00e+00 -1.00e+00 -1.00e+00    1.0000 >   12.3946    0.0791    1.1855   52.0625   29.4778    0.0000   44.0950 138.04 138.0  98.8  9     0.0000    0.2479
ST18         ?    ?    ? P      ? 20001213 1510    7.7600 GAU  2.00e-02 -1.00e+00 -1.00e+00 -1.00e+00    1.0000 >    8.2244   -0.2707    0.8149   45.8666   22.1945    0.0000   46.3470 149.84 149.8  64.3  9     0.0000    0.1645
ST18         ?    ?    ? S      ? 20001213 1510   12.8400 GAU  2.00e-02 -1.00e+00 -1.00e+00 -1.00e+00    1.0000 >   12.9424    0.0912    1.1574   45.8666   22.1945    0.0000   46.3470 149.84 149.8  98.3  9     0.0000    0.2588
ST24         ?    ?    ? S      ? 20001213 1510   14.3900 GAU  2.00e-02 -1.00e+00 -1.00e+00 -1.00e+00    1.0000 >   14.3237    0.2600    0.9417   55.9556   22.3725    0.0000   52.0147 140.08 140.1  97.3  9     0.0000    0.2865
ST26         ?    ?    ? S      ? 20001213 1510   14.3600 GAU  2.00e-02 -1.00e+00 -1.00e+00 -1.00e+00    1.0000 >   14.3614    0.1923    1.0248   52.5727   19.5815    0.0000   52.1691 144.90 144.9  97.3  9     0.0000    0.2872
ST4          ?    ?    ? P      ? 20001213 1510    8.6500 GAU  2.00e-02 -1.00e+00 -1.00e+00 -1.00e+00    1.0000 >    9.3024   -0.4587    0.3582   28.7854    8.8400    0.0000   53.7850 173.37 173.4  64.0 10     0.0000    0.1860
ST16         ?    ?    ? P      ? 20001213 1510    9.3500 GAU  2.00e-02 -1.00e+00 -1.00e+00 -1.00e+00    1.0000 >    9.6621   -0.1185    1.2016   39.8239    8.7066    0.0000   56.2671 162.15 162.2  64.0 10     0.0000    0.1932
ST16         ?    ?    ? S      ? 20001213 1510   15.3200 GAU  2.00e-02 -1.00e+00 -1.00e+00 -1.00e+00    1.0000 >   15.3619    0.1518    1.0313   39.8239    8.7066    0.0000   56.2671 162.15 162.2  96.7  9     0.0000    0.3072
ST17         ?    ?    ? P      ? 20001213 1510   10.0500 GAU  2.00e-02 -1.00e+00 -1.00e+00 -1.00e+00    1.0000 >   10.0259    0.2178    1.0824   64.4820   21.0492    0.0000   58.7769 134.53 134.5  64.0 10     0.0000    0.2005
ST17         ?    ?    ? S      ? 20001213 1510   16.0600 GAU  2.00e-02 -1.00e+00 -1.00e+00 -1.00e+00    1.0000 >   15.9751    0.2785    0.8864   64.4820   21.0492    0.0000   58.7769 134.53 134.5  96.4  9     0.0000    0.3195
ST0          ?    ?    ? P      ? 20001213 1510   10.1100 GAU  2.00e-02 -1.00e+00 -1.00e+00 -1.00e+00    1.0000 >   10.1548    0.1489    1.1969   57.5022   13.8883    0.0000   59.6662 144.17 144.2  64.0 10     0.0000    0.2031
END_PHASE
END_NLLOC

