NLLOC "./loc/alaska.20001213.151002_004.grid0" "LOCATED" "Location completed."
PUBLIC_ID None
SIGNATURE "NonLinLoc - Yifan Yu   obs:./obs/phase.obs   NLLoc:v7.00.16(17Apr2023)   run:24Aug2023 11h42m43"
COMMENT "2023-8-21 test"
GRID  201 201 41  0 0 0  0.5 0.5 0.5 PROB_DENSITY
SEARCH OCTREE nInitial 400 nEvaluated 20008 smallestNodeSide 0.078125/0.078125/0.039062 oct_tree_integral 6.731181e+00 scatter_volume 6.731181e+00
HYPOCENTER  x 27.5781 y 59.2969 z 15.4297  OT 0.523332  ix -1 iy -1 iz -1 MAXIMUM_LIKELIHOOD
GEOGRAPHIC  OT 2000 12 13  15 10 0.523332  Lat 35.933269 Long -117.693695 Depth 15.429688
QUALITY  Pmax 1.32174e+109 MFmin 55.3068 MFmax 60.3537 RMS 0.246871 Nphs 36 Gap 119.938 Dist 3.5179 Mamp -9.90 0 Mdur -9.90 0
VPVSRATIO  VpVsRatio 1.70968  Npair 11  Diff 5.22
STATISTICS  ExpectX 27.304646 Y 59.731111 Z 13.730323  CovXX 0.708161 XY 0.0902926 XZ -0.411669 YY 0.411404 YZ -0.480286 ZZ 5.48915 EllAz1  350.73 Dip1  4.54297 Len1  1.12416 Az2  261.185 Dip2  -5.70522 Len2  1.54994 Len3  4.434266e+00
STAT_GEOG  ExpectLat 35.937174 Long -117.696717 Depth 13.730323
TRANSFORM  SIMPLE LatOrig 35.400000  LongOrig -118.000000  RotCW 0.000000
QML_OriginQuality  assocPhCt 36  usedPhCt 36  assocStaCt -1  usedStaCt 25  depthPhCt -1  stdErr 0.246871  azGap 119.938  secAzGap 132.828  gtLevel -  minDist 3.5179 maxDist 54.3819 medDist 32.6494
QML_OriginUncertainty  horUnc -1  minHorUnc 0.942342  maxHorUnc 1.29884  azMaxHorUnc 74.3391
QML_ConfidenceEllipsoid  semiMajorAxisLength 4.43427  semiMinorAxisLength 1.12416  semiIntermediateAxisLength 1.54994  majorAxisPlunge -82.6976  majorAxisAzimuth 42.411  majorAxisRotation 219.467
FOCALMECH  Hyp  35.933269 -117.693695 15.429688 Mech  0 0 0 mf  0 nObs -1
PHASE ID Ins Cmp On Pha  FM Date     HrMn   Sec     Err  ErrMag    Coda      Amp       Per       PriorWt  >   TTpred    Res       Weight    StaLoc(X  Y         Z)        SDist    SAzim  RAz  RDip RQual    Tcorr       TTerr
ST22         ?    ?    ? P      ? 20001213 1510    2.1500 GAU  2.00e-02 -1.00e+00 -1.00e+00 -1.00e+00    1.0000 >    2.7398   -1.1132    0.0163   26.8589   55.8533    0.0000    3.5179 191.80 191.8 164.1  9     0.0000    0.0548
ST12         ?    ?    ? P      ? 20001213 1510    2.3900 GAU  2.00e-02 -1.00e+00 -1.00e+00 -1.00e+00    1.0000 >    2.7703   -0.9037    0.2567   31.4703   60.9238    0.0000    4.2185  67.32  67.3 161.4  9     0.0000    0.0554
ST12         ?    ?    ? S      ? 20001213 1510    3.3700 GAU  2.00e-02 -1.00e+00 -1.00e+00 -1.00e+00    1.0000 >    4.5188   -1.6721    0.0000   31.4703   60.9238    0.0000    4.2185  67.32  67.3 162.1  9     0.0000    0.0904
ST20         ?    ?    ? P      ? 20001213 1510    2.4600 GAU  2.00e-02 -1.00e+00 -1.00e+00 -1.00e+00    1.0000 >    2.8315   -0.8948    0.2605   26.5943   53.9852    0.0000    5.4020 190.49 190.5 156.9  9     0.0000    0.0566
ST10         ?    ?    ? P      ? 20001213 1510    3.5400 GAU  2.00e-02 -1.00e+00 -1.00e+00 -1.00e+00    1.0000 >    3.3810   -0.3643    0.5051   21.1066   69.5192    0.0000   12.0986 327.66 327.7 134.5 10     0.0000    0.0676
ST10         ?    ?    ? S      ? 20001213 1510    5.2600 GAU  2.00e-02 -1.00e+00 -1.00e+00 -1.00e+00    1.0000 >    5.4918   -0.7551    0.1533   21.1066   69.5192    0.0000   12.0986 327.66 327.7 138.6 10     0.0000    0.1098
ST8          ?    ?    ? S      ? 20001213 1510    6.6600 GAU  2.00e-02 -1.00e+00 -1.00e+00 -1.00e+00    1.0000 >    6.0528    0.0839    1.5135   21.2005   45.4232    0.0000   15.2693 204.69 204.7 129.7 10     0.0000    0.1211
ST1          ?    ?    ? P      ? 20001213 1510    4.2700 GAU  2.00e-02 -1.00e+00 -1.00e+00 -1.00e+00    1.0000 >    3.7878   -0.0411    1.5996   36.2928   46.2238    0.0000   15.7115 146.31 146.3 123.6  9     0.0000    0.0758
ST1          ?    ?    ? S      ? 20001213 1510    6.3100 GAU  2.00e-02 -1.00e+00 -1.00e+00 -1.00e+00    1.0000 >    6.1370   -0.3504    0.6068   36.2928   46.2238    0.0000   15.7115 146.31 146.3 128.8 10     0.0000    0.1227
ST21         ?    ?    ? S      ? 20001213 1510    7.5300 GAU  2.00e-02 -1.00e+00 -1.00e+00 -1.00e+00    1.0000 >    7.0067    0.0000    1.5095   36.1150   41.1978    0.0000   20.0114 154.75 154.7 121.0 10     0.0000    0.1401
ST5          ?    ?    ? P      ? 20001213 1510    5.2600 GAU  2.00e-02 -1.00e+00 -1.00e+00 -1.00e+00    1.0000 >    4.7474   -0.0108    1.6166   45.9261   73.1552    0.0000   22.9936  52.94  52.9 107.0  9     0.0000    0.0949
ST5          ?    ?    ? S      ? 20001213 1510    8.3800 GAU  2.00e-02 -1.00e+00 -1.00e+00 -1.00e+00    1.0000 >    7.6494    0.2073    1.1836   45.9261   73.1552    0.0000   22.9936  52.94  52.9 117.0 10     0.0000    0.1530
ST11         ?    ?    ? P      ? 20001213 1510    5.5600 GAU  2.00e-02 -1.00e+00 -1.00e+00 -1.00e+00    1.0000 >    5.0464   -0.0098    1.6036   13.0335   79.7825    0.0000   25.1238 324.63 324.6 103.8  9     0.0000    0.1009
ST23         ?    ?    ? P      ? 20001213 1510    5.5200 GAU  2.00e-02 -1.00e+00 -1.00e+00 -1.00e+00    1.0000 >    5.1604   -0.1637    1.1606   38.6464   35.8493    0.0000   25.9287 154.73 154.7 102.8  9     0.0000    0.1032
ST23         ?    ?    ? S      ? 20001213 1510    8.8700 GAU  2.00e-02 -1.00e+00 -1.00e+00 -1.00e+00    1.0000 >    8.3025    0.0441    1.4417   38.6464   35.8493    0.0000   25.9287 154.73 154.7 113.8  9     0.0000    0.1661
ST7          ?    ?    ? P      ? 20001213 1510    5.9400 GAU  2.00e-02 -1.00e+00 -1.00e+00 -1.00e+00    1.0000 >    5.3504    0.0662    1.5692   22.5319   32.5023    0.0000   27.2656 190.67 190.7 101.4  9     0.0000    0.1070
ST7          ?    ?    ? S      ? 20001213 1510    9.4100 GAU  2.00e-02 -1.00e+00 -1.00e+00 -1.00e+00    1.0000 >    8.6051    0.2816    0.9796   22.5319   32.5023    0.0000   27.2656 190.67 190.7 112.6  9     0.0000    0.1721
ST25         ?    ?    ? S      ? 20001213 1510    9.0700 GAU  2.00e-02 -1.00e+00 -1.00e+00 -1.00e+00    1.0000 >    8.6526   -0.1059    1.2923   35.8320   33.0917    0.0000   27.4743 162.52 162.5 112.5  9     0.0000    0.1731
ST14         ?    ?    ? P      ? 20001213 1510    6.2700 GAU  2.00e-02 -1.00e+00 -1.00e+00 -1.00e+00    1.0000 >    6.1217   -0.3751    0.5434   58.1038   47.7138    0.0000   32.6494 110.78 110.8  97.9  9     0.0000    0.1224
ST14         ?    ?    ? S      ? 20001213 1510   10.3000 GAU  2.00e-02 -1.00e+00 -1.00e+00 -1.00e+00    1.0000 >    9.8463   -0.0696    1.3057   58.1038   47.7138    0.0000   32.6494 110.78 110.8 108.7  9     0.0000    0.1969
ST15         ?    ?    ? S      ? 20001213 1510   11.4000 GAU  2.00e-02 -1.00e+00 -1.00e+00 -1.00e+00    1.0000 >   10.7335    0.1432    1.2370   38.9482   24.6853    0.0000   36.4313 161.81 161.8 106.6  9     0.0000    0.2147
ST6          ?    ?    ? P      ? 20001213 1510    7.3300 GAU  2.00e-02 -1.00e+00 -1.00e+00 -1.00e+00    1.0000 >    6.7879    0.0188    1.5269   64.5535   54.5857    0.0000   37.2743  97.26  97.3  96.2  9     0.0000    0.1358
ST19         ?    ?    ? P      ? 20001213 1510    7.2800 GAU  2.00e-02 -1.00e+00 -1.00e+00 -1.00e+00    1.0000 >    6.8259   -0.0693    1.4287   47.2048   27.2984    0.0000   37.5381 148.48 148.5  96.2  9     0.0000    0.1365
ST19         ?    ?    ? S      ? 20001213 1510   11.6600 GAU  2.00e-02 -1.00e+00 -1.00e+00 -1.00e+00    1.0000 >   10.9949    0.1418    1.2294   47.2048   27.2984    0.0000   37.5381 148.48 148.5 106.1  9     0.0000    0.2199
ST13         ?    ?    ? P      ? 20001213 1510    7.4600 GAU  2.00e-02 -1.00e+00 -1.00e+00 -1.00e+00    1.0000 >    6.9767   -0.0401    1.4723   52.0625   29.4778    0.0000   38.5832 140.61 140.6  95.9  9     0.0000    0.1395
ST2          ?    ?    ? P      ? 20001213 1510    7.6500 GAU  2.00e-02 -1.00e+00 -1.00e+00 -1.00e+00    1.0000 >    6.9873    0.1394    1.3696   36.5585   96.8954    0.0000   38.6561  13.43  13.4  95.9  9     0.0000    0.1397
ST2          ?    ?    ? S      ? 20001213 1510   12.3000 GAU  2.00e-02 -1.00e+00 -1.00e+00 -1.00e+00    1.0000 >   11.2596    0.5171    0.4961   36.5585   96.8954    0.0000   38.6561  13.43  13.4 105.6  9     0.0000    0.2252
ST18         ?    ?    ? P      ? 20001213 1510    7.7600 GAU  2.00e-02 -1.00e+00 -1.00e+00 -1.00e+00    1.0000 >    7.3783   -0.1417    1.2383   45.8666   22.1945    0.0000   41.3649 153.76 153.8  95.3  9     0.0000    0.1476
ST18         ?    ?    ? S      ? 20001213 1510   12.6700 GAU  2.00e-02 -1.00e+00 -1.00e+00 -1.00e+00    1.0000 >   11.9034    0.2433    1.0425   45.8666   22.1945    0.0000   41.3649 153.76 153.8 104.5  9     0.0000    0.2381
ST24         ?    ?    ? S      ? 20001213 1510   14.0900 GAU  2.00e-02 -1.00e+00 -1.00e+00 -1.00e+00    1.0000 >   13.1480    0.4187    0.7060   55.9556   22.3725    0.0000   46.5693 142.46 142.5 102.8  9     0.0000    0.2630
ST26         ?    ?    ? P      ? 20001213 1510    8.8800 GAU  2.00e-02 -1.00e+00 -1.00e+00 -1.00e+00    1.0000 >    8.1821    0.1746    1.2581   52.5727   19.5815    0.0000   46.9259 147.82 147.8  94.3  9     0.0000    0.1636
ST4          ?    ?    ? P      ? 20001213 1510    8.9400 GAU  2.00e-02 -1.00e+00 -1.00e+00 -1.00e+00    1.0000 >    8.6948   -0.2782    0.8571   28.7854    8.8400    0.0000   50.4713 178.63 178.6  93.9  9     0.0000    0.1739
ST16         ?    ?    ? P      ? 20001213 1510    9.6900 GAU  2.00e-02 -1.00e+00 -1.00e+00 -1.00e+00    1.0000 >    8.9234    0.2433    1.0797   39.8239    8.7066    0.0000   52.0513 166.39 166.4  93.7  9     0.0000    0.1785
ST17         ?    ?    ? S      ? 20001213 1510   15.9200 GAU  2.00e-02 -1.00e+00 -1.00e+00 -1.00e+00    1.0000 >   14.7317    0.6649    0.3507   64.4820   21.0492    0.0000   53.1486 136.02 136.0 101.1  9     0.0000    0.2946
ST0          ?    ?    ? P      ? 20001213 1510    9.9800 GAU  2.00e-02 -1.00e+00 -1.00e+00 -1.00e+00    1.0000 >    9.2606    0.1960    1.1867   57.5022   13.8883    0.0000   54.3819 146.62 146.6  93.5  9     0.0000    0.1852
ST0          ?    ?    ? S      ? 20001213 1510   16.1800 GAU  2.00e-02 -1.00e+00 -1.00e+00 -1.00e+00    1.0000 >   15.0296    0.6271    0.4034   57.5022   13.8883    0.0000   54.3819 146.62 146.6 100.8  9     0.0000    0.3006
END_PHASE
END_NLLOC

