NLLOC "./loc/alaska.20001213.151002_016.grid0" "LOCATED" "Location completed."
PUBLIC_ID None
SIGNATURE "NonLinLoc - Yifan Yu   obs:./obs/phase.obs   NLLoc:v7.00.16(17Apr2023)   run:24Aug2023 11h42m29"
COMMENT "2023-8-21 test"
GRID  201 201 41  0 0 0  0.5 0.5 0.5 PROB_DENSITY
SEARCH OCTREE nInitial 400 nEvaluated 20000 smallestNodeSide 0.039062/0.039062/0.019531 oct_tree_integral 4.548609e-01 scatter_volume 4.548609e-01
HYPOCENTER  x 46.1328 y 32.7734 z 4.51172  OT 1.09913  ix -1 iy -1 iz -1 MAXIMUM_LIKELIHOOD
GEOGRAPHIC  OT 2000 12 13  15 10 1.099126  Lat 35.694738 Long -117.489148 Depth 4.511719
QUALITY  Pmax 5.88012e+95 MFmin 53.9536 MFmax 54.703 RMS 0.255564 Nphs 32 Gap 78.8832 Dist 5.579 Mamp -9.90 0 Mdur -9.90 0
VPVSRATIO  VpVsRatio 1.63953  Npair 9  Diff 4.03
STATISTICS  ExpectX 45.822553 Y 32.318450 Z 4.687221  CovXX 0.214165 XY 0.234006 XZ -0.066086 YY 0.433124 YZ -0.193598 ZZ 0.328608 EllAz1  307.64 Dip1  13.4801 Len1  0.435401 Az2  239.775 Dip2  -57.5357 Len2  0.901599 Len3  1.562838e+00
STAT_GEOG  ExpectLat 35.690646 Long -117.492610 Depth 4.687221
TRANSFORM  SIMPLE LatOrig 35.400000  LongOrig -118.000000  RotCW 0.000000
QML_OriginQuality  assocPhCt 32  usedPhCt 32  assocStaCt -1  usedStaCt 23  depthPhCt -1  stdErr 0.255564  azGap 78.8832  secAzGap 80.3612  gtLevel -  minDist 5.579 maxDist 64.8328 medDist 24.88
QML_OriginUncertainty  horUnc -1  minHorUnc 0.387529  maxHorUnc 1.15697  azMaxHorUnc 32.4637
QML_ConfidenceEllipsoid  semiMajorAxisLength 1.56284  semiMinorAxisLength 0.435401  semiIntermediateAxisLength 0.901599  majorAxisPlunge -28.9153  majorAxisAzimuth 30.0307  majorAxisRotation 152.575
FOCALMECH  Hyp  35.694738 -117.489148 4.511719 Mech  0 0 0 mf  0 nObs -1
PHASE ID Ins Cmp On Pha  FM Date     HrMn   Sec     Err  ErrMag    Coda      Amp       Per       PriorWt  >   TTpred    Res       Weight    StaLoc(X  Y         Z)        SDist    SAzim  RAz  RDip RQual    Tcorr       TTerr
ST19         ?    ?    ? S      ? 20001213 1510    3.0900 GAU  2.00e-02 -1.00e+00 -1.00e+00 -1.00e+00    1.0000 >    2.4790   -0.4881    0.5622   47.2048   27.2984    0.0000    5.5790 168.92 168.9 116.2  9     0.0000    0.0500
ST13         ?    ?    ? P      ? 20001213 1510    2.6600 GAU  2.00e-02 -1.00e+00 -1.00e+00 -1.00e+00    1.0000 >    1.5312    0.0297    1.6572   52.0625   29.4778    0.0000    6.7840 119.06 119.1 118.6  9     0.0000    0.0500
ST13         ?    ?    ? S      ? 20001213 1510    3.8800 GAU  2.00e-02 -1.00e+00 -1.00e+00 -1.00e+00    1.0000 >    2.8159   -0.0350    1.6520   52.0625   29.4778    0.0000    6.7840 119.06 119.1 108.3  9     0.0000    0.0563
ST15         ?    ?    ? P      ? 20001213 1510    2.8000 GAU  2.00e-02 -1.00e+00 -1.00e+00 -1.00e+00    1.0000 >    2.2058   -0.5049    0.5415   38.9482   24.6853    0.0000   10.8184 221.61 221.6 105.1  9     0.0000    0.0500
ST15         ?    ?    ? S      ? 20001213 1510    4.3000 GAU  2.00e-02 -1.00e+00 -1.00e+00 -1.00e+00    1.0000 >    3.9992   -0.7983    0.4144   38.9482   24.6853    0.0000   10.8184 221.61 221.6  98.9  9     0.0000    0.0800
ST21         ?    ?    ? P      ? 20001213 1510    3.7000 GAU  2.00e-02 -1.00e+00 -1.00e+00 -1.00e+00    1.0000 >    2.6038   -0.0030    1.7075   36.1150   41.1978    0.0000   13.0892 310.06 310.1 100.5  9     0.0000    0.0521
ST21         ?    ?    ? S      ? 20001213 1510    5.7600 GAU  2.00e-02 -1.00e+00 -1.00e+00 -1.00e+00    1.0000 >    4.6729   -0.0121    1.5667   36.1150   41.1978    0.0000   13.0892 310.06 310.1  96.9  9     0.0000    0.0935
ST24         ?    ?    ? P      ? 20001213 1510    4.0800 GAU  2.00e-02 -1.00e+00 -1.00e+00 -1.00e+00    1.0000 >    2.8191    0.1618    0.8520   55.9556   22.3725    0.0000   14.3062 136.64 136.6  98.9  9     0.0000    0.0564
ST26         ?    ?    ? P      ? 20001213 1510    4.0500 GAU  2.00e-02 -1.00e+00 -1.00e+00 -1.00e+00    1.0000 >    2.8853    0.0656    1.4884   52.5727   19.5815    0.0000   14.6799 153.98 154.0  98.5  9     0.0000    0.0577
ST1          ?    ?    ? S      ? 20001213 1510    6.9200 GAU  2.00e-02 -1.00e+00 -1.00e+00 -1.00e+00    1.0000 >    5.7358    0.0850    1.2938   36.2928   46.2238    0.0000   16.6655 323.81 323.8  87.7  8     0.0000    0.1147
ST14         ?    ?    ? P      ? 20001213 1510    4.7300 GAU  2.00e-02 -1.00e+00 -1.00e+00 -1.00e+00    1.0000 >    3.6788   -0.0479    1.5802   58.1038   47.7138    0.0000   19.1447  38.70  38.7  95.6  9     0.0000    0.0736
ST14         ?    ?    ? S      ? 20001213 1510    7.5500 GAU  2.00e-02 -1.00e+00 -1.00e+00 -1.00e+00    1.0000 >    6.4303    0.0206    1.4061   58.1038   47.7138    0.0000   19.1447  38.70  38.7  68.3  8     0.0000    0.1286
ST17         ?    ?    ? S      ? 20001213 1510    8.1600 GAU  2.00e-02 -1.00e+00 -1.00e+00 -1.00e+00    1.0000 >    7.1106   -0.0497    1.3646   64.4820   21.0492    0.0000   21.7750 122.58 122.6  59.0  9     0.0000    0.1422
ST0          ?    ?    ? P      ? 20001213 1510    5.1500 GAU  2.00e-02 -1.00e+00 -1.00e+00 -1.00e+00    1.0000 >    4.1952   -0.1443    1.1760   57.5022   13.8883    0.0000   22.0434 148.95 149.0  94.6  9     0.0000    0.0839
ST7          ?    ?    ? P      ? 20001213 1510    5.4300 GAU  2.00e-02 -1.00e+00 -1.00e+00 -1.00e+00    1.0000 >    4.4731   -0.1422    1.1931   22.5319   32.5023    0.0000   23.6024 269.34 269.3  94.2  9     0.0000    0.0895
ST7          ?    ?    ? S      ? 20001213 1510    8.7700 GAU  2.00e-02 -1.00e+00 -1.00e+00 -1.00e+00    1.0000 >    7.5722    0.0987    1.1579   22.5319   32.5023    0.0000   23.6024 269.34 269.3  57.0 10     0.0000    0.1514
ST16         ?    ?    ? S      ? 20001213 1510    8.1200 GAU  2.00e-02 -1.00e+00 -1.00e+00 -1.00e+00    1.0000 >    7.8902   -0.8693    0.3777   39.8239    8.7066    0.0000   24.8800 194.69 194.7  56.2 10     0.0000    0.1578
ST8          ?    ?    ? P      ? 20001213 1510    6.5100 GAU  2.00e-02 -1.00e+00 -1.00e+00 -1.00e+00    1.0000 >    5.2498    0.1611    0.9494   21.2005   45.4232    0.0000   27.9577 296.90 296.9  93.3  9     0.0000    0.1050
ST6          ?    ?    ? S      ? 20001213 1510    9.7100 GAU  2.00e-02 -1.00e+00 -1.00e+00 -1.00e+00    1.0000 >    8.7956   -0.1847    1.0845   64.5535   54.5857    0.0000   28.5499  40.18  40.2  55.6 10     0.0000    0.1759
ST20         ?    ?    ? P      ? 20001213 1510    6.2200 GAU  2.00e-02 -1.00e+00 -1.00e+00 -1.00e+00    1.0000 >    5.4070   -0.2861    0.7513   26.5943   53.9852    0.0000   28.8391 317.35 317.4  93.2  9     0.0000    0.1081
ST4          ?    ?    ? P      ? 20001213 1510    5.8600 GAU  2.00e-02 -1.00e+00 -1.00e+00 -1.00e+00    1.0000 >    5.5354   -0.7746    0.4182   28.7854    8.8400    0.0000   29.5591 215.94 215.9  93.1  9     0.0000    0.1107
ST4          ?    ?    ? S      ? 20001213 1510    9.1700 GAU  2.00e-02 -1.00e+00 -1.00e+00 -1.00e+00    1.0000 >    9.0440   -0.9731    0.2874   28.7854    8.8400    0.0000   29.5591 215.94 215.9  55.5 10     0.0000    0.1809
ST22         ?    ?    ? P      ? 20001213 1510    6.6900 GAU  2.00e-02 -1.00e+00 -1.00e+00 -1.00e+00    1.0000 >    5.6265   -0.0356    1.4791   26.8589   55.8533    0.0000   30.0693 320.13 320.1  93.0  9     0.0000    0.1125
ST22         ?    ?    ? S      ? 20001213 1510   10.3300 GAU  2.00e-02 -1.00e+00 -1.00e+00 -1.00e+00    1.0000 >    9.1696    0.0613    1.1597   26.8589   55.8533    0.0000   30.0693 320.13 320.1  55.5 10     0.0000    0.1834
ST12         ?    ?    ? P      ? 20001213 1510    6.6400 GAU  2.00e-02 -1.00e+00 -1.00e+00 -1.00e+00    1.0000 >    5.9246   -0.3837    0.6437   31.4703   60.9238    0.0000   31.7400 332.49 332.5  92.9  9     0.0000    0.1185
ST9          ?    ?    ? S      ? 20001213 1510   11.9600 GAU  2.00e-02 -1.00e+00 -1.00e+00 -1.00e+00    1.0000 >   10.9941   -0.1332    1.1068    9.8992   23.1731    0.0000   37.4839 255.16 255.2  55.5 10     0.0000    0.2199
ST5          ?    ?    ? P      ? 20001213 1510    8.1300 GAU  2.00e-02 -1.00e+00 -1.00e+00 -1.00e+00    1.0000 >    7.4670   -0.4361    0.6305   45.9261   73.1552    0.0000   40.3823 359.71 359.7  92.1  9     0.0000    0.1493
ST3          ?    ?    ? P      ? 20001213 1510    8.2100 GAU  2.00e-02 -1.00e+00 -1.00e+00 -1.00e+00    1.0000 >    7.9596   -0.8487    0.3911   17.1949   64.7711    0.0000   43.1423 317.87 317.9  92.0  9     0.0000    0.1592
ST3          ?    ?    ? S      ? 20001213 1510   13.1500 GAU  2.00e-02 -1.00e+00 -1.00e+00 -1.00e+00    1.0000 >   12.3864   -0.3355    0.8483   17.1949   64.7711    0.0000   43.1423 317.87 317.9  55.5 10     0.0000    0.2477
ST10         ?    ?    ? P      ? 20001213 1510    8.3900 GAU  2.00e-02 -1.00e+00 -1.00e+00 -1.00e+00    1.0000 >    8.1946   -0.9037    0.3503   21.1066   69.5192    0.0000   44.4585 325.74 325.7  91.9  9     0.0000    0.1639
ST10         ?    ?    ? S      ? 20001213 1510   13.6400 GAU  2.00e-02 -1.00e+00 -1.00e+00 -1.00e+00    1.0000 >   12.7103   -0.1694    1.0270   21.1066   69.5192    0.0000   44.4585 325.74 325.7  55.5 10     0.0000    0.2542
ST2          ?    ?    ? S      ? 20001213 1510   18.8000 GAU  2.00e-02 -1.00e+00 -1.00e+00 -1.00e+00    1.0000 >   17.7236   -0.0228    0.8814   36.5585   96.8954    0.0000   64.8328 351.51 351.5  55.5 10     0.0000    0.3545
END_PHASE
END_NLLOC

