NLLOC "./loc/alaska.20001213.151001_002.grid0" "LOCATED" "Location completed."
PUBLIC_ID None
SIGNATURE "NonLinLoc - Yifan Yu   obs:./obs/phase.obs   NLLoc:v7.00.16(17Apr2023)   run:24Aug2023 11h38m46"
COMMENT "2023-8-21 test"
GRID  201 201 41  0 0 0  0.5 0.5 0.5 PROB_DENSITY
SEARCH OCTREE nInitial 400 nEvaluated 20000 smallestNodeSide 0.078125/0.078125/0.039062 oct_tree_integral 8.435379e-01 scatter_volume 8.435379e-01
HYPOCENTER  x 47.3828 y 30.1172 z 3.41797  OT 0.99574  ix -1 iy -1 iz -1 MAXIMUM_LIKELIHOOD
GEOGRAPHIC  OT 2000 12 13  15 10 0.995740  Lat 35.670850 Long -117.475463 Depth 3.417969
QUALITY  Pmax 6.71177e+86 MFmin 51.086 MFmax 51.9514 RMS 0.19186 Nphs 30 Gap 62.7209 Dist 2.82441 Mamp -9.90 0 Mdur -9.90 0
VPVSRATIO  VpVsRatio 1.62359  Npair 8  Diff 6.55
STATISTICS  ExpectX 47.406072 Y 30.318317 Z 2.719557  CovXX 0.0781866 XY -0.0155188 XZ 0.0653957 YY 0.178179 YZ -0.192947 ZZ 0.698149 EllAz1  95.4838 Dip1  -7.58617 Len1  0.500372 Az2  7.86905 Dip2  17.3536 Len2  0.637605 Len3  1.646975e+00
STAT_GEOG  ExpectLat 35.672659 Long -117.475194 Depth 2.719557
TRANSFORM  SIMPLE LatOrig 35.400000  LongOrig -118.000000  RotCW 0.000000
QML_OriginQuality  assocPhCt 30  usedPhCt 30  assocStaCt -1  usedStaCt 22  depthPhCt -1  stdErr 0.19186  azGap 62.7209  secAzGap 66.4276  gtLevel -  minDist 2.82441 maxDist 67.6498 medDist 20.0803
QML_OriginUncertainty  horUnc -1  minHorUnc 0.417633  maxHorUnc 0.644379  azMaxHorUnc 171.378
QML_ConfidenceEllipsoid  semiMajorAxisLength 1.64698  semiMinorAxisLength 0.500372  semiIntermediateAxisLength 0.637605  majorAxisPlunge 70.963  majorAxisAzimuth 162.779  majorAxisRotation 150.653
FOCALMECH  Hyp  35.670850 -117.475463 3.417969 Mech  0 0 0 mf  0 nObs -1
PHASE ID Ins Cmp On Pha  FM Date     HrMn   Sec     Err  ErrMag    Coda      Amp       Per       PriorWt  >   TTpred    Res       Weight    StaLoc(X  Y         Z)        SDist    SAzim  RAz  RDip RQual    Tcorr       TTerr
ST19         ?    ?    ? P      ? 20001213 1510    1.6500 GAU  2.00e-02 -1.00e+00 -1.00e+00 -1.00e+00    1.0000 >    0.8376   -0.1834    1.2315   47.2048   27.2984    0.0000    2.8244 183.61 183.6 140.6  9     0.0000    0.0500
ST13         ?    ?    ? P      ? 20001213 1510    2.1300 GAU  2.00e-02 -1.00e+00 -1.00e+00 -1.00e+00    1.0000 >    1.1016    0.0327    1.6259   52.0625   29.4778    0.0000    4.7231  97.78  97.8 125.4  9     0.0000    0.0500
ST13         ?    ?    ? S      ? 20001213 1510    2.9500 GAU  2.00e-02 -1.00e+00 -1.00e+00 -1.00e+00    1.0000 >    2.0842   -0.1299    1.5023   52.0625   29.4778    0.0000    4.7231  97.78  97.8 116.8  9     0.0000    0.0500
ST18         ?    ?    ? P      ? 20001213 1510    2.6200 GAU  2.00e-02 -1.00e+00 -1.00e+00 -1.00e+00    1.0000 >    1.6597   -0.0354    1.7405   45.8666   22.1945    0.0000    8.0664 190.83 190.8 112.7  9     0.0000    0.0500
ST15         ?    ?    ? P      ? 20001213 1510    3.0100 GAU  2.00e-02 -1.00e+00 -1.00e+00 -1.00e+00    1.0000 >    2.0082    0.0060    1.7194   38.9482   24.6853    0.0000   10.0324 237.22 237.2 108.9  9     0.0000    0.0500
ST23         ?    ?    ? P      ? 20001213 1510    3.1400 GAU  2.00e-02 -1.00e+00 -1.00e+00 -1.00e+00    1.0000 >    2.0831    0.0612    1.4566   38.6464   35.8493    0.0000   10.4490 303.27 303.3 108.2  9     0.0000    0.0500
ST24         ?    ?    ? S      ? 20001213 1510    5.5400 GAU  2.00e-02 -1.00e+00 -1.00e+00 -1.00e+00    1.0000 >    4.2458    0.2985    0.6110   55.9556   22.3725    0.0000   11.5531 132.09 132.1  83.7  8     0.0000    0.0849
ST26         ?    ?    ? S      ? 20001213 1510    5.3500 GAU  2.00e-02 -1.00e+00 -1.00e+00 -1.00e+00    1.0000 >    4.3057    0.0486    1.5112   52.5727   19.5815    0.0000   11.7446 153.78 153.8  82.7  8     0.0000    0.0861
ST25         ?    ?    ? S      ? 20001213 1510    5.2200 GAU  2.00e-02 -1.00e+00 -1.00e+00 -1.00e+00    1.0000 >    4.3630   -0.1387    1.4732   35.8320   33.0917    0.0000   11.9276 284.44 284.4  81.8  8     0.0000    0.0873
ST0          ?    ?    ? P      ? 20001213 1510    5.2600 GAU  2.00e-02 -1.00e+00 -1.00e+00 -1.00e+00    1.0000 >    3.6759    0.5884    0.3921   57.5022   13.8883    0.0000   19.1254 148.05 148.1  93.3  9     0.0000    0.0735
ST17         ?    ?    ? P      ? 20001213 1510    5.2200 GAU  2.00e-02 -1.00e+00 -1.00e+00 -1.00e+00    1.0000 >    3.7185    0.5058    0.4445   64.4820   21.0492    0.0000   19.3548 117.94 117.9  92.9  9     0.0000    0.0744
ST1          ?    ?    ? P      ? 20001213 1510    5.0300 GAU  2.00e-02 -1.00e+00 -1.00e+00 -1.00e+00    1.0000 >    3.7557    0.2785    0.6192   36.2928   46.2238    0.0000   19.5553 325.45 325.5  92.4  9     0.0000    0.0751
ST14         ?    ?    ? P      ? 20001213 1510    4.8900 GAU  2.00e-02 -1.00e+00 -1.00e+00 -1.00e+00    1.0000 >    3.9508   -0.0566    1.7069   58.1038   47.7138    0.0000   20.6053  31.35  31.4  90.1  9     0.0000    0.0790
ST14         ?    ?    ? S      ? 20001213 1510    7.9400 GAU  2.00e-02 -1.00e+00 -1.00e+00 -1.00e+00    1.0000 >    6.9702   -0.0260    1.5174   58.1038   47.7138    0.0000   20.6053  31.35  31.4  62.3  9     0.0000    0.1394
ST7          ?    ?    ? P      ? 20001213 1510    5.8800 GAU  2.00e-02 -1.00e+00 -1.00e+00 -1.00e+00    1.0000 >    4.7432    0.1410    1.0905   22.5319   32.5023    0.0000   24.9651 275.48 275.5  79.0  8     0.0000    0.0949
ST7          ?    ?    ? S      ? 20001213 1510    9.7300 GAU  2.00e-02 -1.00e+00 -1.00e+00 -1.00e+00    1.0000 >    8.1162    0.6181    0.3784   22.5319   32.5023    0.0000   24.9651 275.48 275.5  50.3  9     0.0000    0.1623
ST4          ?    ?    ? P      ? 20001213 1510    6.2300 GAU  2.00e-02 -1.00e+00 -1.00e+00 -1.00e+00    1.0000 >    5.3345   -0.1003    1.5608   28.7854    8.8400    0.0000   28.2592 221.16 221.2  73.2  8     0.0000    0.1067
ST4          ?    ?    ? S      ? 20001213 1510    9.5800 GAU  2.00e-02 -1.00e+00 -1.00e+00 -1.00e+00    1.0000 >    8.9331   -0.3488    0.7077   28.7854    8.8400    0.0000   28.2592 221.16 221.2  49.1  9     0.0000    0.1787
ST6          ?    ?    ? P      ? 20001213 1510    6.4300 GAU  2.00e-02 -1.00e+00 -1.00e+00 -1.00e+00    1.0000 >    5.6264   -0.1922    1.2172   64.5535   54.5857    0.0000   29.8921  35.06  35.1  72.1  9     0.0000    0.1125
ST22         ?    ?    ? P      ? 20001213 1510    7.3600 GAU  2.00e-02 -1.00e+00 -1.00e+00 -1.00e+00    1.0000 >    6.1668    0.1975    0.9509   26.8589   55.8533    0.0000   32.9178 321.43 321.4  71.3  9     0.0000    0.1233
ST22         ?    ?    ? S      ? 20001213 1510   11.5000 GAU  2.00e-02 -1.00e+00 -1.00e+00 -1.00e+00    1.0000 >   10.0801    0.4242    0.6290   26.8589   55.8533    0.0000   32.9178 321.43 321.4  49.0  9     0.0000    0.2016
ST12         ?    ?    ? P      ? 20001213 1510    7.3700 GAU  2.00e-02 -1.00e+00 -1.00e+00 -1.00e+00    1.0000 >    6.4803   -0.1061    1.4805   31.4703   60.9238    0.0000   34.6735 332.68 332.7  71.2 10     0.0000    0.1296
ST9          ?    ?    ? P      ? 20001213 1510    7.8800 GAU  2.00e-02 -1.00e+00 -1.00e+00 -1.00e+00    1.0000 >    7.0960   -0.2118    1.1270    9.8992   23.1731    0.0000   38.1215 259.50 259.5  71.2 10     0.0000    0.1419
ST9          ?    ?    ? S      ? 20001213 1510   13.0400 GAU  2.00e-02 -1.00e+00 -1.00e+00 -1.00e+00    1.0000 >   11.3605    0.6837    0.3234    9.8992   23.1731    0.0000   38.1215 259.50 259.5  49.0  9     0.0000    0.2272
ST5          ?    ?    ? P      ? 20001213 1510    8.4900 GAU  2.00e-02 -1.00e+00 -1.00e+00 -1.00e+00    1.0000 >    7.9784   -0.4842    0.3837   45.9261   73.1552    0.0000   43.0627 358.06 358.1  71.2 10     0.0000    0.1596
ST3          ?    ?    ? P      ? 20001213 1510    8.8000 GAU  2.00e-02 -1.00e+00 -1.00e+00 -1.00e+00    1.0000 >    8.4956   -0.6913    0.2295   17.1949   64.7711    0.0000   45.9587 318.94 318.9  71.2 10     0.0000    0.1699
ST3          ?    ?    ? S      ? 20001213 1510   14.3900 GAU  2.00e-02 -1.00e+00 -1.00e+00 -1.00e+00    1.0000 >   13.2890    0.1053    1.1156   17.1949   64.7711    0.0000   45.9587 318.94 318.9  49.0  9     0.0000    0.2658
ST10         ?    ?    ? P      ? 20001213 1510    8.9900 GAU  2.00e-02 -1.00e+00 -1.00e+00 -1.00e+00    1.0000 >    8.7458   -0.7515    0.2025   21.1066   69.5192    0.0000   47.3599 326.30 326.3  71.2 10     0.0000    0.1749
ST2          ?    ?    ? P      ? 20001213 1510   12.1100 GAU  2.00e-02 -1.00e+00 -1.00e+00 -1.00e+00    1.0000 >   12.1183   -1.0041    0.1061   36.5585   96.8954    0.0000   67.6498 350.79 350.8  51.9 10     0.0000    0.2424
ST2          ?    ?    ? S      ? 20001213 1510   19.4800 GAU  2.00e-02 -1.00e+00 -1.00e+00 -1.00e+00    1.0000 >   18.6264   -0.1421    0.9453   36.5585   96.8954    0.0000   67.6498 350.79 350.8  49.0  9     0.0000    0.3725
END_PHASE
END_NLLOC

