NLLOC "./loc/alaska.20001213.151001_014.grid0" "LOCATED" "Location completed."
PUBLIC_ID None
SIGNATURE "NonLinLoc - Yifan Yu   obs:./obs/phase.obs   NLLoc:v7.00.16(17Apr2023)   run:21Aug2023 13h19m36"
COMMENT "2023-8-21 test"
GRID  201 201 41  0 0 0  0.5 0.5 0.5 PROB_DENSITY
SEARCH OCTREE nInitial 400 nEvaluated 7128 smallestNodeSide 0.019531/0.019531/0.009766 oct_tree_integral 3.338187e-02 scatter_volume 3.338187e-02
HYPOCENTER  x 40.2441 y 34.9316 z 0.00488281  OT 1.27977  ix -1 iy -1 iz -1 MAXIMUM_LIKELIHOOD
GEOGRAPHIC  OT 2000 12 13  15 10 1.279765  Lat 35.714147 Long -117.554248 Depth 0.004883
QUALITY  Pmax 2.77997e+183 MFmin 92.764 MFmax 92.7783 RMS 0.185229 Nphs 54 Gap 60.3633 Dist 1.84249 Mamp -9.90 0 Mdur -9.90 0
VPVSRATIO  VpVsRatio 1.70512  Npair 27  Diff 6.74
STATISTICS  ExpectX 40.231997 Y 34.937615 Z 0.437775  CovXX 0.0107285 XY 0.00398991 XZ -0.00382955 YY 0.0120021 YZ -0.00109449 ZZ 0.131331 EllAz1  310.046 Dip1  -1.02873 Len1  0.160366 Az2  220.017 Dip2  -1.62958 Len2  0.232484 Len3  6.812274e-01
STAT_GEOG  ExpectLat 35.714201 Long -117.554382 Depth 0.437775
TRANSFORM  SIMPLE LatOrig 35.400000  LongOrig -118.000000  RotCW 0.000000
QML_OriginQuality  assocPhCt 54  usedPhCt 54  assocStaCt -1  usedStaCt 27  depthPhCt -1  stdErr 0.185229  azGap 60.3633  secAzGap 60.3633  gtLevel -  minDist 1.84249 maxDist 62.0733 medDist 23.4384
QML_OriginUncertainty  horUnc -1  minHorUnc 0.129797  maxHorUnc 0.188237  azMaxHorUnc 40.4662
QML_ConfidenceEllipsoid  semiMajorAxisLength 0.681227  semiMinorAxisLength 0.160366  semiIntermediateAxisLength 0.232484  majorAxisPlunge -88.0727  majorAxisAzimuth 72.2969  majorAxisRotation 147.676
FOCALMECH  Hyp  35.714147 -117.554248 0.004883 Mech  0 0 0 mf  0 nObs -1
PHASE ID Ins Cmp On Pha  FM Date     HrMn   Sec     Err  ErrMag    Coda      Amp       Per       PriorWt  >   TTpred    Res       Weight    StaLoc(X  Y         Z)        SDist    SAzim  RAz  RDip RQual    Tcorr       TTerr
ST23         ?    ?    ? P      ? 20001213 1510    1.5100 GAU  2.00e-02 -1.00e+00 -1.00e+00 -1.00e+00    1.0000 >    0.3478   -0.1175    1.1575   38.6464   35.8493    0.0000    1.8425 299.87 119.9 200.0  0     0.0000    0.0500
ST23         ?    ?    ? S      ? 20001213 1510    1.8400 GAU  2.00e-02 -1.00e+00 -1.00e+00 -1.00e+00    1.0000 >    0.6123   -0.0521    1.9020   38.6464   35.8493    0.0000    1.8425 299.87 119.9 200.0  0     0.0000    0.0500
ST25         ?    ?    ? P      ? 20001213 1510    2.1600 GAU  2.00e-02 -1.00e+00 -1.00e+00 -1.00e+00    1.0000 >    0.9020   -0.0218    2.1152   35.8320   33.0917    0.0000    4.7804 247.36  67.4 200.0  0     0.0000    0.0500
ST25         ?    ?    ? S      ? 20001213 1510    2.9100 GAU  2.00e-02 -1.00e+00 -1.00e+00 -1.00e+00    1.0000 >    1.5883    0.0420    1.9518   35.8320   33.0917    0.0000    4.7804 247.36  67.4 200.0  0     0.0000    0.0500
ST21         ?    ?    ? P      ? 20001213 1510    2.7100 GAU  2.00e-02 -1.00e+00 -1.00e+00 -1.00e+00    1.0000 >    1.4160    0.0143    2.1272   36.1150   41.1978    0.0000    7.5043 326.62 146.6 200.0  0     0.0000    0.0500
ST21         ?    ?    ? S      ? 20001213 1510    3.8200 GAU  2.00e-02 -1.00e+00 -1.00e+00 -1.00e+00    1.0000 >    2.4932    0.0470    1.9058   36.1150   41.1978    0.0000    7.5043 326.62 146.6 200.0  0     0.0000    0.0500
ST15         ?    ?    ? P      ? 20001213 1510    3.2300 GAU  2.00e-02 -1.00e+00 -1.00e+00 -1.00e+00    1.0000 >    1.9487    0.0015    2.1558   38.9482   24.6853    0.0000   10.3280 187.21   7.2 200.0  0     0.0000    0.0500
ST15         ?    ?    ? S      ? 20001213 1510    4.7000 GAU  2.00e-02 -1.00e+00 -1.00e+00 -1.00e+00    1.0000 >    3.4313   -0.0111    1.9821   38.9482   24.6853    0.0000   10.3280 187.21   7.2 200.0  0     0.0000    0.0686
ST19         ?    ?    ? P      ? 20001213 1510    3.2100 GAU  2.00e-02 -1.00e+00 -1.00e+00 -1.00e+00    1.0000 >    1.9492   -0.0189    2.1265   47.2048   27.2984    0.0000   10.3304 137.64 317.6 200.0  0     0.0000    0.0500
ST19         ?    ?    ? S      ? 20001213 1510    4.7000 GAU  2.00e-02 -1.00e+00 -1.00e+00 -1.00e+00    1.0000 >    3.4321   -0.0119    1.9808   47.2048   27.2984    0.0000   10.3304 137.64 317.6 200.0  0     0.0000    0.0686
ST1          ?    ?    ? P      ? 20001213 1510    3.7700 GAU  2.00e-02 -1.00e+00 -1.00e+00 -1.00e+00    1.0000 >    2.2573    0.2329    0.7920   36.2928   46.2238    0.0000   11.9635 340.71 160.7 200.0  0     0.0000    0.0500
ST1          ?    ?    ? S      ? 20001213 1510    5.5600 GAU  2.00e-02 -1.00e+00 -1.00e+00 -1.00e+00    1.0000 >    3.9747    0.3056    0.8670   36.2928   46.2238    0.0000   11.9635 340.71 160.7 200.0  0     0.0000    0.0795
ST13         ?    ?    ? P      ? 20001213 1510    3.7300 GAU  2.00e-02 -1.00e+00 -1.00e+00 -1.00e+00    1.0000 >    2.4559   -0.0057    2.1561   52.0625   29.4778    0.0000   13.0160 114.77 294.8 200.0  0     0.0000    0.0500
ST13         ?    ?    ? S      ? 20001213 1510    5.6000 GAU  2.00e-02 -1.00e+00 -1.00e+00 -1.00e+00    1.0000 >    4.3243   -0.0041    1.8345   52.0625   29.4778    0.0000   13.0160 114.77 294.8 200.0  0     0.0000    0.0865
ST18         ?    ?    ? P      ? 20001213 1510    3.9300 GAU  2.00e-02 -1.00e+00 -1.00e+00 -1.00e+00    1.0000 >    2.6270    0.0232    2.0670   45.8666   22.1945    0.0000   13.9229 156.18 336.2 200.0  0     0.0000    0.0525
ST18         ?    ?    ? S      ? 20001213 1510    5.8900 GAU  2.00e-02 -1.00e+00 -1.00e+00 -1.00e+00    1.0000 >    4.6256   -0.0154    1.7766   45.8666   22.1945    0.0000   13.9229 156.18 336.2 200.0  0     0.0000    0.0925
ST7          ?    ?    ? P      ? 20001213 1510    5.2700 GAU  2.00e-02 -1.00e+00 -1.00e+00 -1.00e+00    1.0000 >    3.3732    0.6170    0.2755   22.5319   32.5023    0.0000   17.8780 262.19  82.2 200.0  0     0.0000    0.0675
ST7          ?    ?    ? S      ? 20001213 1510    8.3500 GAU  2.00e-02 -1.00e+00 -1.00e+00 -1.00e+00    1.0000 >    5.9396    1.1306    0.0352   22.5319   32.5023    0.0000   17.8780 262.19  82.2 200.0  0     0.0000    0.1188
ST26         ?    ?    ? P      ? 20001213 1510    5.3200 GAU  2.00e-02 -1.00e+00 -1.00e+00 -1.00e+00    1.0000 >    3.7148    0.3255    0.8581   52.5727   19.5815    0.0000   19.6881 141.23 321.2 200.0  0     0.0000    0.0743
ST26         ?    ?    ? S      ? 20001213 1510    8.2600 GAU  2.00e-02 -1.00e+00 -1.00e+00 -1.00e+00    1.0000 >    6.5409    0.4393    0.6735   52.5727   19.5815    0.0000   19.6881 141.23 321.2 200.0  0     0.0000    0.1308
ST24         ?    ?    ? P      ? 20001213 1510    5.4200 GAU  2.00e-02 -1.00e+00 -1.00e+00 -1.00e+00    1.0000 >    3.7952    0.3451    0.8400   55.9556   22.3725    0.0000   20.1143 128.64 308.6 200.0  0     0.0000    0.0759
ST24         ?    ?    ? S      ? 20001213 1510    8.4500 GAU  2.00e-02 -1.00e+00 -1.00e+00 -1.00e+00    1.0000 >    6.6825    0.4877    0.5848   55.9556   22.3725    0.0000   20.1143 128.64 308.6 200.0  0     0.0000    0.1337
ST8          ?    ?    ? P      ? 20001213 1510    6.2200 GAU  2.00e-02 -1.00e+00 -1.00e+00 -1.00e+00    1.0000 >    4.1024    0.8379    0.0739   21.2005   45.4232    0.0000   21.7424 298.85 118.9 200.0  0     0.0000    0.0820
ST8          ?    ?    ? S      ? 20001213 1510    9.8900 GAU  2.00e-02 -1.00e+00 -1.00e+00 -1.00e+00    1.0000 >    7.2234    1.3868    0.0227   21.2005   45.4232    0.0000   21.7424 298.85 118.9 200.0  0     0.0000    0.1445
ST14         ?    ?    ? P      ? 20001213 1510    5.4100 GAU  2.00e-02 -1.00e+00 -1.00e+00 -1.00e+00    1.0000 >    4.1439   -0.0137    1.8555   58.1038   47.7138    0.0000   21.9625  54.41 234.4 200.0  0     0.0000    0.0829
ST14         ?    ?    ? S      ? 20001213 1510    8.4300 GAU  2.00e-02 -1.00e+00 -1.00e+00 -1.00e+00    1.0000 >    7.2965   -0.1463    1.0868   58.1038   47.7138    0.0000   21.9625  54.41 234.4 200.0  0     0.0000    0.1459
ST20         ?    ?    ? P      ? 20001213 1510    6.1600 GAU  2.00e-02 -1.00e+00 -1.00e+00 -1.00e+00    1.0000 >    4.4224    0.4579    0.6237   26.5943   53.9852    0.0000   23.4384 324.38 144.4 200.0  0     0.0000    0.0884
ST20         ?    ?    ? S      ? 20001213 1510    9.7100 GAU  2.00e-02 -1.00e+00 -1.00e+00 -1.00e+00    1.0000 >    7.7869    0.6434    0.3392   26.5943   53.9852    0.0000   23.4384 324.38 144.4 200.0  0     0.0000    0.1557
ST22         ?    ?    ? P      ? 20001213 1510    6.3300 GAU  2.00e-02 -1.00e+00 -1.00e+00 -1.00e+00    1.0000 >    4.6863    0.3640    0.8070   26.8589   55.8533    0.0000   24.8371 327.39 147.4 200.0  0     0.0000    0.0937
ST22         ?    ?    ? S      ? 20001213 1510    9.9900 GAU  2.00e-02 -1.00e+00 -1.00e+00 -1.00e+00    1.0000 >    8.2516    0.4587    0.6471   26.8589   55.8533    0.0000   24.8371 327.39 147.4 200.0  0     0.0000    0.1650
ST16         ?    ?    ? P      ? 20001213 1510    6.2500 GAU  2.00e-02 -1.00e+00 -1.00e+00 -1.00e+00    1.0000 >    4.9488    0.0214    1.7257   39.8239    8.7066    0.0000   26.2284 180.92   0.9 200.0  0     0.0000    0.0990
ST16         ?    ?    ? S      ? 20001213 1510    9.8200 GAU  2.00e-02 -1.00e+00 -1.00e+00 -1.00e+00    1.0000 >    8.7138   -0.1736    0.9816   39.8239    8.7066    0.0000   26.2284 180.92   0.9 200.0  0     0.0000    0.1743
ST0          ?    ?    ? P      ? 20001213 1510    6.7400 GAU  2.00e-02 -1.00e+00 -1.00e+00 -1.00e+00    1.0000 >    5.1350    0.3253    0.8520   57.5022   13.8883    0.0000   27.2151 140.64 320.6 200.0  0     0.0000    0.1027
ST0          ?    ?    ? S      ? 20001213 1510   10.6000 GAU  2.00e-02 -1.00e+00 -1.00e+00 -1.00e+00    1.0000 >    9.0416    0.2786    0.9909   57.5022   13.8883    0.0000   27.2151 140.64 320.6 200.0  0     0.0000    0.1808
ST12         ?    ?    ? P      ? 20001213 1510    6.5100 GAU  2.00e-02 -1.00e+00 -1.00e+00 -1.00e+00    1.0000 >    5.1761    0.0542    1.6217   31.4703   60.9238    0.0000   27.4330 341.35 161.3 200.0  0     0.0000    0.1035
ST12         ?    ?    ? S      ? 20001213 1510   10.2300 GAU  2.00e-02 -1.00e+00 -1.00e+00 -1.00e+00    1.0000 >    9.1140   -0.1638    1.0081   31.4703   60.9238    0.0000   27.4330 341.35 161.3 200.0  0     0.0000    0.1823
ST17         ?    ?    ? P      ? 20001213 1510    6.8100 GAU  2.00e-02 -1.00e+00 -1.00e+00 -1.00e+00    1.0000 >    5.2702    0.2600    0.9303   64.4820   21.0492    0.0000   27.9320 119.80 299.8 200.0  0     0.0000    0.1054
ST17         ?    ?    ? S      ? 20001213 1510   10.7200 GAU  2.00e-02 -1.00e+00 -1.00e+00 -1.00e+00    1.0000 >    9.2798    0.1605    1.2160   64.4820   21.0492    0.0000   27.9320 119.80 299.8 200.0  0     0.0000    0.1856
ST4          ?    ?    ? P      ? 20001213 1510    6.6000 GAU  2.00e-02 -1.00e+00 -1.00e+00 -1.00e+00    1.0000 >    5.3768   -0.0566    1.5624   28.7854    8.8400    0.0000   28.4969 203.71  23.7 200.0  0     0.0000    0.1075
ST4          ?    ?    ? S      ? 20001213 1510   10.4900 GAU  2.00e-02 -1.00e+00 -1.00e+00 -1.00e+00    1.0000 >    9.4675   -0.2572    0.7441   28.7854    8.8400    0.0000   28.4969 203.71  23.7 200.0  0     0.0000    0.1893
ST6          ?    ?    ? P      ? 20001213 1510    6.7500 GAU  2.00e-02 -1.00e+00 -1.00e+00 -1.00e+00    1.0000 >    5.8982   -0.4280    0.2987   64.5535   54.5857    0.0000   31.2606  51.04 231.0 200.0  0     0.0000    0.1180
ST6          ?    ?    ? S      ? 20001213 1510   10.7000 GAU  2.00e-02 -1.00e+00 -1.00e+00 -1.00e+00    1.0000 >   10.3856   -0.9654    0.1552   64.5535   54.5857    0.0000   31.2606  51.04 231.0 200.0  0     0.0000    0.2077
ST9          ?    ?    ? P      ? 20001213 1510    7.5100 GAU  2.00e-02 -1.00e+00 -1.00e+00 -1.00e+00    1.0000 >    6.1403    0.0899    1.4529    9.8992   23.1731    0.0000   32.5435 248.82  68.8 200.0  0     0.0000    0.1228
ST9          ?    ?    ? S      ? 20001213 1510   12.2200 GAU  2.00e-02 -1.00e+00 -1.00e+00 -1.00e+00    1.0000 >   10.8118    0.1284    1.2082    9.8992   23.1731    0.0000   32.5435 248.82  68.8 200.0  0     0.0000    0.2162
ST3          ?    ?    ? P      ? 20001213 1510    8.0000 GAU  2.00e-02 -1.00e+00 -1.00e+00 -1.00e+00    1.0000 >    7.1142   -0.3939    0.3621   17.1949   64.7711    0.0000   37.7049 322.32 142.3 200.0  0     0.0000    0.1423
ST3          ?    ?    ? S      ? 20001213 1510   12.9100 GAU  2.00e-02 -1.00e+00 -1.00e+00 -1.00e+00    1.0000 >   12.5266   -0.8963    0.1719   17.1949   64.7711    0.0000   37.7049 322.32 142.3 200.0  0     0.0000    0.2505
ST5          ?    ?    ? P      ? 20001213 1510    8.1000 GAU  2.00e-02 -1.00e+00 -1.00e+00 -1.00e+00    1.0000 >    7.2913   -0.4710    0.2890   45.9261   73.1552    0.0000   38.6436   8.46 188.5 200.0  0     0.0000    0.1458
ST5          ?    ?    ? S      ? 20001213 1510   12.8300 GAU  2.00e-02 -1.00e+00 -1.00e+00 -1.00e+00    1.0000 >   12.8384   -1.2882    0.1293   45.9261   73.1552    0.0000   38.6436   8.46 188.5 200.0  0     0.0000    0.2568
ST10         ?    ?    ? P      ? 20001213 1510    8.1900 GAU  2.00e-02 -1.00e+00 -1.00e+00 -1.00e+00    1.0000 >    7.4583   -0.5481    0.2353   21.1066   69.5192    0.0000   39.5290 331.04 151.0 200.0  0     0.0000    0.1492
ST10         ?    ?    ? S      ? 20001213 1510   13.2200 GAU  2.00e-02 -1.00e+00 -1.00e+00 -1.00e+00    1.0000 >   13.1326   -1.1924    0.1433   21.1066   69.5192    0.0000   39.5290 331.04 151.0 200.0  0     0.0000    0.2627
ST11         ?    ?    ? P      ? 20001213 1510   10.1100 GAU  2.00e-02 -1.00e+00 -1.00e+00 -1.00e+00    1.0000 >    9.8636   -1.0334    0.1524   13.0335   79.7825    0.0000   52.4596 328.76 148.8 200.0  0     0.0000    0.1973
ST11         ?    ?    ? S      ? 20001213 1510   16.7500 GAU  2.00e-02 -1.00e+00 -1.00e+00 -1.00e+00    1.0000 >   17.3689   -1.8986    0.0347   13.0335   79.7825    0.0000   52.4596 328.76 148.8 200.0  0     0.0000    0.3474
ST2          ?    ?    ? P      ? 20001213 1510   11.4700 GAU  2.00e-02 -1.00e+00 -1.00e+00 -1.00e+00    1.0000 >   11.5664   -1.3761    0.1119   36.5585   96.8954    0.0000   62.0733 356.60 176.6 200.0  0     0.0000    0.2313
ST2          ?    ?    ? S      ? 20001213 1510   18.5400 GAU  2.00e-02 -1.00e+00 -1.00e+00 -1.00e+00    1.0000 >   20.3687   -3.1085    0.0016   36.5585   96.8954    0.0000   62.0733 356.60 176.6 200.0  0     0.0000    0.4074
END_PHASE
END_NLLOC

