NLLOC "./loc/alaska.20001213.151002_032.grid0" "LOCATED" "Location completed."
PUBLIC_ID None
SIGNATURE "NonLinLoc - Yifan Yu   obs:./obs/phase.obs   NLLoc:v7.00.16(17Apr2023)   run:24Aug2023 11h39m33"
COMMENT "2023-8-21 test"
GRID  201 201 41  0 0 0  0.5 0.5 0.5 PROB_DENSITY
SEARCH OCTREE nInitial 400 nEvaluated 20000 smallestNodeSide 0.039062/0.039062/0.019531 oct_tree_integral 4.383826e-01 scatter_volume 4.265258e-01
HYPOCENTER  x 38.0273 y 33.6133 z 8.99414  OT 0.958787  ix -1 iy -1 iz -1 MAXIMUM_LIKELIHOOD
GEOGRAPHIC  OT 2000 12 13  15 10 0.958787  Lat 35.702291 Long -117.578864 Depth 8.994141
QUALITY  Pmax 2.16077e+106 MFmin 59.0718 MFmax 59.6371 RMS 0.164557 Nphs 34 Gap 51.4996 Dist 2.25647 Mamp -9.90 0 Mdur -9.90 0
VPVSRATIO  VpVsRatio 1.72342  Npair 9  Diff 5.95
STATISTICS  ExpectX 38.018996 Y 33.657364 Z 9.182673  CovXX 0.0950493 XY 0.0193516 XZ -0.0508909 YY 0.0433863 YZ 0.0268001 ZZ 0.846419 EllAz1  339.781 Dip1  -3.01407 Len1  0.350265 Az2  249.626 Dip2  -2.94105 Len2  0.592494 Len3  1.732860e+00
STAT_GEOG  ExpectLat 35.702688 Long -117.578955 Depth 9.182673
TRANSFORM  SIMPLE LatOrig 35.400000  LongOrig -118.000000  RotCW 0.000000
QML_OriginQuality  assocPhCt 34  usedPhCt 34  assocStaCt -1  usedStaCt 25  depthPhCt -1  stdErr 0.164557  azGap 51.4996  secAzGap 73.7625  gtLevel -  minDist 2.25647 maxDist 63.2992 medDist 24.8868
QML_OriginUncertainty  horUnc -1  minHorUnc 0.291489  maxHorUnc 0.483152  azMaxHorUnc 71.5807
QML_ConfidenceEllipsoid  semiMajorAxisLength 1.73286  semiMinorAxisLength 0.350265  semiIntermediateAxisLength 0.592494  majorAxisPlunge -85.7869  majorAxisAzimuth 115.405  majorAxisRotation 133.987
FOCALMECH  Hyp  35.702291 -117.578864 8.994141 Mech  0 0 0 mf  0 nObs -1
PHASE ID Ins Cmp On Pha  FM Date     HrMn   Sec     Err  ErrMag    Coda      Amp       Per       PriorWt  >   TTpred    Res       Weight    StaLoc(X  Y         Z)        SDist    SAzim  RAz  RDip RQual    Tcorr       TTerr
ST25         ?    ?    ? P      ? 20001213 1510    2.4100 GAU  2.00e-02 -1.00e+00 -1.00e+00 -1.00e+00    1.0000 >    1.7055   -0.2543    0.7753   35.8320   33.0917    0.0000    2.2565 256.63 256.6 164.3  9     0.0000    0.0500
ST25         ?    ?    ? S      ? 20001213 1510    3.3600 GAU  2.00e-02 -1.00e+00 -1.00e+00 -1.00e+00    1.0000 >    2.8588   -0.4576    0.4190   35.8320   33.0917    0.0000    2.2565 256.63 256.6 161.6  9     0.0000    0.0572
ST21         ?    ?    ? P      ? 20001213 1510    3.1400 GAU  2.00e-02 -1.00e+00 -1.00e+00 -1.00e+00    1.0000 >    2.1835   -0.0023    1.7597   36.1150   41.1978    0.0000    7.8219 345.85 345.8 136.2  9     0.0000    0.0500
ST15         ?    ?    ? P      ? 20001213 1510    3.3300 GAU  2.00e-02 -1.00e+00 -1.00e+00 -1.00e+00    1.0000 >    2.3260    0.0452    1.5687   38.9482   24.6853    0.0000    8.9753 174.11 174.1 130.2  9     0.0000    0.0500
ST15         ?    ?    ? S      ? 20001213 1510    4.7500 GAU  2.00e-02 -1.00e+00 -1.00e+00 -1.00e+00    1.0000 >    3.8587   -0.0675    1.5311   38.9482   24.6853    0.0000    8.9753 174.11 174.1 123.8  9     0.0000    0.0772
ST19         ?    ?    ? P      ? 20001213 1510    3.6200 GAU  2.00e-02 -1.00e+00 -1.00e+00 -1.00e+00    1.0000 >    2.6241    0.0371    1.6133   47.2048   27.2984    0.0000   11.1402 124.53 124.5 122.5  9     0.0000    0.0525
ST19         ?    ?    ? S      ? 20001213 1510    5.1800 GAU  2.00e-02 -1.00e+00 -1.00e+00 -1.00e+00    1.0000 >    4.3251   -0.1039    1.3807   47.2048   27.2984    0.0000   11.1402 124.53 124.5 115.2  9     0.0000    0.0865
ST1          ?    ?    ? P      ? 20001213 1510    3.8200 GAU  2.00e-02 -1.00e+00 -1.00e+00 -1.00e+00    1.0000 >    2.8584    0.0028    1.7212   36.2928   46.2238    0.0000   12.7292 352.17 352.2 117.9  9     0.0000    0.0572
ST1          ?    ?    ? S      ? 20001213 1510    5.7000 GAU  2.00e-02 -1.00e+00 -1.00e+00 -1.00e+00    1.0000 >    4.6872    0.0540    1.3686   36.2928   46.2238    0.0000   12.7292 352.17 352.2 110.6  9     0.0000    0.0937
ST18         ?    ?    ? P      ? 20001213 1510    3.7000 GAU  2.00e-02 -1.00e+00 -1.00e+00 -1.00e+00    1.0000 >    3.0297   -0.2884    0.7194   45.8666   22.1945    0.0000   13.8507 145.53 145.5 115.0  9     0.0000    0.0606
ST13         ?    ?    ? P      ? 20001213 1510    4.0400 GAU  2.00e-02 -1.00e+00 -1.00e+00 -1.00e+00    1.0000 >    3.1513   -0.0701    1.5441   52.0625   29.4778    0.0000   14.6317 106.42 106.4 113.1  9     0.0000    0.0630
ST13         ?    ?    ? S      ? 20001213 1510    5.9000 GAU  2.00e-02 -1.00e+00 -1.00e+00 -1.00e+00    1.0000 >    5.1326   -0.1914    1.0682   52.0625   29.4778    0.0000   14.6317 106.42 106.4 106.9  9     0.0000    0.1027
ST7          ?    ?    ? P      ? 20001213 1510    4.2000 GAU  2.00e-02 -1.00e+00 -1.00e+00 -1.00e+00    1.0000 >    3.2940   -0.0528    1.6115   22.5319   32.5023    0.0000   15.5352 265.90 265.9 111.1  9     0.0000    0.0659
ST26         ?    ?    ? P      ? 20001213 1510    4.9800 GAU  2.00e-02 -1.00e+00 -1.00e+00 -1.00e+00    1.0000 >    4.0473   -0.0260    1.6083   52.5727   19.5815    0.0000   20.2103 133.97 134.0 100.1  9     0.0000    0.0809
ST8          ?    ?    ? S      ? 20001213 1510    8.4100 GAU  2.00e-02 -1.00e+00 -1.00e+00 -1.00e+00    1.0000 >    6.5549    0.8963    0.0215   21.2005   45.4232    0.0000   20.5576 305.06 305.1 100.5  9     0.0000    0.1311
ST24         ?    ?    ? S      ? 20001213 1510    8.2700 GAU  2.00e-02 -1.00e+00 -1.00e+00 -1.00e+00    1.0000 >    6.7012    0.6100    0.0364   55.9556   22.3725    0.0000   21.1608 122.09 122.1 100.1  9     0.0000    0.1340
ST14         ?    ?    ? S      ? 20001213 1510    8.4800 GAU  2.00e-02 -1.00e+00 -1.00e+00 -1.00e+00    1.0000 >    7.5212    0.0000    1.2804   58.1038   47.7138    0.0000   24.5334  54.92  54.9  98.3  9     0.0000    0.1504
ST22         ?    ?    ? P      ? 20001213 1510    5.8000 GAU  2.00e-02 -1.00e+00 -1.00e+00 -1.00e+00    1.0000 >    4.8020    0.0392    1.4208   26.8589   55.8533    0.0000   24.8868 333.34 333.3  83.4  8     0.0000    0.0960
ST22         ?    ?    ? S      ? 20001213 1510    8.5600 GAU  2.00e-02 -1.00e+00 -1.00e+00 -1.00e+00    1.0000 >    7.6073   -0.0061    1.2810   26.8589   55.8533    0.0000   24.8868 333.34 333.3  98.1  9     0.0000    0.1521
ST16         ?    ?    ? S      ? 20001213 1510    8.7200 GAU  2.00e-02 -1.00e+00 -1.00e+00 -1.00e+00    1.0000 >    7.6280    0.1333    0.9099   39.8239    8.7066    0.0000   24.9714 175.87 175.9  98.1  9     0.0000    0.1526
ST4          ?    ?    ? S      ? 20001213 1510    8.9600 GAU  2.00e-02 -1.00e+00 -1.00e+00 -1.00e+00    1.0000 >    7.9864    0.0148    1.2259   28.7854    8.8400    0.0000   26.4410 200.46 200.5  97.5  9     0.0000    0.1597
ST0          ?    ?    ? P      ? 20001213 1510    6.2700 GAU  2.00e-02 -1.00e+00 -1.00e+00 -1.00e+00    1.0000 >    5.2590    0.0522    1.3338   57.5022   13.8883    0.0000   27.7190 135.37 135.4  78.4  8     0.0000    0.1052
ST12         ?    ?    ? P      ? 20001213 1510    6.0300 GAU  2.00e-02 -1.00e+00 -1.00e+00 -1.00e+00    1.0000 >    5.3183   -0.2471    0.9031   31.4703   60.9238    0.0000   28.0866 346.50 346.5  78.3  8     0.0000    0.1064
ST17         ?    ?    ? P      ? 20001213 1510    6.4800 GAU  2.00e-02 -1.00e+00 -1.00e+00 -1.00e+00    1.0000 >    5.5118    0.0094    1.4361   64.4820   21.0492    0.0000   29.2866 115.40 115.4  78.0  8     0.0000    0.1102
ST9          ?    ?    ? P      ? 20001213 1510    6.3200 GAU  2.00e-02 -1.00e+00 -1.00e+00 -1.00e+00    1.0000 >    5.6274   -0.2662    0.8617    9.8992   23.1731    0.0000   30.0032 249.64 249.6  78.0  8     0.0000    0.1125
ST6          ?    ?    ? P      ? 20001213 1510    6.6800 GAU  2.00e-02 -1.00e+00 -1.00e+00 -1.00e+00    1.0000 >    6.2423   -0.5211    0.4202   64.5535   54.5857    0.0000   33.8153  51.67  51.7  77.6  8     0.0000    0.1248
ST3          ?    ?    ? P      ? 20001213 1510    7.2700 GAU  2.00e-02 -1.00e+00 -1.00e+00 -1.00e+00    1.0000 >    6.8335   -0.5223    0.4282   17.1949   64.7711    0.0000   37.4807 326.23 326.2  77.5  8     0.0000    0.1367
ST10         ?    ?    ? P      ? 20001213 1510    7.4300 GAU  2.00e-02 -1.00e+00 -1.00e+00 -1.00e+00    1.0000 >    7.1903   -0.7191    0.2273   21.1066   69.5192    0.0000   39.6931 334.77 334.8  77.4  8     0.0000    0.1438
ST10         ?    ?    ? S      ? 20001213 1510   11.9200 GAU  2.00e-02 -1.00e+00 -1.00e+00 -1.00e+00    1.0000 >   11.2302   -0.2690    0.9061   21.1066   69.5192    0.0000   39.6931 334.77 334.8  94.4  9     0.0000    0.2246
ST5          ?    ?    ? P      ? 20001213 1510    7.7400 GAU  2.00e-02 -1.00e+00 -1.00e+00 -1.00e+00    1.0000 >    7.2919   -0.5107    0.4508   45.9261   73.1552    0.0000   40.3232  11.30  11.3  77.4  8     0.0000    0.1458
ST5          ?    ?    ? S      ? 20001213 1510   12.3400 GAU  2.00e-02 -1.00e+00 -1.00e+00 -1.00e+00    1.0000 >   11.3847   -0.0035    1.0485   45.9261   73.1552    0.0000   40.3232  11.30  11.3  94.3  9     0.0000    0.2277
ST11         ?    ?    ? P      ? 20001213 1510    9.2400 GAU  2.00e-02 -1.00e+00 -1.00e+00 -1.00e+00    1.0000 >    9.2560   -0.9748    0.0987   13.0335   79.7825    0.0000   52.5003 331.57 331.6  77.2  8     0.0000    0.1851
ST2          ?    ?    ? P      ? 20001213 1510   10.9800 GAU  2.00e-02 -1.00e+00 -1.00e+00 -1.00e+00    1.0000 >   10.8992   -0.8780    0.1628   36.5585   96.8954    0.0000   63.2992 358.67 358.7  58.8  9     0.0000    0.2180
ST2          ?    ?    ? S      ? 20001213 1510   17.8800 GAU  2.00e-02 -1.00e+00 -1.00e+00 -1.00e+00    1.0000 >   17.0258   -0.1046    0.8577   36.5585   96.8954    0.0000   63.2992 358.67 358.7  92.3  9     0.0000    0.3405
END_PHASE
END_NLLOC

