NLLOC "./loc/alaska.20001213.151001_003.grid0" "LOCATED" "Location completed."
PUBLIC_ID None
SIGNATURE "NonLinLoc - Yifan Yu   obs:./obs/phase.obs   NLLoc:v7.00.16(17Apr2023)   run:21Aug2023 13h20m21"
COMMENT "2023-8-21 test"
GRID  201 201 41  0 0 0  0.5 0.5 0.5 PROB_DENSITY
SEARCH OCTREE nInitial 400 nEvaluated 20040 smallestNodeSide 0.039062/0.039062/0.019531 oct_tree_integral 9.124080e-01 scatter_volume 9.088993e-01
HYPOCENTER  x 54.3945 y 21.0742 z 7.64648  OT 1.32236  ix -1 iy -1 iz -1 MAXIMUM_LIKELIHOOD
GEOGRAPHIC  OT 2000 12 13  15 10 1.322365  Lat 35.589525 Long -117.398455 Depth 7.646484
QUALITY  Pmax 7.21752e+177 MFmin 83.9331 MFmax 90.8752 RMS 0.358644 Nphs 54 Gap 73.0616 Dist 2.03039 Mamp -9.90 0 Mdur -9.90 0
VPVSRATIO  VpVsRatio 1.69593  Npair 27  Diff 8.55
STATISTICS  ExpectX 54.320819 Y 21.122078 Z 7.249167  CovXX 0.212923 XY 0.0268568 XZ 0.175874 YY 0.13772 YZ 0.00571981 ZZ 1.50551 EllAz1  157.646 Dip1  -2.55853 Len1  0.669433 Az2  247.323 Dip2  7.18163 Len2  0.840505 Len3  2.323283e+00
STAT_GEOG  ExpectLat 35.589955 Long -117.399266 Depth 7.249167
TRANSFORM  SIMPLE LatOrig 35.400000  LongOrig -118.000000  RotCW 0.000000
QML_OriginQuality  assocPhCt 54  usedPhCt 54  assocStaCt -1  usedStaCt 27  depthPhCt -1  stdErr 0.358644  azGap 73.0616  secAzGap 73.0616  gtLevel -  minDist 2.03039 maxDist 77.8908 medDist 28.3814
QML_OriginUncertainty  horUnc -1  minHorUnc 0.544942  maxHorUnc 0.713805  azMaxHorUnc 72.2319
QML_ConfidenceEllipsoid  semiMajorAxisLength 2.32328  semiMinorAxisLength 0.669433  semiIntermediateAxisLength 0.840505  majorAxisPlunge 82.3717  majorAxisAzimuth 87.1356  majorAxisRotation 20.3106
FOCALMECH  Hyp  35.589525 -117.398455 7.646484 Mech  0 0 0 mf  0 nObs -1
PHASE ID Ins Cmp On Pha  FM Date     HrMn   Sec     Err  ErrMag    Coda      Amp       Per       PriorWt  >   TTpred    Res       Weight    StaLoc(X  Y         Z)        SDist    SAzim  RAz  RDip RQual    Tcorr       TTerr
ST24         ?    ?    ? P      ? 20001213 1510    2.0200 GAU  2.00e-02 -1.00e+00 -1.00e+00 -1.00e+00    1.0000 >    1.4612   -0.7636    0.5156   55.9556   22.3725    0.0000    2.0304  50.25  50.3 164.3  9     0.0000    0.0500
ST24         ?    ?    ? S      ? 20001213 1510    2.7200 GAU  2.00e-02 -1.00e+00 -1.00e+00 -1.00e+00    1.0000 >    2.5730   -1.1754    0.1905   55.9556   22.3725    0.0000    2.0304  50.25  50.3 164.3  9     0.0000    0.0515
ST26         ?    ?    ? P      ? 20001213 1510    1.2900 GAU  2.00e-02 -1.00e+00 -1.00e+00 -1.00e+00    1.0000 >    1.4784   -1.5108    0.1417   52.5727   19.5815    0.0000    2.3553 230.67 230.7 162.2  9     0.0000    0.0500
ST26         ?    ?    ? S      ? 20001213 1510    1.4800 GAU  2.00e-02 -1.00e+00 -1.00e+00 -1.00e+00    1.0000 >    2.6033   -2.4457    0.0105   52.5727   19.5815    0.0000    2.3553 230.67 230.7 162.2  9     0.0000    0.0521
ST0          ?    ?    ? P      ? 20001213 1510    3.3400 GAU  2.00e-02 -1.00e+00 -1.00e+00 -1.00e+00    1.0000 >    2.0127    0.0049    1.7416   57.5022   13.8883    0.0000    7.8291 156.61 156.6 132.2  9     0.0000    0.0500
ST0          ?    ?    ? S      ? 20001213 1510    4.8700 GAU  2.00e-02 -1.00e+00 -1.00e+00 -1.00e+00    1.0000 >    3.5442    0.0035    1.6874   57.5022   13.8883    0.0000    7.8291 156.61 156.6 132.2  9     0.0000    0.0709
ST18         ?    ?    ? P      ? 20001213 1510    2.8300 GAU  2.00e-02 -1.00e+00 -1.00e+00 -1.00e+00    1.0000 >    2.1175   -0.6099    0.7006   45.8666   22.1945    0.0000    8.6012 277.48 277.5 129.1  9     0.0000    0.0500
ST18         ?    ?    ? S      ? 20001213 1510    4.0700 GAU  2.00e-02 -1.00e+00 -1.00e+00 -1.00e+00    1.0000 >    3.7287   -0.9811    0.2444   45.8666   22.1945    0.0000    8.6012 277.48 277.5 129.1  9     0.0000    0.0746
ST13         ?    ?    ? P      ? 20001213 1510    3.2100 GAU  2.00e-02 -1.00e+00 -1.00e+00 -1.00e+00    1.0000 >    2.1343   -0.2467    1.3450   52.0625   29.4778    0.0000    8.7212 344.49 344.5 128.6  9     0.0000    0.0500
ST13         ?    ?    ? S      ? 20001213 1510    4.7500 GAU  2.00e-02 -1.00e+00 -1.00e+00 -1.00e+00    1.0000 >    3.7583   -0.3306    1.1866   52.0625   29.4778    0.0000    8.7212 344.49 344.5 128.6  9     0.0000    0.0752
ST19         ?    ?    ? P      ? 20001213 1510    3.1200 GAU  2.00e-02 -1.00e+00 -1.00e+00 -1.00e+00    1.0000 >    2.2463   -0.4487    0.8676   47.2048   27.2984    0.0000    9.5096 310.88 310.9 126.0  9     0.0000    0.0500
ST19         ?    ?    ? S      ? 20001213 1510    4.5700 GAU  2.00e-02 -1.00e+00 -1.00e+00 -1.00e+00    1.0000 >    3.9555   -0.7079    0.6480   47.2048   27.2984    0.0000    9.5096 310.88 310.9 126.0  9     0.0000    0.0791
ST17         ?    ?    ? P      ? 20001213 1510    4.4000 GAU  2.00e-02 -1.00e+00 -1.00e+00 -1.00e+00    1.0000 >    2.3310    0.7466    0.0133   64.4820   21.0492    0.0000   10.0875  90.14  90.1 124.3  9     0.0000    0.0500
ST17         ?    ?    ? S      ? 20001213 1510    6.7100 GAU  2.00e-02 -1.00e+00 -1.00e+00 -1.00e+00    1.0000 >    4.1046    1.2830    0.0001   64.4820   21.0492    0.0000   10.0875  90.14  90.1 124.3  9     0.0000    0.0821
ST15         ?    ?    ? P      ? 20001213 1510    4.3200 GAU  2.00e-02 -1.00e+00 -1.00e+00 -1.00e+00    1.0000 >    3.2463   -0.2487    1.3524   38.9482   24.6853    0.0000   15.8629 283.16 283.2 112.2  9     0.0000    0.0649
ST15         ?    ?    ? S      ? 20001213 1510    6.5400 GAU  2.00e-02 -1.00e+00 -1.00e+00 -1.00e+00    1.0000 >    5.7165   -0.4988    0.9168   38.9482   24.6853    0.0000   15.8629 283.16 283.2 112.2  9     0.0000    0.1143
ST16         ?    ?    ? P      ? 20001213 1510    5.0900 GAU  2.00e-02 -1.00e+00 -1.00e+00 -1.00e+00    1.0000 >    3.7928   -0.0252    1.6872   39.8239    8.7066    0.0000   19.1118 229.68 229.7 108.1  9     0.0000    0.0759
ST16         ?    ?    ? S      ? 20001213 1510    7.7500 GAU  2.00e-02 -1.00e+00 -1.00e+00 -1.00e+00    1.0000 >    6.6788   -0.2512    1.3699   39.8239    8.7066    0.0000   19.1118 229.68 229.7 108.1  9     0.0000    0.1336
ST23         ?    ?    ? P      ? 20001213 1510    5.6000 GAU  2.00e-02 -1.00e+00 -1.00e+00 -1.00e+00    1.0000 >    4.2181    0.0596    1.4794   38.6464   35.8493    0.0000   21.5941 313.17 313.2 105.8  9     0.0000    0.0844
ST23         ?    ?    ? S      ? 20001213 1510    8.7500 GAU  2.00e-02 -1.00e+00 -1.00e+00 -1.00e+00    1.0000 >    7.4276    0.0000    1.4587   38.6464   35.8493    0.0000   21.5941 313.17 313.2 105.8  9     0.0000    0.1486
ST25         ?    ?    ? P      ? 20001213 1510    5.6400 GAU  2.00e-02 -1.00e+00 -1.00e+00 -1.00e+00    1.0000 >    4.3076    0.0101    1.6277   35.8320   33.0917    0.0000   22.1130 302.92 302.9 105.3  9     0.0000    0.0862
ST25         ?    ?    ? S      ? 20001213 1510    8.8400 GAU  2.00e-02 -1.00e+00 -1.00e+00 -1.00e+00    1.0000 >    7.5852   -0.0676    1.5194   35.8320   33.0917    0.0000   22.1130 302.92 302.9 105.3  9     0.0000    0.1517
ST14         ?    ?    ? P      ? 20001213 1510    6.5200 GAU  2.00e-02 -1.00e+00 -1.00e+00 -1.00e+00    1.0000 >    5.1392    0.0584    1.4362   58.1038   47.7138    0.0000   26.8966   7.93   7.9 101.2  9     0.0000    0.1028
ST14         ?    ?    ? S      ? 20001213 1510   10.3200 GAU  2.00e-02 -1.00e+00 -1.00e+00 -1.00e+00    1.0000 >    9.0497   -0.0521    1.4384   58.1038   47.7138    0.0000   26.8966   7.93   7.9 101.2  9     0.0000    0.1810
ST21         ?    ?    ? P      ? 20001213 1510    6.5900 GAU  2.00e-02 -1.00e+00 -1.00e+00 -1.00e+00    1.0000 >    5.1899    0.0778    1.3562   36.1150   41.1978    0.0000   27.1864 317.75 317.7 100.7  9     0.0000    0.1038
ST21         ?    ?    ? S      ? 20001213 1510   10.4200 GAU  2.00e-02 -1.00e+00 -1.00e+00 -1.00e+00    1.0000 >    9.1390   -0.0413    1.4243   36.1150   41.1978    0.0000   27.1864 317.75 317.7 100.7  9     0.0000    0.1828
ST4          ?    ?    ? P      ? 20001213 1510    6.5200 GAU  2.00e-02 -1.00e+00 -1.00e+00 -1.00e+00    1.0000 >    5.3991   -0.2015    1.4476   28.7854    8.8400    0.0000   28.3814 244.46 244.5  98.8  9     0.0000    0.1080
ST4          ?    ?    ? S      ? 20001213 1510   10.2000 GAU  2.00e-02 -1.00e+00 -1.00e+00 -1.00e+00    1.0000 >    9.5074   -0.6298    0.7885   28.7854    8.8400    0.0000   28.3814 244.46 244.5  98.9  9     0.0000    0.1901
ST1          ?    ?    ? P      ? 20001213 1510    7.2500 GAU  2.00e-02 -1.00e+00 -1.00e+00 -1.00e+00    1.0000 >    5.8539    0.0737    1.3444   36.2928   46.2238    0.0000   30.9867 324.26 324.3  92.2  8     0.0000    0.1171
ST1          ?    ?    ? S      ? 20001213 1510   11.5100 GAU  2.00e-02 -1.00e+00 -1.00e+00 -1.00e+00    1.0000 >   10.3085   -0.1209    1.4087   36.2928   46.2238    0.0000   30.9867 324.26 324.3  92.4  8     0.0000    0.2062
ST7          ?    ?    ? P      ? 20001213 1510    7.6900 GAU  2.00e-02 -1.00e+00 -1.00e+00 -1.00e+00    1.0000 >    6.3448    0.0228    1.4737   22.5319   32.5023    0.0000   33.8500 289.73 289.7  78.7  8     0.0000    0.1269
ST7          ?    ?    ? S      ? 20001213 1510   12.5500 GAU  2.00e-02 -1.00e+00 -1.00e+00 -1.00e+00    1.0000 >   11.1733    0.0543    1.1865   22.5319   32.5023    0.0000   33.8500 289.73 289.7  78.9  8     0.0000    0.2235
ST6          ?    ?    ? P      ? 20001213 1510    7.6900 GAU  2.00e-02 -1.00e+00 -1.00e+00 -1.00e+00    1.0000 >    6.5377   -0.1701    1.4941   64.5535   54.5857    0.0000   35.0174  16.86  16.9  73.6  8     0.0000    0.1308
ST6          ?    ?    ? S      ? 20001213 1510   12.3000 GAU  2.00e-02 -1.00e+00 -1.00e+00 -1.00e+00    1.0000 >   11.5134   -0.5358    0.9363   64.5535   54.5857    0.0000   35.0174  16.86  16.9  73.8  8     0.0000    0.2303
ST8          ?    ?    ? P      ? 20001213 1510    9.1400 GAU  2.00e-02 -1.00e+00 -1.00e+00 -1.00e+00    1.0000 >    7.5313    0.2863    0.4984   21.2005   45.4232    0.0000   41.1669 306.26 306.3  64.6 10     0.0000    0.1506
ST8          ?    ?    ? S      ? 20001213 1510   14.8700 GAU  2.00e-02 -1.00e+00 -1.00e+00 -1.00e+00    1.0000 >   13.2636    0.2840    0.6544   21.2005   45.4232    0.0000   41.1669 306.26 306.3  64.6 10     0.0000    0.2653
ST20         ?    ?    ? P      ? 20001213 1510    9.1400 GAU  2.00e-02 -1.00e+00 -1.00e+00 -1.00e+00    1.0000 >    7.8400   -0.0224    1.4696   26.5943   53.9852    0.0000   43.0811 319.81 319.8  64.6 10     0.0000    0.1568
ST20         ?    ?    ? S      ? 20001213 1510   14.7900 GAU  2.00e-02 -1.00e+00 -1.00e+00 -1.00e+00    1.0000 >   13.8074   -0.3398    1.1784   26.5943   53.9852    0.0000   43.0811 319.81 319.8  64.6 10     0.0000    0.2761
ST22         ?    ?    ? P      ? 20001213 1510    9.2900 GAU  2.00e-02 -1.00e+00 -1.00e+00 -1.00e+00    1.0000 >    8.0463   -0.0787    1.5016   26.8589   55.8533    0.0000   44.3598 321.63 321.6  64.6 10     0.0000    0.1609
ST22         ?    ?    ? S      ? 20001213 1510   15.0500 GAU  2.00e-02 -1.00e+00 -1.00e+00 -1.00e+00    1.0000 >   14.1707   -0.4431    1.0604   26.8589   55.8533    0.0000   44.3598 321.63 321.6  64.6 10     0.0000    0.2834
ST9          ?    ?    ? P      ? 20001213 1510    9.3200 GAU  2.00e-02 -1.00e+00 -1.00e+00 -1.00e+00    1.0000 >    8.0761   -0.0785    1.5002    9.8992   23.1731    0.0000   44.5448 272.70 272.7  64.6 10     0.0000    0.1615
ST9          ?    ?    ? S      ? 20001213 1510   15.2600 GAU  2.00e-02 -1.00e+00 -1.00e+00 -1.00e+00    1.0000 >   14.2232   -0.2856    1.2146    9.8992   23.1731    0.0000   44.5448 272.70 272.7  64.6 10     0.0000    0.2845
ST12         ?    ?    ? P      ? 20001213 1510    9.3900 GAU  2.00e-02 -1.00e+00 -1.00e+00 -1.00e+00    1.0000 >    8.3065   -0.2388    1.3807   31.4703   60.9238    0.0000   45.9729 330.09 330.1  64.6 10     0.0000    0.1661
ST12         ?    ?    ? S      ? 20001213 1510   15.1200 GAU  2.00e-02 -1.00e+00 -1.00e+00 -1.00e+00    1.0000 >   14.6289   -0.8313    0.5880   31.4703   60.9238    0.0000   45.9729 330.09 330.1  64.6 10     0.0000    0.2926
ST5          ?    ?    ? P      ? 20001213 1510   10.4200 GAU  2.00e-02 -1.00e+00 -1.00e+00 -1.00e+00    1.0000 >    9.4020   -0.3043    1.2770   45.9261   73.1552    0.0000   52.7650 350.76 350.8  64.6 10     0.0000    0.1880
ST5          ?    ?    ? S      ? 20001213 1510   16.6800 GAU  2.00e-02 -1.00e+00 -1.00e+00 -1.00e+00    1.0000 >   16.5585   -1.2009    0.3225   45.9261   73.1552    0.0000   52.7650 350.76 350.8  64.6 10     0.0000    0.3312
ST3          ?    ?    ? P      ? 20001213 1510   10.9800 GAU  2.00e-02 -1.00e+00 -1.00e+00 -1.00e+00    1.0000 >   10.1471   -0.4895    0.9958   17.1949   64.7711    0.0000   57.3867 319.59 319.6  64.1  9     0.0000    0.2029
ST3          ?    ?    ? S      ? 20001213 1510   17.8400 GAU  2.00e-02 -1.00e+00 -1.00e+00 -1.00e+00    1.0000 >   17.8708   -1.3531    0.2578   17.1949   64.7711    0.0000   57.3867 319.59 319.6  64.0  9     0.0000    0.3574
ST10         ?    ?    ? P      ? 20001213 1510   11.1400 GAU  2.00e-02 -1.00e+00 -1.00e+00 -1.00e+00    1.0000 >   10.3684   -0.5508    0.9070   21.1066   69.5192    0.0000   58.7793 325.51 325.5  61.6  9     0.0000    0.2074
ST10         ?    ?    ? S      ? 20001213 1510   18.1800 GAU  2.00e-02 -1.00e+00 -1.00e+00 -1.00e+00    1.0000 >   18.2596   -1.4020    0.2393   21.1066   69.5192    0.0000   58.7793 325.51 325.5  61.2  9     0.0000    0.3652
ST11         ?    ?    ? P      ? 20001213 1510   13.0900 GAU  2.00e-02 -1.00e+00 -1.00e+00 -1.00e+00    1.0000 >   12.2740   -0.5063    0.9814   13.0335   79.7825    0.0000   71.8150 324.83 324.8  54.3 10     0.0000    0.2455
ST11         ?    ?    ? S      ? 20001213 1510   21.7300 GAU  2.00e-02 -1.00e+00 -1.00e+00 -1.00e+00    1.0000 >   21.6110   -1.2034    0.3635   13.0335   79.7825    0.0000   71.8150 324.83 324.8  54.2 10     0.0000    0.4322
ST2          ?    ?    ? P      ? 20001213 1510   14.0000 GAU  2.00e-02 -1.00e+00 -1.00e+00 -1.00e+00    1.0000 >   13.1545   -0.4769    1.0222   36.5585   96.8954    0.0000   77.8908 346.76 346.8  54.3 10     0.0000    0.2631
ST2          ?    ?    ? S      ? 20001213 1510   22.7400 GAU  2.00e-02 -1.00e+00 -1.00e+00 -1.00e+00    1.0000 >   23.1610   -1.7433    0.1480   36.5585   96.8954    0.0000   77.8908 346.76 346.8  54.2 10     0.0000    0.4632
END_PHASE
END_NLLOC

