NLLOC "./loc/alaska.20001213.151003_001.grid0" "LOCATED" "Location completed."
PUBLIC_ID None
SIGNATURE "NonLinLoc - Yifan Yu   obs:./obs/phase.obs   NLLoc:v7.00.16(17Apr2023)   run:24Aug2023 11h40m43"
COMMENT "2023-8-21 test"
GRID  201 201 41  0 0 0  0.5 0.5 0.5 PROB_DENSITY
SEARCH OCTREE nInitial 400 nEvaluated 20000 smallestNodeSide 0.156250/0.156250/0.078125 oct_tree_integral 1.484493e+01 scatter_volume 1.465177e+01
HYPOCENTER  x 12.2656 y 79.1406 z 13.8672  OT 59.878  ix -1 iy -1 iz -1 MAXIMUM_LIKELIHOOD
GEOGRAPHIC  OT 2000 12 13  15 09 59.877952  Lat 36.111728 Long -117.863459 Depth 13.867188
QUALITY  Pmax 2.93063e+80 MFmin 34.2706 MFmax 38.7072 RMS 0.159739 Nphs 28 Gap 227.689 Dist 1.00082 Mamp -9.90 0 Mdur -9.90 0
VPVSRATIO  VpVsRatio 1.70065  Npair 5  Diff 4.27
STATISTICS  ExpectX 11.934139 Y 79.954405 Z 13.156633  CovXX 1.97096 XY -0.711079 XZ 1.28891 YY 3.79691 YZ -2.8238 ZZ 5.64649 EllAz1  113.749 Dip1  -29.181 Len1  2.29913 Az2  36.5712 Dip2  21.6723 Len2  2.57073 Len3  5.328982e+00
STAT_GEOG  ExpectLat 36.119046 Long -117.867137 Depth 13.156633
TRANSFORM  SIMPLE LatOrig 35.400000  LongOrig -118.000000  RotCW 0.000000
QML_OriginQuality  assocPhCt 28  usedPhCt 28  assocStaCt -1  usedStaCt 23  depthPhCt -1  stdErr 0.159739  azGap 227.689  secAzGap 277.662  gtLevel -  minDist 1.00082 maxDist 79.3991 medDist 55.5768
QML_OriginUncertainty  horUnc -1  minHorUnc 1.99285  maxHorUnc 3.04871  azMaxHorUnc 161.043
QML_ConfidenceEllipsoid  semiMajorAxisLength 5.32898  semiMinorAxisLength 2.29913  semiIntermediateAxisLength 2.57073  majorAxisPlunge 52.2917  majorAxisAzimuth 157.502  majorAxisRotation 100.797
FOCALMECH  Hyp  36.111728 -117.863459 13.867188 Mech  0 0 0 mf  0 nObs -1
PHASE ID Ins Cmp On Pha  FM Date     HrMn   Sec     Err  ErrMag    Coda      Amp       Per       PriorWt  >   TTpred    Res       Weight    StaLoc(X  Y         Z)        SDist    SAzim  RAz  RDip RQual    Tcorr       TTerr
ST11         ?    ?    ? S      ? 20001213 1510    3.8500 GAU  2.00e-02 -1.00e+00 -1.00e+00 -1.00e+00    1.0000 >    3.9696    0.0025    1.5185   13.0335   79.7825    0.0000    1.0008  50.11  50.1 173.1  9     0.0000    0.0794
ST10         ?    ?    ? S      ? 20001213 1510    4.3600 GAU  2.00e-02 -1.00e+00 -1.00e+00 -1.00e+00    1.0000 >    5.3907   -0.9087    0.0139   21.1066   69.5192    0.0000   13.0665 137.42 137.4 130.6 10     0.0000    0.1078
ST12         ?    ?    ? S      ? 20001213 1510    7.7400 GAU  2.00e-02 -1.00e+00 -1.00e+00 -1.00e+00    1.0000 >    8.2829   -0.4209    0.4675   31.4703   60.9238    0.0000   26.4702 133.49 133.5 109.9  9     0.0000    0.1657
ST20         ?    ?    ? S      ? 20001213 1510    8.5600 GAU  2.00e-02 -1.00e+00 -1.00e+00 -1.00e+00    1.0000 >    8.8606   -0.1785    1.0969   26.5943   53.9852    0.0000   28.9501 150.33 150.3 108.0  9     0.0000    0.1772
ST5          ?    ?    ? S      ? 20001213 1510   11.1900 GAU  2.00e-02 -1.00e+00 -1.00e+00 -1.00e+00    1.0000 >   10.0974    1.2146    0.0309   45.9261   73.1552    0.0000   34.1885 100.08 100.1 105.0  9     0.0000    0.2019
ST8          ?    ?    ? S      ? 20001213 1510   10.5400 GAU  2.00e-02 -1.00e+00 -1.00e+00 -1.00e+00    1.0000 >   10.2622    0.3998    0.6735   21.2005   45.4232    0.0000   34.8812 165.16 165.2 104.7  9     0.0000    0.2052
ST1          ?    ?    ? P      ? 20001213 1510    7.2900 GAU  2.00e-02 -1.00e+00 -1.00e+00 -1.00e+00    1.0000 >    7.2865    0.1255    1.2821   36.2928   46.2238    0.0000   40.7532 143.87 143.9  73.8  8     0.0000    0.1457
ST1          ?    ?    ? S      ? 20001213 1510   11.4700 GAU  2.00e-02 -1.00e+00 -1.00e+00 -1.00e+00    1.0000 >   11.6674   -0.0754    1.1736   36.2928   46.2238    0.0000   40.7532 143.87 143.9 102.4  9     0.0000    0.2333
ST21         ?    ?    ? P      ? 20001213 1510    7.6700 GAU  2.00e-02 -1.00e+00 -1.00e+00 -1.00e+00    1.0000 >    7.8753   -0.0833    1.3110   36.1150   41.1978    0.0000   44.8157 147.85 147.8  73.7  8     0.0000    0.1575
ST7          ?    ?    ? P      ? 20001213 1510    8.2200 GAU  2.00e-02 -1.00e+00 -1.00e+00 -1.00e+00    1.0000 >    8.3013    0.0408    1.3528   22.5319   32.5023    0.0000   47.7549 167.59 167.6  73.6  8     0.0000    0.1660
ST23         ?    ?    ? P      ? 20001213 1510    8.5000 GAU  2.00e-02 -1.00e+00 -1.00e+00 -1.00e+00    1.0000 >    8.7275   -0.1055    1.2463   38.6464   35.8493    0.0000   50.6960 148.64 148.6  73.5  8     0.0000    0.1746
ST25         ?    ?    ? P      ? 20001213 1510    8.7200 GAU  2.00e-02 -1.00e+00 -1.00e+00 -1.00e+00    1.0000 >    8.8772   -0.0352    1.3214   35.8320   33.0917    0.0000   51.7289 152.90 152.9  73.5  8     0.0000    0.1775
ST14         ?    ?    ? P      ? 20001213 1510    9.3700 GAU  2.00e-02 -1.00e+00 -1.00e+00 -1.00e+00    1.0000 >    9.4349    0.0572    1.2957   58.1038   47.7138    0.0000   55.5768 124.43 124.4  73.5  8     0.0000    0.1887
ST14         ?    ?    ? S      ? 20001213 1510   15.3500 GAU  2.00e-02 -1.00e+00 -1.00e+00 -1.00e+00    1.0000 >   15.2535    0.2186    0.9565   58.1038   47.7138    0.0000   55.5768 124.43 124.4  98.8  9     0.0000    0.3051
ST9          ?    ?    ? P      ? 20001213 1510    9.4200 GAU  2.00e-02 -1.00e+00 -1.00e+00 -1.00e+00    1.0000 >    9.4988    0.0433    1.3005    9.8992   23.1731    0.0000   56.0176 182.42 182.4  73.5  8     0.0000    0.1900
ST9          ?    ?    ? S      ? 20001213 1510   15.4100 GAU  2.00e-02 -1.00e+00 -1.00e+00 -1.00e+00    1.0000 >   15.3606    0.1714    1.0001    9.8992   23.1731    0.0000   56.0176 182.42 182.4  98.8  9     0.0000    0.3072
ST6          ?    ?    ? S      ? 20001213 1510   15.9700 GAU  2.00e-02 -1.00e+00 -1.00e+00 -1.00e+00    1.0000 >   15.7859    0.3061    0.8426   64.5535   54.5857    0.0000   57.7665 115.16 115.2  98.5  9     0.0000    0.3157
ST15         ?    ?    ? S      ? 20001213 1510   16.2500 GAU  2.00e-02 -1.00e+00 -1.00e+00 -1.00e+00    1.0000 >   16.4856   -0.1135    0.9793   38.9482   24.6853    0.0000   60.6411 153.90 153.9  98.0  9     0.0000    0.3297
ST19         ?    ?    ? P      ? 20001213 1510   10.2600 GAU  2.00e-02 -1.00e+00 -1.00e+00 -1.00e+00    1.0000 >   10.4407   -0.0587    1.2371   47.2048   27.2984    0.0000   62.5169 146.02 146.0  73.4  8     0.0000    0.2088
ST19         ?    ?    ? S      ? 20001213 1510   16.8000 GAU  2.00e-02 -1.00e+00 -1.00e+00 -1.00e+00    1.0000 >   16.9425   -0.0205    1.0089   47.2048   27.2984    0.0000   62.5169 146.02 146.0  97.8  9     0.0000    0.3389
ST13         ?    ?    ? P      ? 20001213 1510   10.4100 GAU  2.00e-02 -1.00e+00 -1.00e+00 -1.00e+00    1.0000 >   10.6036   -0.0716    1.2189   52.0625   29.4778    0.0000   63.6411 141.29 141.3  73.4  8     0.0000    0.2121
ST18         ?    ?    ? P      ? 20001213 1510   10.7500 GAU  2.00e-02 -1.00e+00 -1.00e+00 -1.00e+00    1.0000 >   10.9629   -0.0909    1.1851   45.8666   22.1945    0.0000   66.1202 149.46 149.5  73.4  8     0.0000    0.2193
ST24         ?    ?    ? S      ? 20001213 1510   19.4300 GAU  2.00e-02 -1.00e+00 -1.00e+00 -1.00e+00    1.0000 >   19.1669    0.3852    0.7202   55.9556   22.3725    0.0000   71.6341 142.42 142.4  96.7  9     0.0000    0.3833
ST26         ?    ?    ? S      ? 20001213 1510   19.5100 GAU  2.00e-02 -1.00e+00 -1.00e+00 -1.00e+00    1.0000 >   19.2358    0.3963    0.7080   52.5727   19.5815    0.0000   71.9163 145.91 145.9  96.7  9     0.0000    0.3847
ST4          ?    ?    ? P      ? 20001213 1510   11.6900 GAU  2.00e-02 -1.00e+00 -1.00e+00 -1.00e+00    1.0000 >   11.8446   -0.0325    1.1953   28.7854    8.8400    0.0000   72.2155 166.78 166.8  68.0  8     0.0000    0.2369
ST16         ?    ?    ? P      ? 20001213 1510   12.2400 GAU  2.00e-02 -1.00e+00 -1.00e+00 -1.00e+00    1.0000 >   12.3194    0.0427    1.1828   39.8239    8.7066    0.0000   75.6334 158.63 158.6  62.0  9     0.0000    0.2464
ST0          ?    ?    ? P      ? 20001213 1510   12.9200 GAU  2.00e-02 -1.00e+00 -1.00e+00 -1.00e+00    1.0000 >   12.8294    0.2126    1.0145   57.5022   13.8883    0.0000   79.3991 145.27 145.3  61.1  9     0.0000    0.2566
ST0          ?    ?    ? S      ? 20001213 1510   21.3700 GAU  2.00e-02 -1.00e+00 -1.00e+00 -1.00e+00    1.0000 >   21.0646    0.4275    0.6662   57.5022   13.8883    0.0000   79.3991 145.27 145.3  96.0  9     0.0000    0.4213
END_PHASE
END_NLLOC

