NLLOC "./loc/alaska.20001213.151001_019.grid0" "LOCATED" "Location completed."
PUBLIC_ID None
SIGNATURE "NonLinLoc - Yifan Yu   obs:./obs/phase.obs   NLLoc:v7.00.16(17Apr2023)   run:21Aug2023 13h19m41"
COMMENT "2023-8-21 test"
GRID  201 201 41  0 0 0  0.5 0.5 0.5 PROB_DENSITY
SEARCH OCTREE nInitial 400 nEvaluated 12376 smallestNodeSide 0.019531/0.019531/0.009766 oct_tree_integral 6.689838e-02 scatter_volume 6.689838e-02
HYPOCENTER  x 41.0449 y 36.123 z 0.00488281  OT 1.28224  ix -1 iy -1 iz -1 MAXIMUM_LIKELIHOOD
GEOGRAPHIC  OT 2000 12 13  15 10 1.282240  Lat 35.724862 Long -117.545317 Depth 0.004883
QUALITY  Pmax 5.48143e+183 MFmin 92.6683 MFmax 92.7759 RMS 0.174434 Nphs 54 Gap 65.2907 Dist 2.41406 Mamp -9.90 0 Mdur -9.90 0
VPVSRATIO  VpVsRatio 1.7046  Npair 27  Diff 6.53
STATISTICS  ExpectX 40.999088 Y 36.101140 Z 0.553101  CovXX 0.0170607 XY 0.00715891 XZ -0.00791053 YY 0.0219721 YZ 0.00236419 ZZ 0.206016 EllAz1  305.134 Dip1  -2.30667 Len1  0.202647 Az2  215.1 Dip2  -0.836911 Len2  0.308985 Len3  8.535129e-01
STAT_GEOG  ExpectLat 35.724665 Long -117.545826 Depth 0.553101
TRANSFORM  SIMPLE LatOrig 35.400000  LongOrig -118.000000  RotCW 0.000000
QML_OriginQuality  assocPhCt 54  usedPhCt 54  assocStaCt -1  usedStaCt 27  depthPhCt -1  stdErr 0.174434  azGap 65.2907  secAzGap 65.2907  gtLevel -  minDist 2.41406 maxDist 60.9377 medDist 22.9756
QML_OriginUncertainty  horUnc -1  minHorUnc 0.165772  maxHorUnc 0.24959  azMaxHorUnc 35.5333
QML_ConfidenceEllipsoid  semiMajorAxisLength 0.853513  semiMinorAxisLength 0.202647  semiIntermediateAxisLength 0.308985  majorAxisPlunge -87.546  majorAxisAzimuth 105.171  majorAxisRotation 109.879
FOCALMECH  Hyp  35.724862 -117.545317 0.004883 Mech  0 0 0 mf  0 nObs -1
PHASE ID Ins Cmp On Pha  FM Date     HrMn   Sec     Err  ErrMag    Coda      Amp       Per       PriorWt  >   TTpred    Res       Weight    StaLoc(X  Y         Z)        SDist    SAzim  RAz  RDip RQual    Tcorr       TTerr
ST23         ?    ?    ? P      ? 20001213 1510    1.6300 GAU  2.00e-02 -1.00e+00 -1.00e+00 -1.00e+00    1.0000 >    0.4556   -0.1078    1.2706   38.6464   35.8493    0.0000    2.4141 263.49  83.5 200.0  0     0.0000    0.0500
ST23         ?    ?    ? S      ? 20001213 1510    2.0400 GAU  2.00e-02 -1.00e+00 -1.00e+00 -1.00e+00    1.0000 >    0.8022   -0.0444    1.9282   38.6464   35.8493    0.0000    2.4141 263.49  83.5 200.0  0     0.0000    0.0500
ST25         ?    ?    ? P      ? 20001213 1510    2.4300 GAU  2.00e-02 -1.00e+00 -1.00e+00 -1.00e+00    1.0000 >    1.1378    0.0099    2.1143   35.8320   33.0917    0.0000    6.0303 239.82  59.8 200.0  0     0.0000    0.0500
ST25         ?    ?    ? S      ? 20001213 1510    3.3600 GAU  2.00e-02 -1.00e+00 -1.00e+00 -1.00e+00    1.0000 >    2.0035    0.0743    1.7265   35.8320   33.0917    0.0000    6.0303 239.82  59.8 200.0  0     0.0000    0.0500
ST21         ?    ?    ? P      ? 20001213 1510    2.6000 GAU  2.00e-02 -1.00e+00 -1.00e+00 -1.00e+00    1.0000 >    1.3350   -0.0172    2.0864   36.1150   41.1978    0.0000    7.0751 315.83 135.8 200.0  0     0.0000    0.0500
ST21         ?    ?    ? S      ? 20001213 1510    3.6400 GAU  2.00e-02 -1.00e+00 -1.00e+00 -1.00e+00    1.0000 >    2.3506    0.0071    2.1177   36.1150   41.1978    0.0000    7.0751 315.83 135.8 200.0  0     0.0000    0.0500
ST19         ?    ?    ? P      ? 20001213 1510    3.2900 GAU  2.00e-02 -1.00e+00 -1.00e+00 -1.00e+00    1.0000 >    2.0306   -0.0228    2.0637   47.2048   27.2984    0.0000   10.7619 145.08 325.1 200.0  0     0.0000    0.0500
ST19         ?    ?    ? S      ? 20001213 1510    4.8200 GAU  2.00e-02 -1.00e+00 -1.00e+00 -1.00e+00    1.0000 >    3.5755   -0.0377    1.8531   47.2048   27.2984    0.0000   10.7619 145.08 325.1 200.0  0     0.0000    0.0715
ST1          ?    ?    ? P      ? 20001213 1510    3.5600 GAU  2.00e-02 -1.00e+00 -1.00e+00 -1.00e+00    1.0000 >    2.1062    0.1715    1.0047   36.2928   46.2238    0.0000   11.1628 334.80 154.8 200.0  0     0.0000    0.0500
ST1          ?    ?    ? S      ? 20001213 1510    5.2200 GAU  2.00e-02 -1.00e+00 -1.00e+00 -1.00e+00    1.0000 >    3.7086    0.2291    0.9257   36.2928   46.2238    0.0000   11.1628 334.80 154.8 200.0  0     0.0000    0.0742
ST15         ?    ?    ? P      ? 20001213 1510    3.5100 GAU  2.00e-02 -1.00e+00 -1.00e+00 -1.00e+00    1.0000 >    2.1941    0.0337    2.0314   38.9482   24.6853    0.0000   11.6283 190.39  10.4 200.0  0     0.0000    0.0500
ST15         ?    ?    ? S      ? 20001213 1510    5.1600 GAU  2.00e-02 -1.00e+00 -1.00e+00 -1.00e+00    1.0000 >    3.8633    0.0145    1.9162   38.9482   24.6853    0.0000   11.6283 190.39  10.4 200.0  0     0.0000    0.0773
ST13         ?    ?    ? P      ? 20001213 1510    3.6900 GAU  2.00e-02 -1.00e+00 -1.00e+00 -1.00e+00    1.0000 >    2.4277   -0.0199    2.0762   52.0625   29.4778    0.0000   12.8665 121.10 301.1 200.0  0     0.0000    0.0500
ST13         ?    ?    ? S      ? 20001213 1510    5.5300 GAU  2.00e-02 -1.00e+00 -1.00e+00 -1.00e+00    1.0000 >    4.2746   -0.0269    1.8065   52.0625   29.4778    0.0000   12.8665 121.10 301.1 200.0  0     0.0000    0.0855
ST18         ?    ?    ? P      ? 20001213 1510    4.1200 GAU  2.00e-02 -1.00e+00 -1.00e+00 -1.00e+00    1.0000 >    2.7811    0.0567    1.8643   45.8666   22.1945    0.0000   14.7395 160.91 340.9 200.0  0     0.0000    0.0556
ST18         ?    ?    ? S      ? 20001213 1510    6.2100 GAU  2.00e-02 -1.00e+00 -1.00e+00 -1.00e+00    1.0000 >    4.8969    0.0309    1.7639   45.8666   22.1945    0.0000   14.7395 160.91 340.9 200.0  0     0.0000    0.0979
ST7          ?    ?    ? P      ? 20001213 1510    5.4100 GAU  2.00e-02 -1.00e+00 -1.00e+00 -1.00e+00    1.0000 >    3.5592    0.5685    0.3088   22.5319   32.5023    0.0000   18.8637 258.93  78.9 200.0  0     0.0000    0.0712
ST7          ?    ?    ? S      ? 20001213 1510    8.6000 GAU  2.00e-02 -1.00e+00 -1.00e+00 -1.00e+00    1.0000 >    6.2671    1.0507    0.0427   22.5319   32.5023    0.0000   18.8637 258.93  78.9 200.0  0     0.0000    0.1253
ST26         ?    ?    ? P      ? 20001213 1510    5.3800 GAU  2.00e-02 -1.00e+00 -1.00e+00 -1.00e+00    1.0000 >    3.8042    0.2935    0.8062   52.5727   19.5815    0.0000   20.1622 145.13 325.1 200.0  0     0.0000    0.0761
ST26         ?    ?    ? S      ? 20001213 1510    8.3700 GAU  2.00e-02 -1.00e+00 -1.00e+00 -1.00e+00    1.0000 >    6.6984    0.3893    0.6883   52.5727   19.5815    0.0000   20.1622 145.13 325.1 200.0  0     0.0000    0.1340
ST24         ?    ?    ? P      ? 20001213 1510    5.4400 GAU  2.00e-02 -1.00e+00 -1.00e+00 -1.00e+00    1.0000 >    3.8270    0.3307    0.7479   55.9556   22.3725    0.0000   20.2832 132.68 312.7 200.0  0     0.0000    0.0765
ST24         ?    ?    ? S      ? 20001213 1510    8.4800 GAU  2.00e-02 -1.00e+00 -1.00e+00 -1.00e+00    1.0000 >    6.7387    0.4591    0.5588   55.9556   22.3725    0.0000   20.2832 132.68 312.7 200.0  0     0.0000    0.1348
ST14         ?    ?    ? P      ? 20001213 1510    5.1900 GAU  2.00e-02 -1.00e+00 -1.00e+00 -1.00e+00    1.0000 >    3.8914    0.0164    1.9103   58.1038   47.7138    0.0000   20.6240  55.81 235.8 200.0  0     0.0000    0.0778
ST14         ?    ?    ? S      ? 20001213 1510    8.0700 GAU  2.00e-02 -1.00e+00 -1.00e+00 -1.00e+00    1.0000 >    6.8519   -0.0641    1.4301   58.1038   47.7138    0.0000   20.6240  55.81 235.8 200.0  0     0.0000    0.1370
ST8          ?    ?    ? P      ? 20001213 1510    6.2300 GAU  2.00e-02 -1.00e+00 -1.00e+00 -1.00e+00    1.0000 >    4.1350    0.8127    0.0759   21.2005   45.4232    0.0000   21.9156 295.11 115.1 200.0  0     0.0000    0.0827
ST8          ?    ?    ? S      ? 20001213 1510    9.9100 GAU  2.00e-02 -1.00e+00 -1.00e+00 -1.00e+00    1.0000 >    7.2810    1.3468    0.0173   21.2005   45.4232    0.0000   21.9156 295.11 115.1 200.0  0     0.0000    0.1456
ST20         ?    ?    ? P      ? 20001213 1510    6.0600 GAU  2.00e-02 -1.00e+00 -1.00e+00 -1.00e+00    1.0000 >    4.3350    0.4427    0.5567   26.5943   53.9852    0.0000   22.9756 321.03 141.0 200.0  0     0.0000    0.0867
ST20         ?    ?    ? S      ? 20001213 1510    9.5100 GAU  2.00e-02 -1.00e+00 -1.00e+00 -1.00e+00    1.0000 >    7.6331    0.5946    0.3518   26.5943   53.9852    0.0000   22.9756 321.03 141.0 200.0  0     0.0000    0.1527
ST22         ?    ?    ? P      ? 20001213 1510    6.2300 GAU  2.00e-02 -1.00e+00 -1.00e+00 -1.00e+00    1.0000 >    4.5851    0.3627    0.7060   26.8589   55.8533    0.0000   24.3007 324.28 144.3 200.0  0     0.0000    0.0917
ST22         ?    ?    ? S      ? 20001213 1510    9.8200 GAU  2.00e-02 -1.00e+00 -1.00e+00 -1.00e+00    1.0000 >    8.0734    0.4644    0.5682   26.8589   55.8533    0.0000   24.3007 324.28 144.3 200.0  0     0.0000    0.1615
ST12         ?    ?    ? P      ? 20001213 1510    6.3500 GAU  2.00e-02 -1.00e+00 -1.00e+00 -1.00e+00    1.0000 >    5.0160    0.0517    1.7096   31.4703   60.9238    0.0000   26.5848 338.89 158.9 200.0  0     0.0000    0.1003
ST12         ?    ?    ? S      ? 20001213 1510    9.9200 GAU  2.00e-02 -1.00e+00 -1.00e+00 -1.00e+00    1.0000 >    8.8322   -0.1944    0.9472   31.4703   60.9238    0.0000   26.5848 338.89 158.9 200.0  0     0.0000    0.1766
ST16         ?    ?    ? P      ? 20001213 1510    6.4500 GAU  2.00e-02 -1.00e+00 -1.00e+00 -1.00e+00    1.0000 >    5.1781   -0.0103    1.7271   39.8239    8.7066    0.0000   27.4436 182.55   2.5 200.0  0     0.0000    0.1036
ST16         ?    ?    ? S      ? 20001213 1510   10.1500 GAU  2.00e-02 -1.00e+00 -1.00e+00 -1.00e+00    1.0000 >    9.1175   -0.2498    0.7874   39.8239    8.7066    0.0000   27.4436 182.55   2.5 200.0  0     0.0000    0.1824
ST0          ?    ?    ? P      ? 20001213 1510    6.7600 GAU  2.00e-02 -1.00e+00 -1.00e+00 -1.00e+00    1.0000 >    5.2194    0.2584    0.9329   57.5022   13.8883    0.0000   27.6627 143.49 323.5 200.0  0     0.0000    0.1044
ST0          ?    ?    ? S      ? 20001213 1510   10.6500 GAU  2.00e-02 -1.00e+00 -1.00e+00 -1.00e+00    1.0000 >    9.1903    0.1774    1.2125   57.5022   13.8883    0.0000   27.6627 143.49 323.5 200.0  0     0.0000    0.1838
ST17         ?    ?    ? P      ? 20001213 1510    6.7600 GAU  2.00e-02 -1.00e+00 -1.00e+00 -1.00e+00    1.0000 >    5.2578    0.2200    1.0470   64.4820   21.0492    0.0000   27.8660 122.75 302.7 200.0  0     0.0000    0.1052
ST17         ?    ?    ? S      ? 20001213 1510   10.6400 GAU  2.00e-02 -1.00e+00 -1.00e+00 -1.00e+00    1.0000 >    9.2579    0.0999    1.3375   64.4820   21.0492    0.0000   27.8660 122.75 302.7 200.0  0     0.0000    0.1852
ST6          ?    ?    ? P      ? 20001213 1510    6.5500 GAU  2.00e-02 -1.00e+00 -1.00e+00 -1.00e+00    1.0000 >    5.6400   -0.3722    0.3771   64.5535   54.5857    0.0000   29.8918  51.86 231.9 200.0  0     0.0000    0.1128
ST6          ?    ?    ? S      ? 20001213 1510   10.3500 GAU  2.00e-02 -1.00e+00 -1.00e+00 -1.00e+00    1.0000 >    9.9309   -0.8631    0.1581   64.5535   54.5857    0.0000   29.8918  51.86 231.9 200.0  0     0.0000    0.1986
ST4          ?    ?    ? P      ? 20001213 1510    6.8100 GAU  2.00e-02 -1.00e+00 -1.00e+00 -1.00e+00    1.0000 >    5.6436   -0.1158    1.2692   28.7854    8.8400    0.0000   29.9109 204.20  24.2 200.0  0     0.0000    0.1129
ST4          ?    ?    ? S      ? 20001213 1510   10.8900 GAU  2.00e-02 -1.00e+00 -1.00e+00 -1.00e+00    1.0000 >    9.9372   -0.3294    0.6121   28.7854    8.8400    0.0000   29.9109 204.20  24.2 200.0  0     0.0000    0.1987
ST9          ?    ?    ? P      ? 20001213 1510    7.6900 GAU  2.00e-02 -1.00e+00 -1.00e+00 -1.00e+00    1.0000 >    6.3643    0.0435    1.5988    9.8992   23.1731    0.0000   33.7307 247.42  67.4 200.0  0     0.0000    0.1273
ST9          ?    ?    ? S      ? 20001213 1510   12.4900 GAU  2.00e-02 -1.00e+00 -1.00e+00 -1.00e+00    1.0000 >   11.2062    0.0015    1.2470    9.8992   23.1731    0.0000   33.7307 247.42  67.4 200.0  0     0.0000    0.2241
ST3          ?    ?    ? P      ? 20001213 1510    7.9300 GAU  2.00e-02 -1.00e+00 -1.00e+00 -1.00e+00    1.0000 >    7.0333   -0.3856    0.4034   17.1949   64.7711    0.0000   37.2765 320.22 140.2 200.0  0     0.0000    0.1407
ST3          ?    ?    ? S      ? 20001213 1510   12.7700 GAU  2.00e-02 -1.00e+00 -1.00e+00 -1.00e+00    1.0000 >   12.3842   -0.8965    0.1713   17.1949   64.7711    0.0000   37.2765 320.22 140.2 200.0  0     0.0000    0.2477
ST5          ?    ?    ? P      ? 20001213 1510    7.8800 GAU  2.00e-02 -1.00e+00 -1.00e+00 -1.00e+00    1.0000 >    7.0477   -0.4499    0.3286   45.9261   73.1552    0.0000   37.3525   7.51 187.5 200.0  0     0.0000    0.1410
ST5          ?    ?    ? S      ? 20001213 1510   12.4200 GAU  2.00e-02 -1.00e+00 -1.00e+00 -1.00e+00    1.0000 >   12.4095   -1.2717    0.1235   45.9261   73.1552    0.0000   37.3525   7.51 187.5 200.0  0     0.0000    0.2482
ST10         ?    ?    ? P      ? 20001213 1510    8.1000 GAU  2.00e-02 -1.00e+00 -1.00e+00 -1.00e+00    1.0000 >    7.3387   -0.5210    0.2697   21.1066   69.5192    0.0000   38.8952 329.16 149.2 200.0  0     0.0000    0.1468
ST10         ?    ?    ? S      ? 20001213 1510   13.0400 GAU  2.00e-02 -1.00e+00 -1.00e+00 -1.00e+00    1.0000 >   12.9220   -1.1643    0.1395   21.1066   69.5192    0.0000   38.8952 329.16 149.2 200.0  0     0.0000    0.2584
ST11         ?    ?    ? P      ? 20001213 1510   10.0200 GAU  2.00e-02 -1.00e+00 -1.00e+00 -1.00e+00    1.0000 >    9.7584   -1.0207    0.1474   13.0335   79.7825    0.0000   51.8728 327.32 147.3 200.0  0     0.0000    0.1952
ST11         ?    ?    ? S      ? 20001213 1510   16.5700 GAU  2.00e-02 -1.00e+00 -1.00e+00 -1.00e+00    1.0000 >   17.1835   -1.8958    0.0321   13.0335   79.7825    0.0000   51.8728 327.32 147.3 200.0  0     0.0000    0.3437
ST2          ?    ?    ? P      ? 20001213 1510   11.2700 GAU  2.00e-02 -1.00e+00 -1.00e+00 -1.00e+00    1.0000 >   11.3727   -1.3850    0.1014   36.5585   96.8954    0.0000   60.9377 355.78 175.8 200.0  0     0.0000    0.2275
ST2          ?    ?    ? S      ? 20001213 1510   18.2100 GAU  2.00e-02 -1.00e+00 -1.00e+00 -1.00e+00    1.0000 >   20.0271   -3.0993    0.0015   36.5585   96.8954    0.0000   60.9377 355.78 175.8 200.0  0     0.0000    0.4005
END_PHASE
END_NLLOC

