NLLOC "./loc/alaska.20001213.151002_011.grid0" "LOCATED" "Location completed."
PUBLIC_ID None
SIGNATURE "NonLinLoc - Yifan Yu   obs:./obs/phase.obs   NLLoc:v7.00.16(17Apr2023)   run:24Aug2023 11h42m46"
COMMENT "2023-8-21 test"
GRID  201 201 41  0 0 0  0.5 0.5 0.5 PROB_DENSITY
SEARCH OCTREE nInitial 400 nEvaluated 20000 smallestNodeSide 0.039062/0.039062/0.019531 oct_tree_integral 4.284148e-01 scatter_volume 4.284148e-01
HYPOCENTER  x 47.2461 y 28.2617 z 8.27148  OT 0.737067  ix -1 iy -1 iz -1 MAXIMUM_LIKELIHOOD
GEOGRAPHIC  OT 2000 12 13  15 10 0.737067  Lat 35.654163 Long -117.477086 Depth 8.271484
QUALITY  Pmax 5.18662e+112 MFmin 62.8917 MFmax 64.2271 RMS 0.126669 Nphs 35 Gap 48.2365 Dist 0.964212 Mamp -9.90 0 Mdur -9.90 0
VPVSRATIO  VpVsRatio 1.70605  Npair 10  Diff 5.97
STATISTICS  ExpectX 47.106351 Y 28.400265 Z 8.010948  CovXX 0.154348 XY -0.0277329 XZ 0.184729 YY 0.0889696 YZ -0.0955898 ZZ 0.439004 EllAz1  136.109 Dip1  -26.7775 Len1  0.414674 Az2  221.873 Dip2  8.32755 Len2  0.540961 Len3  1.394275e+00
STAT_GEOG  ExpectLat 35.655409 Long -117.478625 Depth 8.010948
TRANSFORM  SIMPLE LatOrig 35.400000  LongOrig -118.000000  RotCW 0.000000
QML_OriginQuality  assocPhCt 35  usedPhCt 35  assocStaCt -1  usedStaCt 25  depthPhCt -1  stdErr 0.126669  azGap 48.2365  secAzGap 68.6611  gtLevel -  minDist 0.964212 maxDist 69.4608 medDist 22.2772
QML_OriginUncertainty  horUnc -1  minHorUnc 0.425697  maxHorUnc 0.615153  azMaxHorUnc 110.155
QML_ConfidenceEllipsoid  semiMajorAxisLength 1.39427  semiMinorAxisLength 0.414674  semiIntermediateAxisLength 0.540961  majorAxisPlunge 61.7556  majorAxisAzimuth 116.061  majorAxisRotation 79.9357
FOCALMECH  Hyp  35.654163 -117.477086 8.271484 Mech  0 0 0 mf  0 nObs -1
PHASE ID Ins Cmp On Pha  FM Date     HrMn   Sec     Err  ErrMag    Coda      Amp       Per       PriorWt  >   TTpred    Res       Weight    StaLoc(X  Y         Z)        SDist    SAzim  RAz  RDip RQual    Tcorr       TTerr
ST19         ?    ?    ? P      ? 20001213 1510    2.2500 GAU  2.00e-02 -1.00e+00 -1.00e+00 -1.00e+00    1.0000 >    1.5318   -0.0189    1.7218   47.2048   27.2984    0.0000    0.9642 182.46 182.5 172.1  9     0.0000    0.0500
ST19         ?    ?    ? S      ? 20001213 1510    3.3300 GAU  2.00e-02 -1.00e+00 -1.00e+00 -1.00e+00    1.0000 >    2.6042   -0.0113    1.7338   47.2048   27.2984    0.0000    0.9642 182.46 182.5 169.2  9     0.0000    0.0521
ST13         ?    ?    ? P      ? 20001213 1510    2.4500 GAU  2.00e-02 -1.00e+00 -1.00e+00 -1.00e+00    1.0000 >    1.7763   -0.0633    1.4725   52.0625   29.4778    0.0000    4.9675  75.83  75.8 148.9  9     0.0000    0.0500
ST13         ?    ?    ? S      ? 20001213 1510    3.7400 GAU  2.00e-02 -1.00e+00 -1.00e+00 -1.00e+00    1.0000 >    3.0144   -0.0114    1.6951   52.0625   29.4778    0.0000    4.9675  75.83  75.8 142.3  9     0.0000    0.0603
ST18         ?    ?    ? S      ? 20001213 1510    4.0100 GAU  2.00e-02 -1.00e+00 -1.00e+00 -1.00e+00    1.0000 >    3.2195    0.0535    1.5772   45.8666   22.1945    0.0000    6.2220 192.81 192.8 134.4  9     0.0000    0.0644
ST15         ?    ?    ? P      ? 20001213 1510    3.0500 GAU  2.00e-02 -1.00e+00 -1.00e+00 -1.00e+00    1.0000 >    2.2486    0.0644    1.5575   38.9482   24.6853    0.0000    9.0358 246.68 246.7 130.1  9     0.0000    0.0500
ST15         ?    ?    ? S      ? 20001213 1510    4.4300 GAU  2.00e-02 -1.00e+00 -1.00e+00 -1.00e+00    1.0000 >    3.7802   -0.0872    1.2619   38.9482   24.6853    0.0000    9.0358 246.68 246.7 118.0  9     0.0000    0.0756
ST26         ?    ?    ? P      ? 20001213 1510    3.2200 GAU  2.00e-02 -1.00e+00 -1.00e+00 -1.00e+00    1.0000 >    2.4100    0.0729    1.4983   52.5727   19.5815    0.0000   10.1843 148.47 148.5 126.5  9     0.0000    0.0500
ST26         ?    ?    ? S      ? 20001213 1510    5.1800 GAU  2.00e-02 -1.00e+00 -1.00e+00 -1.00e+00    1.0000 >    4.0369    0.4060    0.3110   52.5727   19.5815    0.0000   10.1843 148.47 148.5 113.0  9     0.0000    0.0807
ST24         ?    ?    ? P      ? 20001213 1510    3.4700 GAU  2.00e-02 -1.00e+00 -1.00e+00 -1.00e+00    1.0000 >    2.4576    0.2754    0.4459   55.9556   22.3725    0.0000   10.5138 124.07 124.1 125.5  9     0.0000    0.0500
ST23         ?    ?    ? P      ? 20001213 1510    3.4200 GAU  2.00e-02 -1.00e+00 -1.00e+00 -1.00e+00    1.0000 >    2.5988    0.0841    1.4129   38.6464   35.8493    0.0000   11.4685 311.42 311.4 123.0  9     0.0000    0.0520
ST23         ?    ?    ? S      ? 20001213 1510    5.1200 GAU  2.00e-02 -1.00e+00 -1.00e+00 -1.00e+00    1.0000 >    4.3340    0.0489    1.4984   38.6464   35.8493    0.0000   11.4685 311.42 311.4 108.7  9     0.0000    0.0867
ST25         ?    ?    ? P      ? 20001213 1510    3.4500 GAU  2.00e-02 -1.00e+00 -1.00e+00 -1.00e+00    1.0000 >    2.7395   -0.0266    1.6755   35.8320   33.0917    0.0000   12.3939 292.94 292.9 120.8  9     0.0000    0.0548
ST21         ?    ?    ? P      ? 20001213 1510    4.3400 GAU  2.00e-02 -1.00e+00 -1.00e+00 -1.00e+00    1.0000 >    3.4883    0.1147    1.1906   36.1150   41.1978    0.0000   17.0659 319.29 319.3 112.6  9     0.0000    0.0698
ST21         ?    ?    ? S      ? 20001213 1510    6.4000 GAU  2.00e-02 -1.00e+00 -1.00e+00 -1.00e+00    1.0000 >    5.6769   -0.0139    1.3959   36.1150   41.1978    0.0000   17.0659 319.29 319.3 100.0  9     0.0000    0.1135
ST0          ?    ?    ? P      ? 20001213 1510    4.6400 GAU  2.00e-02 -1.00e+00 -1.00e+00 -1.00e+00    1.0000 >    3.5863    0.3166    0.4385   57.5022   13.8883    0.0000   17.6574 144.49 144.5 111.6  9     0.0000    0.0717
ST16         ?    ?    ? P      ? 20001213 1510    4.8100 GAU  2.00e-02 -1.00e+00 -1.00e+00 -1.00e+00    1.0000 >    4.1347   -0.0618    1.3966   39.8239    8.7066    0.0000   20.9163 200.78 200.8 105.5  9     0.0000    0.0827
ST16         ?    ?    ? S      ? 20001213 1510    7.7600 GAU  2.00e-02 -1.00e+00 -1.00e+00 -1.00e+00    1.0000 >    6.6149    0.4080    0.3511   39.8239    8.7066    0.0000   20.9163 200.78 200.8  97.5  9     0.0000    0.1323
ST1          ?    ?    ? P      ? 20001213 1510    4.9200 GAU  2.00e-02 -1.00e+00 -1.00e+00 -1.00e+00    1.0000 >    4.1555    0.0275    1.5670   36.2928   46.2238    0.0000   21.0383 328.63 328.6 105.2  9     0.0000    0.0831
ST14         ?    ?    ? S      ? 20001213 1510    7.6500 GAU  2.00e-02 -1.00e+00 -1.00e+00 -1.00e+00    1.0000 >    6.9475   -0.0345    1.2461   58.1038   47.7138    0.0000   22.2772  29.17  29.2  96.9  9     0.0000    0.1389
ST7          ?    ?    ? P      ? 20001213 1510    5.5100 GAU  2.00e-02 -1.00e+00 -1.00e+00 -1.00e+00    1.0000 >    4.8485   -0.0756    1.2815   22.5319   32.5023    0.0000   25.0753 279.74 279.7  95.7  9     0.0000    0.0970
ST4          ?    ?    ? P      ? 20001213 1510    5.8200 GAU  2.00e-02 -1.00e+00 -1.00e+00 -1.00e+00    1.0000 >    5.1412   -0.0582    1.3357   28.7854    8.8400    0.0000   26.7955 223.55 223.5  89.7  8     0.0000    0.1028
ST8          ?    ?    ? P      ? 20001213 1510    6.8300 GAU  2.00e-02 -1.00e+00 -1.00e+00 -1.00e+00    1.0000 >    5.8732    0.2197    0.7727   21.2005   45.4232    0.0000   31.1911 303.38 303.4  71.7  8     0.0000    0.1175
ST6          ?    ?    ? P      ? 20001213 1510    6.0800 GAU  2.00e-02 -1.00e+00 -1.00e+00 -1.00e+00    1.0000 >    5.9241   -0.5811    0.1970   64.5535   54.5857    0.0000   31.5039  33.32  33.3  70.9  8     0.0000    0.1185
ST20         ?    ?    ? P      ? 20001213 1510    6.9000 GAU  2.00e-02 -1.00e+00 -1.00e+00 -1.00e+00    1.0000 >    6.1641   -0.0011    1.3580   26.5943   53.9852    0.0000   32.9878 321.24 321.2  67.3  9     0.0000    0.1233
ST22         ?    ?    ? P      ? 20001213 1510    6.9100 GAU  2.00e-02 -1.00e+00 -1.00e+00 -1.00e+00    1.0000 >    6.3769   -0.2039    0.6554   26.8589   55.8533    0.0000   34.3065 323.54 323.5  65.4  9     0.0000    0.1275
ST22         ?    ?    ? S      ? 20001213 1510   11.1000 GAU  2.00e-02 -1.00e+00 -1.00e+00 -1.00e+00    1.0000 >    9.8962    0.4667    0.3265   26.8589   55.8533    0.0000   34.3065 323.54 323.5  93.8  9     0.0000    0.1979
ST9          ?    ?    ? P      ? 20001213 1510    7.6600 GAU  2.00e-02 -1.00e+00 -1.00e+00 -1.00e+00    1.0000 >    6.9229   -0.0000    1.2869    9.8992   23.1731    0.0000   37.6920 262.24 262.2  64.6 10     0.0000    0.1385
ST5          ?    ?    ? P      ? 20001213 1510    8.3000 GAU  2.00e-02 -1.00e+00 -1.00e+00 -1.00e+00    1.0000 >    8.0876   -0.5247    0.2155   45.9261   73.1552    0.0000   44.9129 358.32 358.3  64.6 10     0.0000    0.1618
ST3          ?    ?    ? P      ? 20001213 1510    8.7100 GAU  2.00e-02 -1.00e+00 -1.00e+00 -1.00e+00    1.0000 >    8.4704   -0.4975    0.2300   17.1949   64.7711    0.0000   47.2865 320.54 320.5  64.6 10     0.0000    0.1694
ST10         ?    ?    ? P      ? 20001213 1510    8.7500 GAU  2.00e-02 -1.00e+00 -1.00e+00 -1.00e+00    1.0000 >    8.7212   -0.7082    0.1748   21.1066   69.5192    0.0000   48.8411 327.64 327.6  64.6 10     0.0000    0.1744
ST10         ?    ?    ? S      ? 20001213 1510   14.2400 GAU  2.00e-02 -1.00e+00 -1.00e+00 -1.00e+00    1.0000 >   13.4669    0.0361    0.8937   21.1066   69.5192    0.0000   48.8411 327.64 327.6  92.2  9     0.0000    0.2693
ST11         ?    ?    ? P      ? 20001213 1510   10.7000 GAU  2.00e-02 -1.00e+00 -1.00e+00 -1.00e+00    1.0000 >   10.7638   -0.8008    0.1449   13.0335   79.7825    0.0000   61.8457 326.41 326.4  54.4 10     0.0000    0.2153
ST11         ?    ?    ? S      ? 20001213 1510   17.7500 GAU  2.00e-02 -1.00e+00 -1.00e+00 -1.00e+00    1.0000 >   16.6630    0.3499    0.5593   13.0335   79.7825    0.0000   61.8457 326.41 326.4  91.4  9     0.0000    0.3333
ST2          ?    ?    ? P      ? 20001213 1510   11.7300 GAU  2.00e-02 -1.00e+00 -1.00e+00 -1.00e+00    1.0000 >   11.8676   -0.8747    0.1203   36.5585   96.8954    0.0000   69.4608 351.15 351.1  54.3 10     0.0000    0.2374
END_PHASE
END_NLLOC

