# 2000 12 13 15 10 1.06 35.6482 -117.4416 3.53 1 0 0 0 100
ST0    5.67   1.00   S
ST2    11.37   1.00   P
ST2    19.12   1.00   S
ST3    8.31   1.00   P
ST4    5.10   1.00   P
ST6    5.35   1.00   P
ST6    9.07   1.00   S
ST8    6.58   1.00   P
ST9    7.22   1.00   P
ST10   8.47   1.00   P
ST10   14.46   1.00   S
ST11   10.39   1.00   P
ST11   17.96   1.00   S
ST12   6.76   1.00   P
ST13   0.87   1.00   P
ST13   2.10   1.00   S
ST14   6.91   1.00   S
ST16   7.48   1.00   S
ST18   2.54   1.00   S
ST19   0.85   1.00   P
ST20   11.04   1.00   S
ST21   3.96   1.00   P
ST21   6.80   1.00   S
ST22   11.32   1.00   S
ST23   2.89   1.00   P
ST23   4.95   1.00   S
ST24   1.74   1.00   P
ST24   3.03   1.00   S
ST25   3.17   1.00   P
ST25   5.23   1.00   S
ST26   1.81   1.00   P
ST26   3.11   1.00   S
# 2000 12 13 15 10 1.09 36.0202 -117.8361 4.38 1 0 0 0 101
ST0    11.25   1.00   P
ST1    5.60   1.00   P
ST1    9.61   1.00   S
ST2    6.23   1.00   P
ST4    9.71   1.00   P
ST4    16.67   1.00   S
ST5    5.63   1.00   P
ST6    8.57   1.00   P
ST8    4.84   1.00   P
ST9    7.81   1.00   P
ST10   1.51   1.00   P
ST10   2.74   1.00   S
ST11   4.02   1.00   S
ST12   3.53   1.00   P
ST13   8.76   1.00   P
ST13   15.16   1.00   S
ST14   7.97   1.00   P
ST16   10.38   1.00   P
ST16   17.83   1.00   S
ST17   11.20   1.00   P
ST19   8.57   1.00   P
ST20   6.46   1.00   S
ST21   6.12   1.00   P
ST21   10.49   1.00   S
ST22   6.09   1.00   S
ST23   6.85   1.00   P
ST23   11.74   1.00   S
ST24   10.05   1.00   P
ST25   6.98   1.00   P
ST26   10.04   1.00   P
ST26   17.05   1.00   S
# 2000 12 13 15 10 1.09 35.7821 -117.5551 8.64 1 0 0 0 102
ST0    5.75   1.00   P
ST0    9.71   1.00   S
ST1    1.62   1.00   P
ST1    2.81   1.00   S
ST2    8.78   1.00   P
ST2    14.92   1.00   S
ST5    5.45   1.00   P
ST5    9.93   1.00   S
ST6    4.60   1.00   P
ST6    7.93   1.00   S
ST7    3.76   1.00   P
ST7    6.66   1.00   S
ST9    6.05   1.00   P
ST10   5.50   1.00   P
ST11   7.44   1.00   P
ST11   13.03   1.00   S
ST12   3.74   1.00   P
ST12   6.38   1.00   S
ST13   3.14   1.00   P
ST14   3.42   1.00   P
ST15   3.03   1.00   P
ST17   5.63   1.00   P
ST17   9.49   1.00   S
ST18   3.61   1.00   P
ST18   7.27   1.00   S
ST20   3.53   1.00   P
ST20   5.97   1.00   S
ST23   2.47   1.00   P
ST23   4.01   1.00   S
ST24   4.48   1.00   P
ST24   7.75   1.00   S
ST25   2.10   1.00   P
ST25   3.64   1.00   S
ST26   8.33   1.00   S
# 2000 12 13 15 10 0.99 35.8992 -117.7092 5.80 1 0 0 0 103
ST0    8.59   1.00   P
ST3    2.72   1.00   P
ST3    4.49   1.00   S
ST4    7.40   1.00   P
ST5    4.88   1.00   P
ST6    6.42   1.00   P
ST7    4.33   1.00   P
ST7    7.46   1.00   S
ST8    2.59   1.00   P
ST8    4.53   1.00   S
ST9    6.09   1.00   P
ST9    10.36   1.00   S
ST10   3.00   1.00   P
ST11   4.90   1.00   P
ST12   2.00   1.00   P
ST12   3.36   1.00   S
ST14   5.54   1.00   P
ST14   9.45   1.00   S
ST15   5.54   1.00   P
ST16   7.89   1.00   P
ST17   8.55   1.00   P
ST17   14.42   1.00   S
ST18   6.39   1.00   P
ST18   10.96   1.00   S
ST19   5.94   1.00   P
ST20   1.14   1.00   P
ST20   1.86   1.00   S
ST21   3.32   1.00   P
ST21   5.80   1.00   S
ST22   1.21   1.00   P
ST23   4.20   1.00   P
ST26   7.45   1.00   P
# 2000 12 13 15 10 1.17 35.9705 -117.6721 2.33 1 0 0 0 104
ST0    9.77   1.00   P
ST0    16.55   1.00   S
ST1    6.53   1.00   S
ST3    2.55   1.00   P
ST3    4.38   1.00   S
ST4    9.01   1.00   P
ST4    15.51   1.00   S
ST5    4.05   1.00   P
ST5    6.85   1.00   S
ST8    4.37   1.00   P
ST10   2.26   1.00   P
ST11   8.08   1.00   S
ST12   0.68   1.00   P
ST12   1.26   1.00   S
ST13   7.08   1.00   P
ST15   6.91   1.00   P
ST15   11.88   1.00   S
ST16   9.27   1.00   P
ST16   15.92   1.00   S
ST18   7.66   1.00   P
ST18   13.09   1.00   S
ST19   7.02   1.00   P
ST19   11.99   1.00   S
ST20   2.31   1.00   P
ST21   4.62   1.00   P
ST21   7.86   1.00   S
ST22   2.31   1.00   P
ST22   3.06   1.00   S
ST23   5.42   1.00   P
ST23   9.25   1.00   S
ST24   8.47   1.00   P
ST25   9.88   1.00   S
ST26   8.56   1.00   P
ST26   14.54   1.00   S
# 2000 12 13 15 10 1.09 35.6826 -117.5430 6.71 1 0 0 0 105
ST0    4.43   1.00   P
ST0    7.42   1.00   S
ST1    3.14   1.00   P
ST1    5.38   1.00   S
ST2    10.32   1.00   P
ST2    17.67   1.00   S
ST3    11.23   1.00   S
ST4    7.61   1.00   S
ST5    6.94   1.00   P
ST5    11.67   1.00   S
ST7    3.59   1.00   P
ST7    6.39   1.00   S
ST8    4.79   1.00   P
ST9    9.58   1.00   S
ST10   6.87   1.00   P
ST10   11.76   1.00   S
ST11   8.72   1.00   P
ST12   5.31   1.00   P
ST12   8.89   1.00   S
ST13   2.39   1.00   P
ST13   4.15   1.00   S
ST14   4.19   1.00   P
ST15   1.70   1.00   P
ST16   4.09   1.00   P
ST16   6.78   1.00   S
ST17   4.74   1.00   P
ST19   3.16   1.00   S
ST20   4.88   1.00   P
ST20   8.34   1.00   S
ST21   2.47   1.00   P
ST21   4.13   1.00   S
ST23   1.63   1.00   P
ST23   2.79   1.00   S
ST24   3.39   1.00   P
ST25   2.94   1.00   S
ST26   5.55   1.00   S
# 2000 12 13 15 10 1.0 35.8998 -117.6777 6.72 1 0 0 0 106
ST0    13.98   1.00   S
ST1    2.52   1.00   P
ST1    5.53   1.00   S
ST2    7.07   1.00   P
ST2    11.99   1.00   S
ST3    2.99   1.00   P
ST3    5.03   1.00   S
ST4    7.39   1.00   P
ST4    12.76   1.00   S
ST6    5.99   1.00   P
ST6    10.01   1.00   S
ST7    4.34   1.00   P
ST7    7.52   1.00   S
ST8    2.88   1.00   P
ST8    4.85   1.00   S
ST9    6.30   1.00   P
ST10   3.18   1.00   P
ST10   5.33   1.00   S
ST11   5.06   1.00   P
ST11   8.86   1.00   S
ST13   5.80   1.00   P
ST14   8.61   1.00   S
ST16   7.74   1.00   P
ST16   13.26   1.00   S
ST17   8.14   1.00   P
ST18   6.15   1.00   P
ST19   5.59   1.00   P
ST19   9.56   1.00   S
ST20   1.24   1.00   P
ST21   5.28   1.00   S
ST22   2.01   1.00   S
ST23   6.64   1.00   S
ST24   7.13   1.00   P
ST25   4.18   1.00   P
ST25   7.12   1.00   S
ST26   7.12   1.00   P
# 2000 12 13 15 10 0.99 35.9261 -117.7211 5.14 1 0 0 0 107
ST0    15.51   1.00   S
ST1    3.40   1.00   P
ST2    6.85   1.00   P
ST3    2.27   1.00   P
ST3    3.77   1.00   S
ST4    7.93   1.00   P
ST4    13.52   1.00   S
ST5    7.92   1.00   S
ST6    11.24   1.00   S
ST7    4.84   1.00   P
ST7    8.29   1.00   S
ST8    3.06   1.00   P
ST9    6.48   1.00   P
ST9    11.04   1.00   S
ST10   2.56   1.00   P
ST10   4.21   1.00   S
ST11   4.46   1.00   P
ST12   1.81   1.00   P
ST12   2.93   1.00   S
ST14   5.93   1.00   P
ST16   8.46   1.00   P
ST16   14.54   1.00   S
ST18   6.91   1.00   P
ST19   6.46   1.00   P
ST20   1.42   1.00   P
ST20   2.22   1.00   S
ST21   6.68   1.00   S
ST22   1.17   1.00   P
ST23   4.71   1.00   P
ST23   8.01   1.00   S
ST24   7.95   1.00   P
ST25   8.38   1.00   S
ST26   8.02   1.00   P
# 2000 12 13 15 10 1.03 35.6455 -117.4649 5.23 1 0 0 0 108
ST0    3.33   1.00   P
ST0    5.75   1.00   S
ST1    4.19   1.00   P
ST1    6.99   1.00   S
ST3    7.84   1.00   P
ST3    13.18   1.00   S
ST4    4.63   1.00   P
ST4    7.94   1.00   S
ST5    12.53   1.00   S
ST6    5.33   1.00   P
ST7    4.80   1.00   P
ST7    8.41   1.00   S
ST8    6.03   1.00   P
ST8    10.51   1.00   S
ST9    6.63   1.00   P
ST12   6.26   1.00   P
ST13   1.42   1.00   P
ST15   3.46   1.00   S
ST16   3.75   1.00   P
ST17   5.92   1.00   S
ST18   2.65   1.00   S
ST19   1.20   1.00   P
ST20   10.28   1.00   S
ST21   3.54   1.00   P
ST22   6.21   1.00   P
ST22   10.95   1.00   S
ST23   2.58   1.00   P
ST24   2.15   1.00   P
ST26   2.10   1.00   P
ST26   3.56   1.00   S
# 2000 12 13 15 10 0.85 35.7330 -117.5135 4.19 1 0 0 0 109
ST0    8.48   1.00   S
ST1    2.73   1.00   P
ST3    6.49   1.00   P
ST5    10.64   1.00   S
ST6    4.96   1.00   P
ST6    8.17   1.00   S
ST8    4.91   1.00   P
ST9    6.36   1.00   P
ST10   6.65   1.00   P
ST11   14.77   1.00   S
ST14   6.02   1.00   S
ST15   4.42   1.00   S
ST16   5.10   1.00   P
ST17   5.03   1.00   P
ST17   8.35   1.00   S
ST18   3.06   1.00   P
ST19   2.28   1.00   P
ST20   4.65   1.00   P
ST22   4.81   1.00   P
ST23   2.50   1.00   S
ST24   3.86   1.00   P
ST25   3.28   1.00   S
# 2000 12 13 15 10 1.09 35.5924 -117.4135 6.05 1 0 0 0 110
ST0    3.66   1.00   S
ST1    5.24   1.00   P
ST1    8.88   1.00   S
ST4    7.81   1.00   S
ST5    8.50   1.00   P
ST6    5.76   1.00   P
ST6    9.65   1.00   S
ST8    7.08   1.00   P
ST8    13.25   1.00   S
ST9    12.59   1.00   S
ST10   15.57   1.00   S
ST11   19.04   1.00   S
ST12   7.35   1.00   P
ST12   12.36   1.00   S
ST13   1.92   1.00   P
ST14   4.58   1.00   P
ST14   7.68   1.00   S
ST15   4.71   1.00   S
ST16   3.33   1.00   P
ST16   5.75   1.00   S
ST17   2.77   1.00   P
ST17   4.78   1.00   S
ST18   1.65   1.00   P
ST19   1.82   1.00   P
ST20   12.11   1.00   S
ST21   4.66   1.00   P
ST21   7.87   1.00   S
ST23   3.69   1.00   P
ST23   6.33   1.00   S
ST24   1.32   1.00   P
ST24   2.30   1.00   S
ST25   3.84   1.00   P
ST25   6.55   1.00   S
# 2000 12 13 15 10 0.94 35.9375 -117.7012 5.24 1 0 0 0 111
ST0    9.15   1.00   P
ST1    3.35   1.00   P
ST1    5.49   1.00   S
ST2    6.59   1.00   P
ST3    2.37   1.00   P
ST3    3.87   1.00   S
ST4    8.11   1.00   P
ST5    7.38   1.00   S
ST6    6.46   1.00   P
ST7    5.06   1.00   P
ST7    8.55   1.00   S
ST11   4.47   1.00   P
ST11   7.67   1.00   S
ST12   1.54   1.00   P
ST13   11.17   1.00   S
ST14   5.71   1.00   P
ST14   9.53   1.00   S
ST17   8.98   1.00   P
ST18   6.98   1.00   P
ST18   11.88   1.00   S
ST20   1.58   1.00   P
ST21   3.93   1.00   P
ST21   6.72   1.00   S
ST22   1.24   1.00   P
ST23   4.71   1.00   P
ST24   7.93   1.00   P
ST25   4.99   1.00   P
ST25   8.56   1.00   S
ST26   7.99   1.00   P
ST26   13.49   1.00   S
# 2000 12 13 15 10 1.05 35.7015 -117.5867 6.54 1 0 0 0 112
ST2    16.94   1.00   S
ST4    4.51   1.00   P
ST4    7.75   1.00   S
ST5    11.40   1.00   S
ST6    5.65   1.00   P
ST7    3.07   1.00   P
ST7    5.24   1.00   S
ST8    4.11   1.00   P
ST9    5.15   1.00   P
ST10   6.36   1.00   P
ST10   10.79   1.00   S
ST11   8.14   1.00   P
ST12   4.76   1.00   P
ST13   5.18   1.00   S
ST15   3.40   1.00   S
ST16   4.37   1.00   P
ST17   5.41   1.00   P
ST17   9.17   1.00   S
ST18   2.83   1.00   P
ST18   4.83   1.00   S
ST19   2.46   1.00   P
ST20   4.31   1.00   P
ST20   7.38   1.00   S
ST22   7.75   1.00   S
ST23   1.47   1.00   P
ST23   2.31   1.00   S
ST24   4.16   1.00   P
ST25   1.39   1.00   P
ST26   3.98   1.00   P
# 2000 12 13 15 10 1.0 35.7223 -117.5278 5.89 1 0 0 0 113
ST0    4.92   1.00   P
ST0    8.31   1.00   S
ST1    2.68   1.00   P
ST2    9.79   1.00   P
ST3    6.31   1.00   P
ST4    5.09   1.00   P
ST4    8.73   1.00   S
ST5    6.39   1.00   P
ST5    10.76   1.00   S
ST6    4.94   1.00   P
ST6    8.48   1.00   S
ST7    3.82   1.00   P
ST7    6.75   1.00   S
ST8    4.63   1.00   P
ST8    7.79   1.00   S
ST9    5.98   1.00   P
ST10   6.52   1.00   P
ST10   11.12   1.00   S
ST11   8.43   1.00   P
ST11   14.58   1.00   S
ST12   4.75   1.00   P
ST12   7.99   1.00   S
ST13   2.49   1.00   P
ST13   4.22   1.00   S
ST14   3.65   1.00   P
ST14   6.21   1.00   S
ST15   4.03   1.00   S
ST16   4.76   1.00   P
ST16   8.04   1.00   S
ST17   4.94   1.00   P
ST17   8.29   1.00   S
ST18   2.67   1.00   P
ST19   3.69   1.00   S
ST20   4.47   1.00   P
ST20   7.60   1.00   S
ST21   2.10   1.00   P
ST21   3.47   1.00   S
ST23   1.47   1.00   P
ST23   2.51   1.00   S
ST24   6.30   1.00   S
ST25   1.86   1.00   P
ST25   3.06   1.00   S
ST26   3.73   1.00   P
# 2000 12 13 15 10 0.94 35.9199 -117.6888 5.38 1 0 0 0 114
ST0    8.88   1.00   P
ST2    11.56   1.00   S
ST3    4.50   1.00   S
ST4    13.43   1.00   S
ST7    4.74   1.00   P
ST7    8.11   1.00   S
ST8    3.17   1.00   P
ST8    5.23   1.00   S
ST9    6.56   1.00   P
ST10   2.79   1.00   P
ST10   4.65   1.00   S
ST11   4.75   1.00   P
ST11   8.28   1.00   S
ST12   2.58   1.00   S
ST13   6.27   1.00   P
ST13   10.61   1.00   S
ST14   9.26   1.00   S
ST15   5.86   1.00   P
ST15   10.05   1.00   S
ST17   8.67   1.00   P
ST18   11.36   1.00   S
ST19   6.13   1.00   P
ST19   10.41   1.00   S
ST20   2.09   1.00   S
ST21   3.63   1.00   P
ST21   6.15   1.00   S
ST22   1.10   1.00   P
ST23   4.44   1.00   P
ST23   7.54   1.00   S
ST25   4.66   1.00   P
# 2000 12 13 15 10 1.22 35.6072 -117.4227 4.53 1 0 0 0 115
ST0    2.10   1.00   P
ST0    4.90   1.00   S
ST1    5.10   1.00   P
ST2    11.89   1.00   P
ST2    20.12   1.00   S
ST3    8.78   1.00   P
ST5    8.29   1.00   P
ST6    9.64   1.00   S
ST7    5.61   1.00   P
ST7    9.78   1.00   S
ST8    6.95   1.00   P
ST10   8.96   1.00   P
ST10   15.41   1.00   S
ST11   18.87   1.00   S
ST12   7.21   1.00   P
ST13   1.73   1.00   P
ST14   4.43   1.00   P
ST15   2.59   1.00   P
ST16   3.24   1.00   P
ST17   2.67   1.00   P
ST17   4.59   1.00   S
ST18   2.62   1.00   S
ST19   1.78   1.00   P
ST19   2.95   1.00   S
ST20   6.96   1.00   P
ST21   4.54   1.00   P
ST21   7.76   1.00   S
ST22   7.16   1.00   P
ST22   12.21   1.00   S
ST23   3.61   1.00   P
ST23   6.25   1.00   S
ST24   1.20   1.00   P
ST24   2.14   1.00   S
ST25   3.71   1.00   P
ST26   0.94   1.00   P
ST26   1.72   1.00   S
# 2000 12 13 15 10 1.01 35.8927 -117.6821 7.66 1 0 0 0 116
ST0    8.32   1.00   P
ST1    2.58   1.00   P
ST1    4.26   1.00   S
ST2    7.07   1.00   P
ST2    12.06   1.00   S
ST3    2.96   1.00   P
ST4    12.50   1.00   S
ST5    4.64   1.00   P
ST5    7.77   1.00   S
ST6    6.01   1.00   P
ST7    4.15   1.00   P
ST7    7.23   1.00   S
ST8    2.79   1.00   P
ST8    4.57   1.00   S
ST9    6.09   1.00   P
ST10   3.15   1.00   P
ST10   5.23   1.00   S
ST11   5.01   1.00   P
ST11   8.78   1.00   S
ST12   1.92   1.00   P
ST12   3.11   1.00   S
ST13   5.71   1.00   P
ST13   9.77   1.00   S
ST14   5.13   1.00   P
ST14   8.64   1.00   S
ST15   5.20   1.00   P
ST15   9.02   1.00   S
ST16   7.62   1.00   P
ST16   13.06   1.00   S
ST17   8.14   1.00   P
ST17   13.81   1.00   S
ST18   10.32   1.00   S
ST19   5.50   1.00   P
ST20   1.47   1.00   P
ST20   2.53   1.00   S
ST22   1.54   1.00   P
ST22   2.54   1.00   S
ST23   3.89   1.00   P
ST23   6.56   1.00   S
ST24   7.05   1.00   P
ST24   11.87   1.00   S
ST25   4.06   1.00   P
ST26   7.58   1.00   P
# 2000 12 13 15 10 1.19 35.8279 -117.6309 6.20 1 0 0 0 117
ST1    2.17   1.00   S
ST2    7.95   1.00   P
ST3    4.07   1.00   P
ST3    6.96   1.00   S
ST4    6.40   1.00   P
ST4    10.85   1.00   S
ST6    5.49   1.00   P
ST7    6.25   1.00   S
ST8    2.75   1.00   P
ST9    5.69   1.00   P
ST9    9.88   1.00   S
ST12   2.70   1.00   P
ST13   4.53   1.00   P
ST13   8.07   1.00   S
ST14   4.39   1.00   P
ST15   4.08   1.00   P
ST17   7.08   1.00   P
ST18   8.56   1.00   S
ST19   4.33   1.00   P
ST20   3.60   1.00   S
ST21   1.66   1.00   P
ST22   3.00   1.00   P
ST23   2.61   1.00   P
ST24   5.90   1.00   P
ST25   2.84   1.00   P
ST25   4.92   1.00   S
ST26   5.92   1.00   P
ST26   10.13   1.00   S
# 2000 12 13 15 10 1.08 35.6901 -117.5086 6.73 1 0 0 0 118
ST0    4.21   1.00   P
ST0    7.16   1.00   S
ST1    3.24   1.00   P
ST3    6.78   1.00   P
ST3    11.53   1.00   S
ST4    4.59   1.00   P
ST4    8.60   1.00   S
ST6    5.13   1.00   P
ST6    8.72   1.00   S
ST7    3.97   1.00   P
ST7    6.93   1.00   S
ST8    5.03   1.00   P
ST8    8.66   1.00   S
ST10   7.01   1.00   P
ST11   8.87   1.00   P
ST13   2.12   1.00   P
ST16   6.98   1.00   S
ST17   4.42   1.00   P
ST18   2.17   1.00   P
ST19   2.93   1.00   S
ST20   5.07   1.00   P
ST22   5.14   1.00   P
ST23   3.27   1.00   S
ST25   1.99   1.00   P
ST25   3.37   1.00   S
ST26   3.06   1.00   P
# 2000 12 13 15 10 0.93 35.5659 -117.6148 3.06 1 0 0 0 119
ST0    7.94   1.00   S
ST1    5.17   1.00   P
ST1    8.81   1.00   S
ST2    12.36   1.00   P
ST2    21.12   1.00   S
ST4    2.33   1.00   P
ST4    3.95   1.00   S
ST5    9.18   1.00   P
ST5    15.60   1.00   S
ST7    6.70   1.00   S
ST8    10.27   1.00   S
ST9    8.77   1.00   S
ST10   14.56   1.00   S
ST12   7.18   1.00   P
ST12   12.26   1.00   S
ST13   4.00   1.00   P
ST13   6.80   1.00   S
ST14   10.92   1.00   S
ST15   3.29   1.00   S
ST16   3.98   1.00   S
ST17   5.63   1.00   P
ST17   9.75   1.00   S
ST19   3.15   1.00   P
ST19   5.36   1.00   S
ST20   6.49   1.00   P
ST22   6.75   1.00   P
ST22   11.58   1.00   S
ST23   3.58   1.00   P
ST23   6.16   1.00   S
ST24   7.42   1.00   S
ST25   5.35   1.00   S
ST26   3.76   1.00   P
ST26   6.39   1.00   S
# 2000 12 13 15 10 0.87 35.7134 -117.4857 4.99 1 0 0 0 120
ST0    7.74   1.00   S
ST1    3.13   1.00   P
ST1    5.16   1.00   S
ST3    6.91   1.00   P
ST4    5.37   1.00   P
ST4    9.04   1.00   S
ST5    6.61   1.00   P
ST5    10.91   1.00   S
ST6    4.82   1.00   P
ST6    8.08   1.00   S
ST7    7.64   1.00   S
ST8    5.30   1.00   P
ST8    8.99   1.00   S
ST9    6.56   1.00   P
ST9    11.24   1.00   S
ST10   7.07   1.00   P
ST10   11.92   1.00   S
ST11   9.01   1.00   P
ST11   15.44   1.00   S
ST12   5.23   1.00   P
ST14   3.50   1.00   P
ST16   4.88   1.00   P
ST16   8.09   1.00   S
ST18   2.64   1.00   P
ST18   4.14   1.00   S
ST19   1.93   1.00   P
ST19   3.07   1.00   S
ST20   5.06   1.00   P
ST20   8.51   1.00   S
ST21   2.60   1.00   P
ST22   5.24   1.00   P
ST22   8.83   1.00   S
ST23   1.84   1.00   P
ST24   3.42   1.00   P
ST26   3.48   1.00   P
ST26   5.79   1.00   S
# 2000 12 13 15 10 1.09 35.7233 -117.5560 6.27 1 0 0 0 121
ST2    9.63   1.00   P
ST2    16.35   1.00   S
ST3    5.91   1.00   P
ST5    6.31   1.00   P
ST5    10.75   1.00   S
ST6    5.18   1.00   P
ST6    8.91   1.00   S
ST7    3.42   1.00   P
ST7    6.05   1.00   S
ST8    4.24   1.00   P
ST9    5.52   1.00   P
ST10   6.16   1.00   P
ST11   8.03   1.00   P
ST12   8.67   1.00   S
ST15   4.13   1.00   S
ST16   8.00   1.00   S
ST17   5.24   1.00   P
ST17   8.81   1.00   S
ST18   2.92   1.00   P
ST18   5.05   1.00   S
ST19   2.45   1.00   P
ST20   4.21   1.00   P
ST21   1.87   1.00   P
ST22   4.34   1.00   P
ST22   7.33   1.00   S
ST24   4.01   1.00   P
ST25   1.67   1.00   P
ST26   3.89   1.00   P
# 2000 12 13 15 10 0.97 35.6736 -117.4811 4.17 1 0 0 0 122
ST0    4.03   1.00   P
ST0    6.60   1.00   S
ST1    3.75   1.00   P
ST2    10.80   1.00   P
ST3    7.49   1.00   P
ST3    12.79   1.00   S
ST4    8.36   1.00   S
ST6    5.16   1.00   P
ST6    8.75   1.00   S
ST8    9.80   1.00   S
ST10   7.64   1.00   P
ST12   5.86   1.00   P
ST13   1.43   1.00   P
ST14   3.91   1.00   P
ST15   3.45   1.00   S
ST17   4.13   1.00   P
ST18   1.86   1.00   P
ST18   3.08   1.00   S
ST19   1.13   1.00   P
ST20   9.66   1.00   S
ST21   3.15   1.00   P
ST21   5.26   1.00   S
ST22   6.34   1.00   P
ST22   9.84   1.00   S
ST23   2.12   1.00   P
ST24   2.71   1.00   P
ST25   4.01   1.00   S
ST26   2.72   1.00   P
ST26   4.43   1.00   S
# 2000 12 13 15 10 1.09 35.7052 -117.5215 9.08 1 0 0 0 123
ST0    4.58   1.00   P
ST0    7.75   1.00   S
ST1    2.97   1.00   P
ST1    5.00   1.00   S
ST2    16.88   1.00   S
ST3    10.99   1.00   S
ST4    4.84   1.00   P
ST5    12.05   1.00   S
ST6    4.99   1.00   P
ST6    8.57   1.00   S
ST7    3.99   1.00   P
ST7    6.88   1.00   S
ST8    4.82   1.00   P
ST8    8.31   1.00   S
ST9    5.98   1.00   P
ST10   6.68   1.00   P
ST10   11.42   1.00   S
ST11   8.58   1.00   P
ST12   5.01   1.00   P
ST12   8.44   1.00   S
ST13   2.29   1.00   P
ST14   3.63   1.00   P
ST15   2.25   1.00   P
ST15   3.96   1.00   S
ST16   4.47   1.00   P
ST16   7.52   1.00   S
ST17   4.57   1.00   P
ST17   7.69   1.00   S
ST18   2.54   1.00   P
ST19   2.03   1.00   P
ST19   4.24   1.00   S
ST20   4.70   1.00   P
ST20   8.11   1.00   S
ST22   4.87   1.00   P
ST22   8.30   1.00   S
ST23   3.04   1.00   S
ST24   3.47   1.00   P
ST24   5.80   1.00   S
ST25   1.96   1.00   P
ST25   3.41   1.00   S
ST26   3.39   1.00   P
