# 2000 12 13 15 10 1.03 35.6559 -117.4472 6.36 1 0 0 0 26
ST0    3.35   1.00   P
ST1    4.13   1.00   P
ST1    6.98   1.00   S
ST2    10.95   1.00   P
ST2    18.44   1.00   S
ST3    7.99   1.00   P
ST3    13.51   1.00   S
ST4    4.90   1.00   P
ST5    7.41   1.00   P
ST6    8.48   1.00   S
ST8    6.18   1.00   P
ST9    6.79   1.00   P
ST11   9.97   1.00   P
ST12   6.25   1.00   P
ST12   10.51   1.00   S
ST13   2.40   1.00   S
ST14   3.81   1.00   P
ST14   6.39   1.00   S
ST15   4.02   1.00   S
ST17   3.40   1.00   P
ST17   5.51   1.00   S
ST18   2.93   1.00   S
ST19   1.31   1.00   P
ST20   10.36   1.00   S
ST21   3.66   1.00   P
ST23   2.77   1.00   P
ST24   2.06   1.00   P
ST25   2.97   1.00   P
ST25   5.02   1.00   S
ST26   2.14   1.00   P
# 2000 12 13 15 10 0.97 35.6093 -117.5841 4.47 1 0 0 0 27
ST0    7.44   1.00   S
ST1    4.33   1.00   P
ST1    7.42   1.00   S
ST3    7.51   1.00   P
ST4    3.16   1.00   P
ST4    5.34   1.00   S
ST6    6.77   1.00   P
ST6    11.39   1.00   S
ST7    3.61   1.00   P
ST7    6.41   1.00   S
ST8    5.42   1.00   P
ST9    8.97   1.00   S
ST10   7.92   1.00   P
ST11   9.63   1.00   P
ST11   16.89   1.00   S
ST13   5.31   1.00   S
ST14   5.45   1.00   P
ST15   1.16   1.00   P
ST16   2.95   1.00   P
ST16   5.09   1.00   S
ST17   5.14   1.00   P
ST17   8.75   1.00   S
ST18   3.34   1.00   S
ST20   5.84   1.00   P
ST20   9.99   1.00   S
ST21   3.54   1.00   P
ST21   6.04   1.00   S
ST22   6.06   1.00   P
ST23   2.61   1.00   P
ST23   4.44   1.00   S
ST25   2.24   1.00   P
ST26   3.32   1.00   P
ST26   5.59   1.00   S
# 2000 12 13 15 10 1.04 35.8852 -117.7018 5.82 1 0 0 0 28
ST0    8.38   1.00   P
ST1    2.61   1.00   P
ST2    7.29   1.00   P
ST2    12.54   1.00   S
ST3    2.90   1.00   P
ST3    4.94   1.00   S
ST4    7.19   1.00   P
ST5    4.88   1.00   P
ST5    8.29   1.00   S
ST6    6.29   1.00   P
ST6    10.65   1.00   S
ST7    4.09   1.00   P
ST8    2.48   1.00   P
ST8    4.09   1.00   S
ST9    5.92   1.00   P
ST10   3.24   1.00   P
ST13   5.86   1.00   P
ST15   5.27   1.00   P
ST15   9.21   1.00   S
ST16   7.65   1.00   P
ST16   13.10   1.00   S
ST17   8.24   1.00   P
ST18   10.52   1.00   S
ST19   5.63   1.00   P
ST20   1.09   1.00   P
ST20   1.80   1.00   S
ST22   1.22   1.00   P
ST23   3.87   1.00   P
ST24   7.17   1.00   P
ST25   4.07   1.00   P
ST25   6.97   1.00   S
ST26   7.85   1.00   P
ST26   12.22   1.00   S
# 2000 12 13 15 10 1.01 35.8801 -117.6940 6.55 1 0 0 0 29
ST0    8.24   1.00   P
ST1    2.52   1.00   P
ST1    4.19   1.00   S
ST2    7.26   1.00   P
ST2    12.42   1.00   S
ST3    3.03   1.00   P
ST4    7.09   1.00   P
ST5    4.88   1.00   P
ST6    6.14   1.00   P
ST7    4.08   1.00   P
ST7    6.75   1.00   S
ST9    10.02   1.00   S
ST10   3.71   1.00   P
ST10   5.46   1.00   S
ST12   3.37   1.00   S
ST13   5.69   1.00   P
ST14   8.88   1.00   S
ST15   5.16   1.00   P
ST15   8.98   1.00   S
ST16   12.87   1.00   S
ST17   13.82   1.00   S
ST18   6.01   1.00   P
ST18   10.31   1.00   S
ST20   1.32   1.00   P
ST21   3.01   1.00   P
ST21   5.12   1.00   S
ST22   1.39   1.00   P
ST22   2.26   1.00   S
ST23   3.81   1.00   P
ST23   6.44   1.00   S
ST24   7.02   1.00   P
ST24   11.94   1.00   S
ST25   3.96   1.00   P
ST26   7.05   1.00   P
# 2000 12 13 15 10 0.86 35.5750 -117.6019 3.00 1 0 0 0 30
ST0    4.50   1.00   P
ST0    7.50   1.00   S
ST2    12.30   1.00   P
ST3    8.10   1.00   P
ST3    13.79   1.00   S
ST4    2.68   1.00   P
ST4    4.50   1.00   S
ST5    9.10   1.00   P
ST6    7.45   1.00   P
ST7    4.01   1.00   P
ST8    5.98   1.00   P
ST8    10.24   1.00   S
ST9    5.12   1.00   P
ST10   8.53   1.00   P
ST11   10.27   1.00   P
ST12   7.07   1.00   P
ST13   3.80   1.00   P
ST14   6.11   1.00   P
ST14   10.34   1.00   S
ST17   5.47   1.00   P
ST17   9.12   1.00   S
ST19   2.84   1.00   P
ST20   6.51   1.00   P
ST21   4.28   1.00   P
ST21   7.28   1.00   S
ST23   3.39   1.00   P
ST24   4.14   1.00   P
ST24   7.63   1.00   S
ST25   3.02   1.00   P
ST25   5.10   1.00   S
ST26   3.53   1.00   P
# 2000 12 13 15 10 0.98 35.6671 -117.4855 4.16 1 0 0 0 31
ST0    3.99   1.00   P
ST0    6.54   1.00   S
ST1    7.30   1.00   S
ST2    10.80   1.00   P
ST3    7.51   1.00   P
ST4    4.91   1.00   P
ST4    8.29   1.00   S
ST5    12.11   1.00   S
ST7    4.63   1.00   P
ST7    7.86   1.00   S
ST8    5.76   1.00   P
ST8    9.83   1.00   S
ST9    6.56   1.00   P
ST10   7.66   1.00   P
ST10   13.23   1.00   S
ST11   9.58   1.00   P
ST11   16.61   1.00   S
ST13   1.50   1.00   P
ST14   3.85   1.00   P
ST15   3.25   1.00   S
ST16   6.97   1.00   S
ST17   4.07   1.00   P
ST17   6.53   1.00   S
ST19   1.10   1.00   P
ST20   5.66   1.00   P
ST21   3.14   1.00   P
ST22   5.82   1.00   P
ST23   2.12   1.00   P
ST23   3.50   1.00   S
ST24   4.55   1.00   S
ST25   4.03   1.00   S
ST26   4.43   1.00   S
# 2000 12 13 15 10 0.96 35.6844 -117.4802 4.85 1 0 0 0 32
ST0    4.06   1.00   P
ST0    6.80   1.00   S
ST1    3.61   1.00   P
ST2    10.57   1.00   P
ST2    17.80   1.00   S
ST3    7.35   1.00   P
ST3    12.40   1.00   S
ST5    11.59   1.00   S
ST6    4.98   1.00   P
ST6    9.19   1.00   S
ST7    4.61   1.00   P
ST7    7.86   1.00   S
ST8    9.63   1.00   S
ST9    6.56   1.00   P
ST9    11.20   1.00   S
ST11   9.42   1.00   P
ST13   2.63   1.00   S
ST14   3.69   1.00   P
ST15   2.16   1.00   P
ST16   4.33   1.00   P
ST16   7.26   1.00   S
ST17   4.15   1.00   P
ST18   2.06   1.00   P
ST19   1.37   1.00   P
ST19   2.26   1.00   S
ST21   5.10   1.00   S
ST23   2.14   1.00   P
ST24   2.81   1.00   P
ST25   2.40   1.00   P
ST26   2.83   1.00   P
# 2000 12 13 15 10 0.9 35.9663 -117.6933 4.71 1 0 0 0 33
ST0    16.20   1.00   S
ST1    3.82   1.00   P
ST1    6.22   1.00   S
ST2    6.17   1.00   P
ST4    8.68   1.00   P
ST4    14.78   1.00   S
ST5    6.89   1.00   S
ST6    6.54   1.00   P
ST6    10.85   1.00   S
ST7    9.47   1.00   S
ST10   2.06   1.00   P
ST13   6.98   1.00   P
ST15   6.68   1.00   P
ST15   11.45   1.00   S
ST16   9.05   1.00   P
ST17   15.69   1.00   S
ST18   12.71   1.00   S
ST19   6.81   1.00   P
ST19   11.57   1.00   S
ST20   3.47   1.00   S
ST21   4.47   1.00   P
ST22   1.77   1.00   P
ST23   5.25   1.00   P
ST25   5.53   1.00   P
# 2000 12 13 15 10 1.01 35.7275 -117.5410 5.52 1 0 0 0 34
ST0    5.11   1.00   P
ST0    8.61   1.00   S
ST1    2.47   1.00   P
ST2    9.66   1.00   P
ST2    16.31   1.00   S
ST3    6.21   1.00   P
ST4    5.21   1.00   P
ST4    8.82   1.00   S
ST7    3.84   1.00   P
ST8    4.54   1.00   P
ST9    6.00   1.00   P
ST9    10.26   1.00   S
ST10   6.34   1.00   P
ST11   8.30   1.00   P
ST11   14.40   1.00   S
ST12   4.63   1.00   P
ST12   7.92   1.00   S
ST13   4.94   1.00   S
ST14   3.58   1.00   P
ST15   2.40   1.00   P
ST15   4.01   1.00   S
ST16   4.89   1.00   P
ST16   8.37   1.00   S
ST17   5.07   1.00   P
ST17   8.59   1.00   S
ST18   2.89   1.00   P
ST19   2.26   1.00   P
ST20   4.30   1.00   P
ST21   1.85   1.00   P
ST21   3.18   1.00   S
ST22   4.54   1.00   P
ST22   7.70   1.00   S
ST23   1.28   1.00   P
ST24   3.90   1.00   P
ST24   6.51   1.00   S
ST25   1.72   1.00   P
ST25   2.94   1.00   S
ST26   3.89   1.00   P
ST26   6.58   1.00   S
# 2000 12 13 15 10 1.08 35.8711 -117.6924 7.26 1 0 0 0 35
ST0    13.67   1.00   S
ST1    2.37   1.00   P
ST1    3.89   1.00   S
ST3    3.07   1.00   P
ST4    6.86   1.00   P
ST5    5.46   1.00   P
ST5    8.23   1.00   S
ST6    6.06   1.00   P
ST6    10.37   1.00   S
ST7    3.84   1.00   P
ST8    2.37   1.00   P
ST9    5.69   1.00   P
ST9    9.76   1.00   S
ST10   5.73   1.00   S
ST12   2.14   1.00   P
ST12   3.58   1.00   S
ST13   5.60   1.00   P
ST14   8.88   1.00   S
ST15   4.90   1.00   P
ST16   8.15   1.00   P
ST17   7.95   1.00   P
ST17   13.51   1.00   S
ST18   5.75   1.00   P
ST18   9.95   1.00   S
ST19   5.34   1.00   P
ST20   1.32   1.00   P
ST20   2.29   1.00   S
ST21   2.80   1.00   P
ST21   4.84   1.00   S
ST22   2.08   1.00   P
ST22   2.52   1.00   S
ST23   3.58   1.00   P
ST24   6.80   1.00   P
ST25   3.80   1.00   P
ST26   6.83   1.00   P
ST26   11.65   1.00   S
# 2000 12 13 15 10 0.92 35.9098 -117.7438 9.25 1 0 0 0 36
ST0    9.00   1.00   P
ST2    7.09   1.00   P
ST3    2.33   1.00   P
ST4    7.60   1.00   P
ST5    8.40   1.00   S
ST6    6.83   1.00   P
ST6    12.27   1.00   S
ST8    2.84   1.00   P
ST8    4.69   1.00   S
ST9    6.06   1.00   P
ST9    10.36   1.00   S
ST10   2.76   1.00   P
ST10   4.53   1.00   S
ST11   4.45   1.00   P
ST11   7.96   1.00   S
ST13   11.02   1.00   S
ST14   5.97   1.00   P
ST16   8.17   1.00   P
ST16   13.88   1.00   S
ST18   11.49   1.00   S
ST19   6.28   1.00   P
ST19   10.68   1.00   S
ST20   1.73   1.00   P
ST23   4.59   1.00   P
ST24   7.81   1.00   P
ST24   13.29   1.00   S
# 2000 12 13 15 10 1.09 35.7097 -117.5751 6.52 1 0 0 0 37
ST0    5.10   1.00   P
ST0    8.65   1.00   S
ST2    16.71   1.00   S
ST4    7.99   1.00   S
ST5    6.48   1.00   P
ST5    11.16   1.00   S
ST6    9.31   1.00   S
ST7    5.44   1.00   S
ST8    3.99   1.00   P
ST8    7.03   1.00   S
ST9    5.20   1.00   P
ST9    9.01   1.00   S
ST10   10.71   1.00   S
ST12   4.70   1.00   P
ST12   7.93   1.00   S
ST13   2.93   1.00   P
ST13   5.06   1.00   S
ST14   4.18   1.00   P
ST15   2.06   1.00   P
ST15   3.57   1.00   S
ST16   7.57   1.00   S
ST17   5.28   1.00   P
ST17   9.10   1.00   S
ST19   4.20   1.00   S
ST20   7.38   1.00   S
ST21   1.84   1.00   P
ST21   3.33   1.00   S
ST22   7.50   1.00   S
ST23   1.36   1.00   P
ST24   4.00   1.00   P
ST25   1.36   1.00   P
ST25   2.39   1.00   S
ST26   3.88   1.00   P
# 2000 12 13 15 10 1.04 35.6565 -117.4903 4.70 1 0 0 0 38
ST0    3.66   1.00   P
ST0    7.36   1.00   S
ST1    6.56   1.00   S
ST2    10.92   1.00   P
ST2    18.38   1.00   S
ST3    12.79   1.00   S
ST6    5.33   1.00   P
ST6    9.03   1.00   S
ST7    4.42   1.00   P
ST7    7.73   1.00   S
ST9    6.21   1.00   P
ST10   7.77   1.00   P
ST10   14.12   1.00   S
ST11   9.61   1.00   P
ST11   18.03   1.00   S
ST12   6.03   1.00   P
ST12   10.24   1.00   S
ST13   1.65   1.00   P
ST13   2.79   1.00   S
ST14   4.05   1.00   P
ST14   6.93   1.00   S
ST15   1.74   1.00   P
ST15   2.96   1.00   S
ST16   3.75   1.00   P
ST16   6.28   1.00   S
ST17   3.94   1.00   P
ST17   6.61   1.00   S
ST18   1.53   1.00   P
ST19   1.19   1.00   P
ST20   5.71   1.00   P
ST20   9.79   1.00   S
ST21   4.02   1.00   P
ST22   5.90   1.00   P
ST23   2.27   1.00   P
ST24   2.58   1.00   P
ST24   4.29   1.00   S
ST25   2.39   1.00   P
ST26   2.39   1.00   P
ST26   4.03   1.00   S
# 2000 12 13 15 10 1.05 35.7543 -117.5636 6.98 1 0 0 0 39
ST0    9.55   1.00   S
ST1    1.85   1.00   P
ST1    4.45   1.00   S
ST2    9.10   1.00   P
ST2    15.45   1.00   S
ST4    5.38   1.00   P
ST5    5.88   1.00   P
ST6    4.94   1.00   P
ST6    8.53   1.00   S
ST7    3.54   1.00   P
ST8    3.90   1.00   P
ST9    5.73   1.00   P
ST9    9.87   1.00   S
ST10   9.75   1.00   S
ST11   7.66   1.00   P
ST12   6.89   1.00   S
ST14   6.37   1.00   S
ST16   9.03   1.00   S
ST17   9.56   1.00   S
ST18   3.44   1.00   P
ST19   2.80   1.00   P
ST19   4.92   1.00   S
ST20   3.64   1.00   P
ST21   1.35   1.00   P
ST22   3.84   1.00   P
ST22   6.60   1.00   S
ST23   2.26   1.00   S
ST24   4.41   1.00   P
ST25   1.79   1.00   P
ST25   3.03   1.00   S
# 2000 12 13 15 10 0.94 35.9227 -117.7098 5.22 1 0 0 0 40
ST0    8.99   1.00   P
ST0    15.08   1.00   S
ST1    3.10   1.00   P
ST1    6.14   1.00   S
ST2    11.67   1.00   S
ST3    2.54   1.00   P
ST4    7.97   1.00   P
ST4    13.46   1.00   S
ST5    4.58   1.00   P
ST6    6.41   1.00   P
ST6    10.69   1.00   S
ST7    4.85   1.00   P
ST10   2.73   1.00   P
ST10   4.37   1.00   S
ST11   8.06   1.00   S
ST13   6.39   1.00   P
ST15   5.99   1.00   P
ST15   10.22   1.00   S
ST16   8.29   1.00   P
ST16   14.20   1.00   S
ST17   8.86   1.00   P
ST18   6.81   1.00   P
ST19   6.28   1.00   P
ST19   11.43   1.00   S
ST20   1.32   1.00   P
ST21   3.77   1.00   P
ST22   1.10   1.00   P
ST22   1.75   1.00   S
ST23   4.56   1.00   P
ST24   7.72   1.00   P
ST24   13.05   1.00   S
ST25   8.21   1.00   S
ST26   13.16   1.00   S
# 2000 12 13 15 10 1.09 35.8889 -117.6987 5.78 1 0 0 0 41
ST0    8.44   1.00   P
ST3    2.88   1.00   P
ST3    4.87   1.00   S
ST4    12.62   1.00   S
ST5    4.74   1.00   P
ST6    6.17   1.00   P
ST7    7.36   1.00   S
ST8    2.60   1.00   P
ST8    4.50   1.00   S
ST9    6.04   1.00   P
ST9    10.33   1.00   S
ST11   5.03   1.00   P
ST11   8.83   1.00   S
ST12   1.88   1.00   P
ST12   4.20   1.00   S
ST14   5.27   1.00   P
ST15   5.35   1.00   P
ST15   9.31   1.00   S
ST16   7.72   1.00   P
ST17   8.29   1.00   P
ST18   6.19   1.00   P
ST19   5.62   1.00   P
ST20   0.98   1.00   P
ST20   1.60   1.00   S
ST21   5.35   1.00   S
ST22   1.72   1.00   S
ST23   3.93   1.00   P
ST24   7.18   1.00   P
ST25   4.13   1.00   P
ST26   7.19   1.00   P
ST26   12.30   1.00   S
# 2000 12 13 15 10 0.93 35.6848 -117.4916 0.72 1 0 0 0 42
ST0    4.74   1.00   P
ST1    3.93   1.00   P
ST2    11.12   1.00   P
ST3    13.30   1.00   S
ST4    5.45   1.00   P
ST5    12.57   1.00   S
ST6    5.72   1.00   P
ST6    9.43   1.00   S
ST8    6.05   1.00   P
ST8    10.46   1.00   S
ST9    7.06   1.00   P
ST10   8.03   1.00   P
ST12   6.30   1.00   P
ST12   10.46   1.00   S
ST13   1.48   1.00   P
ST14   7.27   1.00   S
ST15   2.02   1.00   P
ST15   3.01   1.00   S
ST17   4.80   1.00   P
ST21   3.07   1.00   P
ST23   1.93   1.00   P
ST24   3.16   1.00   P
ST25   2.21   1.00   P
ST26   3.10   1.00   P
# 2000 12 13 15 10 0.92 35.8834 -117.6977 9.00 1 0 0 0 43
ST0    8.26   1.00   P
ST2    7.32   1.00   P
ST4    12.26   1.00   S
ST5    8.09   1.00   S
ST6    6.20   1.00   P
ST7    4.15   1.00   P
ST9    5.95   1.00   P
ST10   3.38   1.00   P
ST10   5.60   1.00   S
ST11   5.31   1.00   P
ST12   2.10   1.00   P
ST14   5.23   1.00   P
ST15   8.93   1.00   S
ST16   7.59   1.00   P
ST16   12.88   1.00   S
ST17   8.14   1.00   P
ST17   13.72   1.00   S
ST18   6.03   1.00   P
ST19   5.43   1.00   P
ST20   1.63   1.00   P
ST20   2.58   1.00   S
ST21   3.04   1.00   P
ST21   6.20   1.00   S
ST22   1.78   1.00   P
ST23   3.80   1.00   P
ST24   7.03   1.00   P
ST25   4.09   1.00   P
ST26   7.07   1.00   P
ST26   11.86   1.00   S
# 2000 12 13 15 10 0.93 35.9478 -117.6839 4.92 1 0 0 0 44
ST0    9.22   1.00   P
ST0    15.54   1.00   S
ST2    6.34   1.00   P
ST3    2.58   1.00   P
ST4    8.39   1.00   P
ST4    14.21   1.00   S
ST5    4.11   1.00   P
ST6    6.26   1.00   P
ST9    7.10   1.00   P
ST9    12.01   1.00   S
ST10   2.41   1.00   P
ST11   4.41   1.00   P
ST11   7.73   1.00   S
ST12   1.14   1.00   P
ST12   1.90   1.00   S
ST13   11.14   1.00   S
ST14   9.29   1.00   S
ST15   10.81   1.00   S
ST17   8.98   1.00   P
ST17   15.06   1.00   S
ST18   7.14   1.00   P
ST18   12.05   1.00   S
ST19   6.49   1.00   P
ST20   1.83   1.00   P
ST21   6.75   1.00   S
ST22   1.45   1.00   P
ST23   4.83   1.00   P
ST24   7.93   1.00   P
ST25   5.14   1.00   P
ST25   8.66   1.00   S
ST26   8.13   1.00   P
ST26   13.62   1.00   S
# 2000 12 13 15 10 0.98 35.6712 -117.4757 4.86 1 0 0 0 45
ST0    3.80   1.00   P
ST0    6.30   1.00   S
ST1    6.48   1.00   S
ST2    10.84   1.00   P
ST2    18.26   1.00   S
ST3    7.67   1.00   P
ST3    12.83   1.00   S
ST4    4.85   1.00   P
ST5    7.41   1.00   P
ST5    12.13   1.00   S
ST6    5.21   1.00   P
ST6    8.69   1.00   S
ST7    4.68   1.00   P
ST8    5.79   1.00   P
ST9    6.60   1.00   P
ST10   7.75   1.00   P
ST11   9.64   1.00   P
ST11   16.64   1.00   S
ST12   9.98   1.00   S
ST13   1.48   1.00   P
ST13   2.44   1.00   S
ST14   3.87   1.00   P
ST14   6.63   1.00   S
ST15   1.97   1.00   P
ST17   3.96   1.00   P
ST17   6.61   1.00   S
ST18   1.78   1.00   P
ST19   1.12   1.00   P
ST19   1.92   1.00   S
ST20   5.73   1.00   P
ST21   3.25   1.00   P
ST21   5.41   1.00   S
ST22   5.93   1.00   P
ST23   2.36   1.00   P
ST25   2.49   1.00   P
ST26   4.23   1.00   S
# 2000 12 13 15 10 1.05 35.6067 -117.5704 4.31 1 0 0 0 46
ST0    4.19   1.00   P
ST1    8.40   1.00   S
ST2    11.59   1.00   P
ST4    3.12   1.00   P
ST5    8.28   1.00   P
ST6    11.33   1.00   S
ST7    3.59   1.00   P
ST7    6.51   1.00   S
ST8    5.92   1.00   P
ST8    9.48   1.00   S
ST9    5.16   1.00   P
ST9    8.98   1.00   S
ST10   7.94   1.00   P
ST11   9.69   1.00   P
ST12   6.44   1.00   P
ST13   2.96   1.00   P
ST14   9.11   1.00   S
ST15   1.04   1.00   P
ST15   1.83   1.00   S
ST17   5.01   1.00   P
ST18   1.75   1.00   P
ST18   3.01   1.00   S
ST19   3.65   1.00   S
ST20   5.87   1.00   P
ST21   3.51   1.00   P
ST21   6.08   1.00   S
ST22   6.08   1.00   P
ST22   10.49   1.00   S
ST23   2.58   1.00   P
ST23   4.46   1.00   S
ST24   3.58   1.00   P
ST25   2.15   1.00   P
ST25   3.84   1.00   S
ST26   5.28   1.00   S
# 2000 12 13 15 10 1.02 35.8746 -117.6758 8.37 1 0 0 0 47
ST0    8.00   1.00   P
ST1    2.39   1.00   P
ST2    7.34   1.00   P
ST2    12.51   1.00   S
ST3    3.25   1.00   P
ST5    4.82   1.00   P
ST6    5.94   1.00   P
ST7    3.99   1.00   P
ST8    2.64   1.00   P
ST8    4.41   1.00   S
ST9    5.86   1.00   P
ST10   3.42   1.00   P
ST11   5.30   1.00   P
ST11   9.22   1.00   S
ST12   2.17   1.00   P
ST13   5.46   1.00   P
ST13   9.34   1.00   S
ST14   5.01   1.00   P
ST16   7.33   1.00   P
ST17   7.84   1.00   P
ST17   13.42   1.00   S
ST18   9.88   1.00   S
ST19   5.33   1.00   P
ST19   9.03   1.00   S
ST20   1.60   1.00   P
ST20   2.62   1.00   S
ST21   2.85   1.00   P
ST22   1.73   1.00   P
ST22   2.91   1.00   S
ST23   3.53   1.00   P
ST23   6.06   1.00   S
ST25   3.81   1.00   P
ST26   6.80   1.00   P
# 2000 12 13 15 10 0.89 35.7330 -117.5258 3.32 1 0 0 0 48
ST0    5.38   1.00   P
ST0    8.88   1.00   S
ST2    9.80   1.00   P
ST2    17.31   1.00   S
ST4    5.58   1.00   P
ST4    9.47   1.00   S
ST5    10.61   1.00   S
ST6    5.66   1.00   P
ST8    4.82   1.00   P
ST8    8.19   1.00   S
ST9    6.42   1.00   P
ST9    10.93   1.00   S
ST10   6.57   1.00   P
ST11   8.52   1.00   P
ST11   14.72   1.00   S
ST12   7.98   1.00   S
ST13   2.60   1.00   P
ST13   4.39   1.00   S
ST14   3.67   1.00   P
ST14   6.16   1.00   S
ST15   2.66   1.00   P
ST16   5.24   1.00   P
ST18   3.13   1.00   P
ST18   5.17   1.00   S
ST19   2.45   1.00   P
ST19   3.88   1.00   S
ST20   4.57   1.00   P
ST21   3.10   1.00   S
ST22   4.75   1.00   P
ST24   4.08   1.00   P
ST25   1.90   1.00   P
ST25   2.94   1.00   S
ST26   4.09   1.00   P
# 2000 12 13 15 10 1.11 35.9251 -117.7018 4.28 1 0 0 0 49
ST0    9.05   1.00   P
ST0    15.29   1.00   S
ST1    3.16   1.00   P
ST1    5.38   1.00   S
ST2    6.64   1.00   P
ST3    2.27   1.00   P
ST4    13.62   1.00   S
ST5    4.49   1.00   P
ST6    6.39   1.00   P
ST7    8.39   1.00   S
ST8    3.18   1.00   P
ST9    6.56   1.00   P
ST10   3.10   1.00   P
ST12   1.45   1.00   P
ST13   6.41   1.00   P
ST14   5.71   1.00   P
ST15   6.03   1.00   P
ST17   14.89   1.00   S
ST18   7.54   1.00   P
ST18   11.84   1.00   S
ST19   6.31   1.00   P
ST20   1.21   1.00   P
ST20   2.04   1.00   S
ST21   3.83   1.00   P
ST21   6.55   1.00   S
ST22   1.64   1.00   S
ST23   4.59   1.00   P
ST23   7.94   1.00   S
ST24   13.22   1.00   S
ST25   4.84   1.00   P
ST26   7.85   1.00   P
ST26   13.36   1.00   S
# 2000 12 13 15 10 0.74 35.6032 -117.6025 1.38 1 0 0 0 50
ST0    4.79   1.00   P
ST0    8.00   1.00   S
ST1    4.82   1.00   P
ST1    8.13   1.00   S
ST2    12.06   1.00   P
ST2    20.37   1.00   S
ST3    7.94   1.00   P
ST3    13.38   1.00   S
ST5    8.85   1.00   P
ST6    7.31   1.00   P
ST7    3.88   1.00   P
ST8    5.79   1.00   P
ST9    5.20   1.00   P
ST10   15.05   1.00   S
ST12   6.91   1.00   P
ST13   3.67   1.00   P
ST13   6.09   1.00   S
ST16   2.99   1.00   P
ST17   10.53   1.00   S
ST18   2.33   1.00   P
ST19   2.76   1.00   P
ST19   4.59   1.00   S
ST20   6.25   1.00   P
ST21   4.03   1.00   P
ST22   10.98   1.00   S
ST23   3.10   1.00   P
ST23   5.15   1.00   S
ST24   4.29   1.00   P
ST24   7.05   1.00   S
ST26   3.68   1.00   P
