# 2000 12 13 15 10 0.96 35.9010 -117.7005 7.67 1 0 0 0 148
ST0    8.55   1.00   P
ST0    14.38   1.00   S
ST1    2.82   1.00   P
ST3    4.63   1.00   S
ST4    7.35   1.00   P
ST4    12.72   1.00   S
ST5    4.77   1.00   P
ST6    10.48   1.00   S
ST7    4.34   1.00   P
ST8    4.61   1.00   S
ST9    6.10   1.00   P
ST11   4.86   1.00   P
ST12   1.97   1.00   P
ST12   3.21   1.00   S
ST13   5.94   1.00   P
ST13   10.26   1.00   S
ST14   5.35   1.00   P
ST15   9.41   1.00   S
ST17   8.42   1.00   P
ST18   6.34   1.00   P
ST18   10.83   1.00   S
ST19   5.78   1.00   P
ST20   1.46   1.00   P
ST21   3.36   1.00   P
ST22   1.47   1.00   P
ST22   2.38   1.00   S
ST23   4.11   1.00   P
ST24   7.28   1.00   P
ST24   12.40   1.00   S
ST25   4.30   1.00   P
ST26   7.33   1.00   P
ST26   12.42   1.00   S
# 2000 12 13 15 10 0.95 35.6728 -117.4845 3.48 1 0 0 0 149
ST0    6.78   1.00   S
ST1    3.79   1.00   P
ST2    10.80   1.00   P
ST2    18.05   1.00   S
ST3    7.57   1.00   P
ST3    12.82   1.00   S
ST4    5.09   1.00   P
ST4    8.48   1.00   S
ST5    7.25   1.00   P
ST5    13.01   1.00   S
ST7    4.71   1.00   P
ST7    8.14   1.00   S
ST8    9.97   1.00   S
ST9    6.70   1.00   P
ST9    11.29   1.00   S
ST10   7.71   1.00   P
ST10   13.10   1.00   S
ST11   9.66   1.00   P
ST11   16.71   1.00   S
ST12   10.02   1.00   S
ST13   1.41   1.00   P
ST13   2.35   1.00   S
ST15   2.05   1.00   P
ST16   4.28   1.00   P
ST17   4.12   1.00   P
ST18   3.07   1.00   S
ST19   1.09   1.00   P
ST20   5.73   1.00   P
ST20   9.73   1.00   S
ST21   3.18   1.00   P
ST22   5.90   1.00   P
ST22   10.02   1.00   S
ST23   2.17   1.00   P
ST24   2.70   1.00   P
ST26   4.57   1.00   S
# 2000 12 13 15 10 1.0 35.9073 -117.6766 5.10 1 0 0 0 150
ST0    14.45   1.00   S
ST1    2.65   1.00   P
ST1    4.48   1.00   S
ST2    11.81   1.00   S
ST3    3.56   1.00   P
ST3    4.87   1.00   S
ST4    7.62   1.00   P
ST5    4.55   1.00   P
ST7    7.81   1.00   S
ST8    2.98   1.00   P
ST8    5.03   1.00   S
ST9    6.47   1.00   P
ST10   3.00   1.00   P
ST10   5.16   1.00   S
ST11   4.94   1.00   P
ST11   8.69   1.00   S
ST12   2.65   1.00   S
ST14   5.23   1.00   P
ST14   8.85   1.00   S
ST15   9.66   1.00   S
ST16   7.96   1.00   P
ST16   13.62   1.00   S
ST17   8.37   1.00   P
ST17   14.23   1.00   S
ST18   10.94   1.00   S
ST19   5.79   1.00   P
ST20   1.19   1.00   P
ST21   3.34   1.00   P
ST22   1.82   1.00   S
ST25   7.51   1.00   S
ST26   7.38   1.00   P
# 2000 12 13 15 10 0.89 35.9031 -117.6660 4.70 1 0 0 0 151
ST1    2.60   1.00   P
ST1    4.21   1.00   S
ST2    7.13   1.00   P
ST3    3.18   1.00   P
ST3    5.18   1.00   S
ST4    7.56   1.00   P
ST4    14.16   1.00   S
ST5    4.58   1.00   P
ST5    7.64   1.00   S
ST6    6.05   1.00   P
ST6    9.95   1.00   S
ST7    4.57   1.00   P
ST7    7.81   1.00   S
ST9    6.48   1.00   P
ST10   3.30   1.00   P
ST11   5.26   1.00   P
ST13   10.03   1.00   S
ST14   5.22   1.00   P
ST14   8.68   1.00   S
ST15   5.51   1.00   P
ST16   13.55   1.00   S
ST17   8.31   1.00   P
ST17   14.12   1.00   S
ST18   6.31   1.00   P
ST18   10.77   1.00   S
ST20   1.37   1.00   P
ST21   5.46   1.00   S
ST23   6.71   1.00   S
ST24   7.26   1.00   P
ST24   12.21   1.00   S
ST25   4.23   1.00   P
ST25   7.31   1.00   S
ST26   12.35   1.00   S
# 2000 12 13 15 10 0.9 35.9477 -117.6925 4.61 1 0 0 0 152
ST0    9.24   1.00   P
ST1    3.42   1.00   P
ST3    2.40   1.00   P
ST3    3.97   1.00   S
ST4    8.31   1.00   P
ST5    4.32   1.00   P
ST7    5.27   1.00   P
ST8    3.64   1.00   P
ST8    5.95   1.00   S
ST9    6.98   1.00   P
ST11   4.43   1.00   P
ST11   7.74   1.00   S
ST13   11.12   1.00   S
ST14   5.71   1.00   P
ST15   6.32   1.00   P
ST15   10.79   1.00   S
ST16   8.71   1.00   P
ST18   13.25   1.00   S
ST20   1.81   1.00   P
ST20   2.80   1.00   S
ST21   6.76   1.00   S
ST22   1.41   1.00   P
ST22   2.25   1.00   S
ST23   4.86   1.00   P
ST24   8.07   1.00   P
ST24   13.57   1.00   S
ST25   5.14   1.00   P
ST25   8.73   1.00   S
ST26   8.10   1.00   P
ST26   13.44   1.00   S
# 2000 12 13 15 10 0.95 35.8993 -117.6760 6.71 1 0 0 0 153
ST0    8.35   1.00   P
ST1    2.60   1.00   P
ST3    5.02   1.00   S
ST4    7.39   1.00   P
ST4    12.65   1.00   S
ST5    4.45   1.00   P
ST6    6.02   1.00   P
ST6    9.99   1.00   S
ST7    4.38   1.00   P
ST7    7.43   1.00   S
ST8    2.92   1.00   P
ST9    6.25   1.00   P
ST9    10.65   1.00   S
ST10   3.16   1.00   P
ST10   5.30   1.00   S
ST11   5.07   1.00   P
ST11   8.92   1.00   S
ST12   2.92   1.00   S
ST13   5.82   1.00   P
ST13   9.82   1.00   S
ST14   5.12   1.00   P
ST14   8.61   1.00   S
ST15   5.38   1.00   P
ST15   9.23   1.00   S
ST16   7.73   1.00   P
ST16   13.25   1.00   S
ST17   13.85   1.00   S
ST18   6.73   1.00   P
ST18   10.59   1.00   S
ST19   5.59   1.00   P
ST20   1.41   1.00   P
ST20   2.30   1.00   S
ST21   3.15   1.00   P
ST21   5.31   1.00   S
ST22   2.25   1.00   S
ST23   3.92   1.00   P
ST24   7.12   1.00   P
ST24   12.08   1.00   S
ST26   7.15   1.00   P
# 2000 12 13 15 10 0.97 35.9328 -117.7050 4.77 1 0 0 0 154
ST0    9.18   1.00   P
ST1    3.30   1.00   P
ST1    5.45   1.00   S
ST2    6.79   1.00   P
ST3    3.86   1.00   S
ST4    8.12   1.00   P
ST4    13.84   1.00   S
ST5    4.57   1.00   P
ST6    6.55   1.00   P
ST6    10.92   1.00   S
ST7    4.89   1.00   P
ST8    3.24   1.00   P
ST8    5.47   1.00   S
ST10   2.46   1.00   P
ST11   4.47   1.00   P
ST13   11.22   1.00   S
ST15   6.26   1.00   P
ST15   10.59   1.00   S
ST16   8.49   1.00   P
ST17   9.02   1.00   P
ST18   6.99   1.00   P
ST18   11.90   1.00   S
ST19   6.45   1.00   P
ST20   1.45   1.00   P
ST20   2.33   1.00   S
ST21   3.96   1.00   P
ST21   6.65   1.00   S
ST22   1.13   1.00   P
ST24   13.39   1.00   S
ST25   5.01   1.00   P
ST26   8.00   1.00   P
ST26   13.60   1.00   S
# 2000 12 13 15 10 0.98 35.9302 -117.7217 6.51 1 0 0 0 155
ST0    9.10   1.00   P
ST1    6.62   1.00   S
ST3    2.18   1.00   P
ST4    7.88   1.00   P
ST5    4.62   1.00   P
ST6    6.57   1.00   P
ST6    10.99   1.00   S
ST7    4.77   1.00   P
ST9    6.43   1.00   P
ST9    10.93   1.00   S
ST10   2.45   1.00   P
ST11   7.57   1.00   S
ST12   1.90   1.00   P
ST13   6.48   1.00   P
ST14   5.76   1.00   P
ST14   9.73   1.00   S
ST15   6.02   1.00   P
ST15   10.32   1.00   S
ST18   6.84   1.00   P
ST18   11.73   1.00   S
ST19   6.32   1.00   P
ST21   3.91   1.00   P
ST22   1.47   1.00   P
ST22   2.42   1.00   S
ST23   4.64   1.00   P
ST24   7.84   1.00   P
ST24   13.26   1.00   S
ST25   4.83   1.00   P
ST26   8.32   1.00   P
ST26   13.38   1.00   S
# 2000 12 13 15 10 0.89 35.5775 -117.6219 3.15 1 0 0 0 156
ST0    8.17   1.00   S
ST1    5.00   1.00   P
ST1    8.61   1.00   S
ST2    12.11   1.00   P
ST3    7.97   1.00   P
ST5    15.35   1.00   S
ST6    7.59   1.00   P
ST7    3.69   1.00   P
ST7    6.36   1.00   S
ST8    5.71   1.00   P
ST8    9.88   1.00   S
ST9    4.80   1.00   P
ST10   8.40   1.00   P
ST10   14.31   1.00   S
ST11   10.09   1.00   P
ST11   17.60   1.00   S
ST12   11.84   1.00   S
ST13   3.97   1.00   P
ST14   6.30   1.00   P
ST15   3.03   1.00   S
ST16   2.62   1.00   P
ST16   4.35   1.00   S
ST17   5.77   1.00   P
ST17   9.69   1.00   S
ST18   2.60   1.00   P
ST20   6.33   1.00   P
ST20   10.72   1.00   S
ST21   4.23   1.00   P
ST21   7.26   1.00   S
ST22   6.53   1.00   P
ST23   5.79   1.00   S
ST24   7.44   1.00   S
ST25   2.91   1.00   P
ST26   3.83   1.00   P
ST26   6.63   1.00   S
# 2000 12 13 15 10 1.14 35.6017 -117.4210 5.20 1 0 0 0 157
ST0    2.28   1.00   P
ST1    5.13   1.00   P
ST2    11.96   1.00   P
ST3    8.88   1.00   P
ST4    4.64   1.00   P
ST5    8.39   1.00   P
ST6    5.72   1.00   P
ST7    9.74   1.00   S
ST9    7.31   1.00   P
ST10   15.36   1.00   S
ST12   7.25   1.00   P
ST12   12.20   1.00   S
ST13   3.06   1.00   S
ST14   7.75   1.00   S
ST17   2.81   1.00   P
ST18   1.49   1.00   P
ST19   1.68   1.00   P
ST19   2.97   1.00   S
ST20   12.02   1.00   S
ST21   4.53   1.00   P
ST21   7.92   1.00   S
ST22   12.24   1.00   S
ST23   3.61   1.00   P
ST24   1.28   1.00   P
ST24   2.26   1.00   S
ST25   6.31   1.00   S
# 2000 12 13 15 10 1.08 35.6365 -117.4237 3.41 1 0 0 0 158
ST0    2.95   1.00   P
ST0    5.02   1.00   S
ST1    4.77   1.00   P
ST1    8.39   1.00   S
ST2    11.48   1.00   P
ST4    8.54   1.00   S
ST5    7.89   1.00   P
ST7    6.37   1.00   P
ST8    6.72   1.00   P
ST9    7.31   1.00   P
ST9    12.58   1.00   S
ST10   8.67   1.00   P
ST11   10.53   1.00   P
ST13   1.12   1.00   P
ST14   4.14   1.00   P
ST15   5.50   1.00   S
ST16   3.88   1.00   P
ST17   3.04   1.00   P
ST18   1.53   1.00   P
ST20   6.69   1.00   P
ST20   11.39   1.00   S
ST21   4.23   1.00   P
ST23   3.21   1.00   P
ST23   5.35   1.00   S
ST24   2.38   1.00   S
ST25   3.40   1.00   P
ST26   1.49   1.00   P
# 2000 12 13 15 10 1.06 35.8826 -117.7113 4.53 1 0 0 0 159
ST0    8.47   1.00   P
ST0    15.31   1.00   S
ST1    4.58   1.00   S
ST2    7.32   1.00   P
ST3    2.82   1.00   P
ST4    7.24   1.00   P
ST5    5.00   1.00   P
ST7    4.15   1.00   P
ST7    7.28   1.00   S
ST9    5.95   1.00   P
ST10   3.20   1.00   P
ST11   5.94   1.00   P
ST11   8.84   1.00   S
ST12   3.44   1.00   S
ST13   5.97   1.00   P
ST13   10.20   1.00   S
ST15   5.36   1.00   P
ST16   7.69   1.00   P
ST17   8.41   1.00   P
ST18   6.17   1.00   P
ST18   11.73   1.00   S
ST19   5.72   1.00   P
ST19   9.83   1.00   S
ST20   0.96   1.00   P
ST21   3.25   1.00   P
ST21   5.52   1.00   S
ST22   1.19   1.00   P
ST22   1.97   1.00   S
ST23   4.02   1.00   P
ST23   6.86   1.00   S
ST24   7.25   1.00   P
ST25   7.23   1.00   S
# 2000 12 13 15 10 0.84 35.7500 -117.5164 3.68 1 0 0 0 160
ST0    5.45   1.00   P
ST1    2.42   1.00   P
ST2    9.53   1.00   P
ST4    5.68   1.00   P
ST5    11.22   1.00   S
ST6    4.86   1.00   P
ST6    7.91   1.00   S
ST7    4.15   1.00   P
ST7    8.22   1.00   S
ST8    4.60   1.00   P
ST9    6.33   1.00   P
ST11   8.24   1.00   P
ST12   7.62   1.00   S
ST14   3.58   1.00   P
ST14   5.90   1.00   S
ST15   2.91   1.00   P
ST16   5.38   1.00   P
ST17   5.31   1.00   P
ST17   8.83   1.00   S
ST18   3.34   1.00   P
ST20   4.30   1.00   P
ST20   7.32   1.00   S
ST21   1.96   1.00   P
ST22   4.47   1.00   P
ST23   1.62   1.00   P
ST24   4.17   1.00   P
ST25   2.15   1.00   P
ST26   4.25   1.00   P
ST26   7.01   1.00   S
# 2000 12 13 15 10 1.07 35.6833 -117.5300 9.34 1 0 0 0 161
ST1    3.19   1.00   P
ST1    5.55   1.00   S
ST2    17.42   1.00   S
ST3    11.38   1.00   S
ST4    4.49   1.00   P
ST5    6.99   1.00   P
ST6    5.30   1.00   P
ST7    3.80   1.00   P
ST7    6.79   1.00   S
ST8    4.95   1.00   P
ST10   6.91   1.00   P
ST10   11.77   1.00   S
ST11   15.30   1.00   S
ST12   5.32   1.00   P
ST12   9.04   1.00   S
ST13   2.34   1.00   P
ST13   4.11   1.00   S
ST15   3.49   1.00   S
ST16   4.12   1.00   P
ST16   6.95   1.00   S
ST17   4.63   1.00   P
ST17   7.70   1.00   S
ST18   2.35   1.00   P
ST19   1.98   1.00   P
ST20   9.02   1.00   S
ST21   2.65   1.00   P
ST21   4.56   1.00   S
ST22   5.14   1.00   P
ST23   1.91   1.00   P
ST23   3.32   1.00   S
ST24   5.68   1.00   S
ST25   2.00   1.00   P
ST26   3.28   1.00   P
# 2000 12 13 15 10 0.94 35.6737 -117.4847 3.16 1 0 0 0 162
ST0    4.08   1.00   P
ST0    6.84   1.00   S
ST1    3.88   1.00   P
ST2    10.90   1.00   P
ST3    7.60   1.00   P
ST4    5.00   1.00   P
ST5    8.35   1.00   P
ST6    5.30   1.00   P
ST6    8.97   1.00   S
ST9    6.65   1.00   P
ST9    11.42   1.00   S
ST10   7.75   1.00   P
ST12   6.05   1.00   P
ST14   6.69   1.00   S
ST15   1.93   1.00   P
ST17   4.20   1.00   P
ST17   7.01   1.00   S
ST18   2.94   1.00   S
ST19   1.08   1.00   P
ST20   9.86   1.00   S
ST21   3.20   1.00   P
ST23   3.58   1.00   S
ST24   2.77   1.00   P
ST25   2.34   1.00   P
ST25   4.05   1.00   S
# 2000 12 13 15 10 0.92 35.9692 -117.7112 4.52 1 0 0 0 163
ST0    9.74   1.00   P
ST3    2.02   1.00   P
ST3    3.38   1.00   S
ST4    8.70   1.00   P
ST6    6.70   1.00   P
ST7    5.64   1.00   P
ST8    3.96   1.00   P
ST9    7.28   1.00   P
ST9    12.30   1.00   S
ST10   3.17   1.00   S
ST11   4.01   1.00   P
ST12   1.54   1.00   P
ST14   6.06   1.00   P
ST15   6.79   1.00   P
ST16   9.14   1.00   P
ST17   9.52   1.00   P
ST18   12.93   1.00   S
ST19   6.95   1.00   P
ST19   11.80   1.00   S
ST20   3.50   1.00   S
ST21   4.56   1.00   P
ST21   7.68   1.00   S
ST22   1.76   1.00   P
ST23   5.33   1.00   P
ST24   8.44   1.00   P
ST24   14.36   1.00   S
ST25   5.56   1.00   P
ST25   9.50   1.00   S
# 2000 12 13 15 10 0.97 35.9092 -117.7427 7.85 1 0 0 0 164
ST0    15.19   1.00   S
ST1    3.38   1.00   P
ST2    7.14   1.00   P
ST2    12.10   1.00   S
ST4    7.56   1.00   P
ST4    12.94   1.00   S
ST5    5.04   1.00   P
ST5    8.38   1.00   S
ST6    6.84   1.00   P
ST6    11.44   1.00   S
ST7    4.44   1.00   P
ST8    2.77   1.00   P
ST10   2.61   1.00   P
ST10   4.54   1.00   S
ST11   4.39   1.00   P
ST12   2.26   1.00   P
ST13   6.50   1.00   P
ST14   5.94   1.00   P
ST14   9.98   1.00   S
ST15   5.85   1.00   P
ST15   10.14   1.00   S
ST16   8.14   1.00   P
ST17   15.09   1.00   S
ST18   6.70   1.00   P
ST19   6.26   1.00   P
ST19   10.72   1.00   S
ST20   2.74   1.00   S
ST22   1.68   1.00   P
ST23   4.57   1.00   P
ST24   7.80   1.00   P
ST24   13.15   1.00   S
ST25   4.70   1.00   P
ST25   7.94   1.00   S
ST26   13.29   1.00   S
# 2000 12 13 15 10 1.16 35.9279 -117.7042 4.37 1 0 0 0 165
ST0    9.07   1.00   P
ST2    7.23   1.00   P
ST4    7.94   1.00   P
ST4    13.72   1.00   S
ST6    6.42   1.00   P
ST7    8.42   1.00   S
ST8    3.18   1.00   P
ST8    5.30   1.00   S
ST9    6.50   1.00   P
ST10   3.70   1.00   S
ST11   5.01   1.00   P
ST12   1.45   1.00   P
ST12   2.47   1.00   S
ST13   6.53   1.00   P
ST14   9.71   1.00   S
ST16   14.44   1.00   S
ST17   15.20   1.00   S
ST18   6.94   1.00   P
ST20   2.35   1.00   S
ST22   1.01   1.00   P
ST22   1.74   1.00   S
ST23   4.66   1.00   P
ST23   8.03   1.00   S
ST24   7.86   1.00   P
ST26   7.91   1.00   P
# 2000 12 13 15 10 1.03 35.7584 -117.5541 7.76 1 0 0 0 166
ST0    5.58   1.00   P
ST1    2.02   1.00   P
ST1    3.49   1.00   S
ST2    9.12   1.00   P
ST3    5.57   1.00   P
ST4    5.44   1.00   P
ST5    5.82   1.00   P
ST5    9.81   1.00   S
ST6    8.36   1.00   S
ST7    3.64   1.00   P
ST8    7.03   1.00   S
ST9    5.81   1.00   P
ST10   5.75   1.00   P
ST11   7.70   1.00   P
ST12   4.03   1.00   P
ST12   6.78   1.00   S
ST14   6.32   1.00   S
ST16   5.32   1.00   P
ST17   5.51   1.00   P
ST18   3.43   1.00   P
ST18   5.86   1.00   S
ST19   2.84   1.00   P
ST19   4.86   1.00   S
ST21   1.66   1.00   P
ST21   2.80   1.00   S
ST22   3.93   1.00   P
ST24   4.38   1.00   P
ST25   1.93   1.00   P
ST26   4.40   1.00   P
# 2000 12 13 15 10 1.03 36.0607 -117.8392 3.32 1 0 0 0 167
ST1    6.18   1.00   P
ST2    5.80   1.00   P
ST2    9.99   1.00   S
ST4    10.39   1.00   P
ST5    5.78   1.00   P
ST5    10.03   1.00   S
ST6    8.78   1.00   P
ST7    7.21   1.00   P
ST7    12.41   1.00   S
ST8    5.53   1.00   P
ST8    9.49   1.00   S
ST9    8.49   1.00   P
ST9    14.57   1.00   S
ST10   1.75   1.00   P
ST10   3.14   1.00   S
ST11   1.54   1.00   P
ST11   2.73   1.00   S
ST13   16.11   1.00   S
ST14   14.22   1.00   S
ST15   8.77   1.00   P
ST16   18.92   1.00   S
ST17   11.80   1.00   P
ST17   20.04   1.00   S
ST18   9.62   1.00   P
ST19   9.19   1.00   P
ST19   15.78   1.00   S
ST21   6.73   1.00   P
ST21   11.60   1.00   S
ST22   4.19   1.00   P
ST24   18.22   1.00   S
ST25   7.61   1.00   P
ST26   18.39   1.00   S
# 2000 12 13 15 10 1.28 36.0668 -117.8448 10.61 1 0 0 0 168
ST1    5.99   1.00   P
ST2    5.55   1.00   P
ST2    9.69   1.00   S
ST3    4.27   1.00   S
ST4    17.60   1.00   S
ST5    5.46   1.00   P
ST5    9.76   1.00   S
ST7    7.47   1.00   P
ST7    12.24   1.00   S
ST8    5.35   1.00   P
ST8    9.32   1.00   S
ST9    8.22   1.00   P
ST12   3.77   1.00   P
ST14   13.96   1.00   S
ST16   18.74   1.00   S
ST17   19.89   1.00   S
ST19   8.94   1.00   P
ST20   4.23   1.00   P
ST20   7.31   1.00   S
ST21   11.38   1.00   S
ST22   3.96   1.00   P
ST22   6.85   1.00   S
ST24   10.46   1.00   P
ST25   7.39   1.00   P
ST26   10.49   1.00   P
# 2000 12 13 15 10 1.0 35.7251 -117.5249 4.91 1 0 0 0 169
ST0    4.92   1.00   P
ST1    4.43   1.00   S
ST2    9.88   1.00   P
ST2    16.60   1.00   S
ST4    8.83   1.00   S
ST5    10.79   1.00   S
ST6    4.98   1.00   P
ST7    3.95   1.00   P
ST7    6.91   1.00   S
ST11   8.53   1.00   P
ST11   14.89   1.00   S
ST12   4.91   1.00   P
ST13   2.38   1.00   P
ST13   5.07   1.00   S
ST14   3.64   1.00   P
ST14   6.19   1.00   S
ST16   4.74   1.00   P
ST16   9.30   1.00   S
ST17   4.90   1.00   P
ST17   8.22   1.00   S
ST18   2.67   1.00   P
ST19   2.05   1.00   P
ST20   7.82   1.00   S
ST21   2.05   1.00   P
ST22   4.74   1.00   P
ST22   8.05   1.00   S
ST23   1.35   1.00   P
ST24   6.21   1.00   S
ST25   1.73   1.00   P
ST26   3.72   1.00   P
ST26   6.23   1.00   S
# 2000 12 13 15 10 0.95 35.5752 -117.6171 3.80 1 0 0 0 170
ST0    4.77   1.00   P
ST1    4.94   1.00   P
ST2    12.16   1.00   P
ST2    20.74   1.00   S
ST3    7.88   1.00   P
ST4    2.49   1.00   P
ST5    8.99   1.00   P
ST5    15.27   1.00   S
ST6    7.52   1.00   P
ST7    3.59   1.00   P
ST7    6.43   1.00   S
ST8    9.71   1.00   S
ST9    4.72   1.00   P
ST9    8.17   1.00   S
ST10   8.31   1.00   P
ST12   11.81   1.00   S
ST13   3.86   1.00   P
ST14   6.20   1.00   P
ST15   1.74   1.00   P
ST15   3.01   1.00   S
ST16   2.57   1.00   P
ST17   5.72   1.00   P
ST18   4.26   1.00   S
ST19   2.99   1.00   P
ST19   5.20   1.00   S
ST20   6.29   1.00   P
ST22   6.51   1.00   P
ST22   11.08   1.00   S
ST23   3.39   1.00   P
ST23   5.74   1.00   S
ST24   4.34   1.00   P
ST24   7.35   1.00   S
ST25   2.82   1.00   P
ST25   4.98   1.00   S
# 2000 12 13 15 10 0.96 35.6788 -117.4763 1.10 1 0 0 0 171
ST1    4.02   1.00   P
ST2    11.12   1.00   P
ST2    19.97   1.00   S
ST3    7.96   1.00   P
ST3    13.46   1.00   S
ST4    5.54   1.00   P
ST5    7.56   1.00   P
ST6    5.50   1.00   P
ST6    9.28   1.00   S
ST7    5.16   1.00   P
ST7    8.89   1.00   S
ST8    6.23   1.00   P
ST9    7.17   1.00   P
ST10   8.13   1.00   P
ST10   13.61   1.00   S
ST11   10.05   1.00   P
ST11   17.30   1.00   S
ST12   6.29   1.00   P
ST12   10.67   1.00   S
ST13   1.22   1.00   P
ST14   4.18   1.00   P
ST15   2.14   1.00   P
ST16   4.86   1.00   P
ST16   8.00   1.00   S
ST17   7.59   1.00   S
ST18   1.97   1.00   P
ST18   3.23   1.00   S
ST19   0.88   1.00   P
ST20   6.12   1.00   P
ST20   10.29   1.00   S
ST21   3.21   1.00   P
ST22   6.26   1.00   P
ST22   10.59   1.00   S
ST23   2.02   1.00   P
ST23   3.96   1.00   S
ST26   2.95   1.00   P
# 2000 12 13 15 10 1.0 35.9161 -117.7047 4.88 1 0 0 0 172
ST0    8.96   1.00   P
ST1    3.13   1.00   P
ST1    5.21   1.00   S
ST2    6.95   1.00   P
ST2    11.87   1.00   S
ST3    2.51   1.00   P
ST3    4.19   1.00   S
ST4    13.35   1.00   S
ST6    6.50   1.00   P
ST6    10.87   1.00   S
ST7    4.71   1.00   P
ST7    8.11   1.00   S
ST8    4.97   1.00   S
ST10   2.73   1.00   P
ST11   8.18   1.00   S
ST12   1.81   1.00   P
ST13   6.45   1.00   P
ST13   10.98   1.00   S
ST14   5.65   1.00   P
ST15   5.88   1.00   P
ST16   8.20   1.00   P
ST16   14.04   1.00   S
ST18   6.74   1.00   P
ST18   11.40   1.00   S
ST19   6.15   1.00   P
ST20   1.16   1.00   P
ST22   0.86   1.00   P
ST23   4.50   1.00   P
ST23   7.67   1.00   S
ST24   7.72   1.00   P
ST25   4.69   1.00   P
ST26   7.85   1.00   P
ST26   13.10   1.00   S
