# 2000 12 13 15 10 1.0 35.6755 -117.4810 0.15 1 0 0 0 173
ST0    4.56   1.00   P
ST0    7.61   1.00   S
ST2    11.34   1.00   P
ST3    8.09   1.00   P
ST3    13.67   1.00   S
ST5    7.77   1.00   P
ST7    8.89   1.00   S
ST8    6.34   1.00   P
ST8    10.87   1.00   S
ST9    7.16   1.00   P
ST10   8.24   1.00   P
ST10   14.04   1.00   S
ST11   18.36   1.00   S
ST12   6.47   1.00   P
ST12   10.85   1.00   S
ST13   1.98   1.00   S
ST14   4.35   1.00   P
ST16   4.63   1.00   P
ST18   1.71   1.00   P
ST18   2.86   1.00   S
ST20   6.17   1.00   P
ST23   2.14   1.00   P
ST23   3.83   1.00   S
ST24   2.78   1.00   P
ST25   2.44   1.00   P
ST25   4.03   1.00   S
ST26   2.78   1.00   P
# 2000 12 13 15 10 1.16 35.6702 -117.5191 7.54 1 0 0 0 174
ST0    4.01   1.00   P
ST1    5.94   1.00   S
ST2    10.54   1.00   P
ST2    17.97   1.00   S
ST3    6.89   1.00   P
ST5    7.14   1.00   P
ST5    11.95   1.00   S
ST6    5.37   1.00   P
ST7    6.73   1.00   S
ST8    8.78   1.00   S
ST9    9.76   1.00   S
ST10   7.19   1.00   P
ST10   12.23   1.00   S
ST11   15.71   1.00   S
ST12   5.51   1.00   P
ST12   9.51   1.00   S
ST13   2.18   1.00   P
ST14   7.07   1.00   S
ST15   1.69   1.00   P
ST18   3.42   1.00   S
ST19   1.64   1.00   P
ST19   2.97   1.00   S
ST20   5.17   1.00   P
ST22   5.42   1.00   P
ST22   9.11   1.00   S
ST24   5.23   1.00   S
ST25   2.00   1.00   P
ST26   2.88   1.00   P
ST26   4.90   1.00   S
# 2000 12 13 15 10 0.98 35.7322 -117.5287 5.69 1 0 0 0 175
ST0    5.11   1.00   P
ST0    8.47   1.00   S
ST1    2.47   1.00   P
ST1    4.15   1.00   S
ST2    9.64   1.00   P
ST2    16.34   1.00   S
ST4    5.22   1.00   P
ST4    9.03   1.00   S
ST5    10.37   1.00   S
ST6    4.89   1.00   P
ST7    3.88   1.00   P
ST8    4.52   1.00   P
ST8    7.70   1.00   S
ST9    5.98   1.00   P
ST9    10.29   1.00   S
ST10   6.33   1.00   P
ST11   14.26   1.00   S
ST12   4.61   1.00   P
ST13   2.64   1.00   P
ST14   3.66   1.00   P
ST14   6.08   1.00   S
ST16   8.31   1.00   S
ST17   5.07   1.00   P
ST18   2.94   1.00   P
ST19   2.35   1.00   P
ST19   3.86   1.00   S
ST20   4.34   1.00   P
ST20   7.29   1.00   S
ST23   1.45   1.00   P
ST23   2.46   1.00   S
ST24   6.60   1.00   S
ST25   1.85   1.00   P
ST25   3.16   1.00   S
ST26   3.92   1.00   P
# 2000 12 13 15 10 0.99 35.7575 -117.5705 5.91 1 0 0 0 176
ST0    5.80   1.00   P
ST0    9.65   1.00   S
ST2    9.21   1.00   P
ST2    15.54   1.00   S
ST3    9.47   1.00   S
ST4    5.50   1.00   P
ST4    9.38   1.00   S
ST5    5.94   1.00   P
ST6    8.66   1.00   S
ST7    3.56   1.00   P
ST9    5.78   1.00   P
ST10   5.82   1.00   P
ST10   9.93   1.00   S
ST11   7.71   1.00   P
ST12   4.10   1.00   P
ST12   6.86   1.00   S
ST14   6.42   1.00   S
ST15   2.82   1.00   P
ST16   5.32   1.00   P
ST17   5.74   1.00   P
ST17   9.54   1.00   S
ST18   3.48   1.00   P
ST18   6.05   1.00   S
ST19   2.96   1.00   P
ST19   4.94   1.00   S
ST20   3.75   1.00   P
ST20   6.30   1.00   S
ST21   1.34   1.00   P
ST22   3.91   1.00   P
ST23   1.33   1.00   P
ST24   4.51   1.00   P
ST25   3.00   1.00   S
ST26   4.53   1.00   P
# 2000 12 13 15 10 0.95 35.9221 -117.6889 5.60 1 0 0 0 177
ST1    2.93   1.00   P
ST2    6.71   1.00   P
ST3    2.67   1.00   P
ST3    4.47   1.00   S
ST4    7.83   1.00   P
ST6    6.19   1.00   P
ST7    4.79   1.00   P
ST7    8.24   1.00   S
ST8    3.20   1.00   P
ST9    11.14   1.00   S
ST10   2.72   1.00   P
ST11   4.75   1.00   P
ST12   1.55   1.00   P
ST12   2.37   1.00   S
ST14   5.93   1.00   P
ST14   9.10   1.00   S
ST17   8.61   1.00   P
ST18   6.62   1.00   P
ST18   11.21   1.00   S
ST19   6.07   1.00   P
ST19   10.30   1.00   S
ST20   1.37   1.00   P
ST22   1.16   1.00   P
ST24   7.55   1.00   P
ST25   4.65   1.00   P
ST26   7.58   1.00   P
# 2000 12 13 15 10 1.04 35.6631 -117.4862 3.61 1 0 0 0 178
ST0    6.67   1.00   S
ST1    6.67   1.00   S
ST2    10.94   1.00   P
ST2    18.46   1.00   S
ST3    12.96   1.00   S
ST4    4.85   1.00   P
ST4    8.19   1.00   S
ST5    7.36   1.00   P
ST6    5.33   1.00   P
ST6    9.19   1.00   S
ST7    4.67   1.00   P
ST7    8.15   1.00   S
ST8    10.10   1.00   S
ST10   7.80   1.00   P
ST12   10.24   1.00   S
ST13   2.30   1.00   S
ST14   4.04   1.00   P
ST15   1.80   1.00   P
ST15   2.99   1.00   S
ST17   4.16   1.00   P
ST17   6.92   1.00   S
ST18   1.50   1.00   P
ST19   0.76   1.00   P
ST19   1.27   1.00   S
ST20   9.96   1.00   S
ST21   3.18   1.00   P
ST22   5.98   1.00   P
ST22   10.21   1.00   S
ST23   2.13   1.00   P
ST23   4.91   1.00   S
ST24   3.30   1.00   P
ST24   4.53   1.00   S
ST26   4.29   1.00   S
# 2000 12 13 15 10 0.96 35.9662 -117.6943 4.84 1 0 0 0 179
ST0    10.30   1.00   P
ST1    3.68   1.00   P
ST1    6.08   1.00   S
ST2    6.13   1.00   P
ST2    10.36   1.00   S
ST3    2.20   1.00   P
ST4    8.58   1.00   P
ST5    4.14   1.00   P
ST5    6.82   1.00   S
ST6    10.67   1.00   S
ST7    5.50   1.00   P
ST8    6.41   1.00   S
ST9    7.17   1.00   P
ST11   4.08   1.00   P
ST12   1.35   1.00   P
ST12   2.18   1.00   S
ST13   6.94   1.00   P
ST15   6.63   1.00   P
ST16   8.99   1.00   P
ST17   9.24   1.00   P
ST17   15.63   1.00   S
ST18   12.57   1.00   S
ST19   11.50   1.00   S
ST20   2.10   1.00   P
ST21   4.36   1.00   P
ST21   7.30   1.00   S
ST22   1.69   1.00   P
ST23   5.13   1.00   P
ST24   8.25   1.00   P
ST25   5.51   1.00   P
ST25   9.24   1.00   S
# 2000 12 13 15 10 1.08 35.5932 -117.4203 5.63 1 0 0 0 180
ST0    2.19   1.00   P
ST2    12.04   1.00   P
ST2    20.27   1.00   S
ST3    8.93   1.00   P
ST3    15.14   1.00   S
ST4    4.70   1.00   P
ST4    8.02   1.00   S
ST5    8.54   1.00   P
ST6    5.78   1.00   P
ST6    9.79   1.00   S
ST7    5.72   1.00   P
ST8    7.11   1.00   P
ST9    7.33   1.00   P
ST10   15.56   1.00   S
ST11   11.04   1.00   P
ST11   19.27   1.00   S
ST12   7.34   1.00   P
ST14   7.79   1.00   S
ST16   3.39   1.00   P
ST16   5.72   1.00   S
ST17   2.80   1.00   P
ST17   4.70   1.00   S
ST18   1.62   1.00   P
ST18   2.74   1.00   S
ST19   1.84   1.00   P
ST19   3.28   1.00   S
ST20   7.13   1.00   P
ST21   4.67   1.00   P
ST21   7.84   1.00   S
ST22   12.30   1.00   S
ST23   3.73   1.00   P
ST23   6.35   1.00   S
ST24   1.35   1.00   P
ST25   3.84   1.00   P
ST25   6.81   1.00   S
ST26   1.09   1.00   P
ST26   1.90   1.00   S
# 2000 12 13 15 10 1.05 35.9127 -117.7416 6.76 1 0 0 0 181
ST1    5.55   1.00   S
ST2    6.90   1.00   P
ST2    11.95   1.00   S
ST3    3.61   1.00   S
ST4    7.61   1.00   P
ST4    13.02   1.00   S
ST5    4.91   1.00   P
ST6    7.68   1.00   P
ST6    11.41   1.00   S
ST7    4.47   1.00   P
ST7    7.75   1.00   S
ST8    2.73   1.00   P
ST8    4.48   1.00   S
ST10   4.30   1.00   S
ST11   7.69   1.00   S
ST12   2.09   1.00   P
ST13   11.03   1.00   S
ST14   10.08   1.00   S
ST15   5.87   1.00   P
ST15   10.15   1.00   S
ST16   8.17   1.00   P
ST18   6.72   1.00   P
ST19   6.35   1.00   P
ST20   1.59   1.00   P
ST21   3.82   1.00   P
ST21   6.42   1.00   S
ST22   2.52   1.00   S
ST23   4.55   1.00   P
ST24   7.79   1.00   P
ST24   13.30   1.00   S
ST26   13.28   1.00   S
# 2000 12 13 15 10 0.97 35.9380 -117.7114 6.51 1 0 0 0 182
ST0    9.13   1.00   P
ST1    3.33   1.00   P
ST2    6.48   1.00   P
ST2    11.12   1.00   S
ST3    2.21   1.00   P
ST3    3.65   1.00   S
ST4    8.04   1.00   P
ST5    4.40   1.00   P
ST6    6.46   1.00   P
ST7    4.94   1.00   P
ST8    3.27   1.00   P
ST8    5.46   1.00   S
ST10   2.36   1.00   P
ST10   4.09   1.00   S
ST11   4.25   1.00   P
ST11   7.40   1.00   S
ST12   1.69   1.00   P
ST12   2.79   1.00   S
ST13   6.55   1.00   P
ST14   9.70   1.00   S
ST15   10.58   1.00   S
ST16   8.47   1.00   P
ST16   14.26   1.00   S
ST17   8.96   1.00   P
ST17   15.06   1.00   S
ST18   11.71   1.00   S
ST19   10.83   1.00   S
ST20   1.76   1.00   P
ST21   3.90   1.00   P
ST22   1.45   1.00   P
ST22   2.48   1.00   S
ST24   7.89   1.00   P
ST25   4.92   1.00   P
ST26   13.44   1.00   S
# 2000 12 13 15 10 0.98 35.6962 -117.5011 5.45 1 0 0 0 183
ST0    7.33   1.00   S
ST1    3.21   1.00   P
ST2    10.83   1.00   P
ST2    17.26   1.00   S
ST5    6.78   1.00   P
ST6    4.95   1.00   P
ST6    8.46   1.00   S
ST8    5.17   1.00   P
ST9    6.24   1.00   P
ST9    10.75   1.00   S
ST10   12.05   1.00   S
ST11   9.00   1.00   P
ST13   3.38   1.00   S
ST14   3.68   1.00   P
ST16   4.43   1.00   P
ST16   7.40   1.00   S
ST17   4.43   1.00   P
ST18   2.26   1.00   P
ST19   1.61   1.00   P
ST19   2.82   1.00   S
ST20   5.10   1.00   P
ST20   8.59   1.00   S
ST21   2.60   1.00   P
ST21   4.40   1.00   S
ST22   8.92   1.00   S
ST23   1.80   1.00   P
ST25   2.01   1.00   P
ST25   3.45   1.00   S
# 2000 12 13 15 10 0.85 35.9753 -117.6589 3.92 1 0 0 0 184
ST0    9.57   1.00   P
ST1    6.17   1.00   S
ST3    2.86   1.00   P
ST3    4.66   1.00   S
ST4    15.27   1.00   S
ST5    3.65   1.00   P
ST6    6.15   1.00   P
ST7    5.95   1.00   P
ST8    4.40   1.00   P
ST9    13.04   1.00   S
ST10   2.44   1.00   P
ST10   3.96   1.00   S
ST11   4.42   1.00   P
ST11   7.71   1.00   S
ST12   1.68   1.00   S
ST13   6.89   1.00   P
ST14   5.57   1.00   P
ST15   11.53   1.00   S
ST16   9.18   1.00   P
ST18   7.52   1.00   P
ST18   12.70   1.00   S
ST20   2.54   1.00   P
ST20   3.91   1.00   S
ST21   4.50   1.00   P
ST23   5.30   1.00   P
ST25   5.64   1.00   P
ST25   9.43   1.00   S
# 2000 12 13 15 10 0.94 35.9382 -117.6771 4.77 1 0 0 0 185
ST0    9.12   1.00   P
ST2    11.10   1.00   S
ST3    2.72   1.00   P
ST3    4.49   1.00   S
ST4    8.29   1.00   P
ST4    14.05   1.00   S
ST5    6.96   1.00   S
ST6    6.19   1.00   P
ST9    11.95   1.00   S
ST10   2.69   1.00   P
ST13   6.49   1.00   P
ST13   10.88   1.00   S
ST14   5.47   1.00   P
ST14   9.12   1.00   S
ST15   6.22   1.00   P
ST15   10.60   1.00   S
ST17   14.89   1.00   S
ST19   6.36   1.00   P
ST20   1.63   1.00   P
ST20   2.69   1.00   S
ST21   3.92   1.00   P
ST21   6.55   1.00   S
ST23   4.69   1.00   P
ST23   7.99   1.00   S
ST24   7.84   1.00   P
ST24   13.23   1.00   S
ST25   5.03   1.00   P
ST26   7.87   1.00   P
# 2000 12 13 15 10 0.97 35.8896 -117.6854 8.13 1 0 0 0 186
ST1    2.58   1.00   P
ST2    7.13   1.00   P
ST2    12.24   1.00   S
ST4    7.25   1.00   P
ST5    4.69   1.00   P
ST7    4.25   1.00   P
ST8    2.77   1.00   P
ST9    6.05   1.00   P
ST10   3.20   1.00   P
ST10   5.37   1.00   S
ST11   5.10   1.00   P
ST12   1.92   1.00   P
ST13   5.70   1.00   P
ST14   5.21   1.00   P
ST19   5.51   1.00   P
ST20   1.54   1.00   P
ST20   2.62   1.00   S
ST21   3.08   1.00   P
ST21   5.25   1.00   S
ST22   1.57   1.00   P
ST22   2.59   1.00   S
ST23   3.83   1.00   P
ST24   7.01   1.00   P
ST26   7.08   1.00   P
# 2000 12 13 15 10 0.93 35.9534 -117.6891 4.37 1 0 0 0 187
ST1    3.52   1.00   P
ST2    6.38   1.00   P
ST3    2.38   1.00   P
ST4    8.44   1.00   P
ST5    7.08   1.00   S
ST6    6.41   1.00   P
ST7    5.36   1.00   P
ST7    9.19   1.00   S
ST8    3.77   1.00   P
ST10   2.34   1.00   P
ST10   3.93   1.00   S
ST11   4.34   1.00   P
ST11   7.65   1.00   S
ST12   1.12   1.00   P
ST15   6.41   1.00   P
ST16   8.86   1.00   P
ST17   9.12   1.00   P
ST17   15.30   1.00   S
ST18   7.19   1.00   P
ST19   6.62   1.00   P
ST19   11.34   1.00   S
ST20   1.83   1.00   P
ST20   3.01   1.00   S
ST21   4.17   1.00   P
ST24   8.11   1.00   P
ST24   13.63   1.00   S
ST25   8.90   1.00   S
ST26   13.78   1.00   S
# 2000 12 13 15 10 0.95 35.9425 -117.6947 4.83 1 0 0 0 188
ST0    9.22   1.00   P
ST0    15.52   1.00   S
ST1    5.57   1.00   S
ST2    6.48   1.00   P
ST2    11.04   1.00   S
ST4    8.21   1.00   P
ST5    4.32   1.00   P
ST6    6.40   1.00   P
ST7    5.11   1.00   P
ST8    3.49   1.00   P
ST8    5.85   1.00   S
ST9    6.88   1.00   P
ST9    11.72   1.00   S
ST10   2.40   1.00   P
ST11   4.41   1.00   P
ST11   7.68   1.00   S
ST13   6.63   1.00   P
ST13   11.15   1.00   S
ST15   6.23   1.00   P
ST16   14.62   1.00   S
ST17   15.17   1.00   S
ST18   7.03   1.00   P
ST19   6.47   1.00   P
ST20   1.62   1.00   P
ST21   4.02   1.00   P
ST22   1.29   1.00   P
ST24   7.96   1.00   P
ST25   5.07   1.00   P
# 2000 12 13 15 10 1.0 35.9199 -117.7358 7.15 1 0 0 0 189
ST0    15.25   1.00   S
ST1    3.29   1.00   P
ST1    5.57   1.00   S
ST2    6.72   1.00   P
ST2    11.54   1.00   S
ST3    2.19   1.00   P
ST3    3.64   1.00   S
ST4    7.76   1.00   P
ST4    13.24   1.00   S
ST5    4.67   1.00   P
ST7    4.59   1.00   P
ST7    7.99   1.00   S
ST8    3.00   1.00   P
ST9    6.34   1.00   P
ST10   2.45   1.00   P
ST11   7.48   1.00   S
ST12   2.63   1.00   P
ST13   6.48   1.00   P
ST13   11.01   1.00   S
ST15   5.92   1.00   P
ST15   10.15   1.00   S
ST17   8.92   1.00   P
ST17   15.01   1.00   S
ST18   6.77   1.00   P
ST19   6.26   1.00   P
ST20   1.59   1.00   P
ST21   3.88   1.00   P
ST21   6.39   1.00   S
ST22   2.41   1.00   S
ST23   4.59   1.00   P
ST24   7.76   1.00   P
ST25   4.81   1.00   P
ST25   8.25   1.00   S
# 2000 12 13 15 10 0.99 35.7211 -117.5489 5.34 1 0 0 0 190
ST0    8.65   1.00   S
ST1    2.59   1.00   P
ST1    4.32   1.00   S
ST2    9.84   1.00   P
ST2    16.59   1.00   S
ST3    6.20   1.00   P
ST3    10.62   1.00   S
ST4    8.61   1.00   S
ST5    6.49   1.00   P
ST5    10.90   1.00   S
ST6    5.16   1.00   P
ST7    6.25   1.00   S
ST8    4.47   1.00   P
ST9    5.76   1.00   P
ST10   6.41   1.00   P
ST10   11.01   1.00   S
ST12   4.75   1.00   P
ST13   2.71   1.00   P
ST13   4.54   1.00   S
ST14   3.88   1.00   P
ST14   6.65   1.00   S
ST15   3.76   1.00   S
ST17   5.20   1.00   P
ST17   8.79   1.00   S
ST20   4.37   1.00   P
ST21   1.84   1.00   P
ST21   3.08   1.00   S
ST22   7.82   1.00   S
ST24   3.94   1.00   P
ST26   3.94   1.00   P
ST26   6.46   1.00   S
# 2000 12 13 15 10 0.91 35.6049 -117.5775 3.50 1 0 0 0 191
ST0    7.28   1.00   S
ST2    11.79   1.00   P
ST2    20.06   1.00   S
ST3    7.76   1.00   P
ST3    13.26   1.00   S
ST4    3.23   1.00   P
ST4    5.44   1.00   S
ST5    8.46   1.00   P
ST5    14.28   1.00   S
ST6    11.61   1.00   S
ST7    3.81   1.00   P
ST8    9.77   1.00   S
ST9    5.42   1.00   P
ST9    9.22   1.00   S
ST10   8.15   1.00   P
ST10   13.91   1.00   S
ST11   9.86   1.00   P
ST11   17.21   1.00   S
ST12   6.67   1.00   P
ST13   5.45   1.00   S
ST14   5.63   1.00   P
ST15   1.04   1.00   P
ST17   5.21   1.00   P
ST17   8.65   1.00   S
ST18   1.85   1.00   P
ST19   2.24   1.00   P
ST19   3.74   1.00   S
ST20   6.07   1.00   P
ST20   10.45   1.00   S
ST21   3.75   1.00   P
ST22   10.78   1.00   S
ST23   2.76   1.00   P
ST24   6.29   1.00   S
ST26   5.27   1.00   S
# 2000 12 13 15 10 1.04 35.9018 -117.6799 6.05 1 0 0 0 192
ST0    8.39   1.00   P
ST1    2.46   1.00   P
ST2    11.94   1.00   S
ST3    2.98   1.00   P
ST3    4.98   1.00   S
ST4    12.88   1.00   S
ST5    4.49   1.00   P
ST5    7.49   1.00   S
ST6    5.94   1.00   P
ST7    4.44   1.00   P
ST7    7.70   1.00   S
ST10   5.24   1.00   S
ST11   5.05   1.00   P
ST11   8.74   1.00   S
ST12   1.60   1.00   P
ST13   9.87   1.00   S
ST14   5.05   1.00   P
ST15   5.39   1.00   P
ST16   7.84   1.00   P
ST17   8.20   1.00   P
ST17   13.84   1.00   S
ST18   6.20   1.00   P
ST20   1.18   1.00   P
ST21   3.15   1.00   P
ST21   5.27   1.00   S
ST22   1.16   1.00   P
ST22   2.60   1.00   S
ST23   3.92   1.00   P
ST23   6.87   1.00   S
ST24   7.12   1.00   P
ST24   13.35   1.00   S
ST25   4.21   1.00   P
ST25   7.24   1.00   S
ST26   7.18   1.00   P
# 2000 12 13 15 10 0.99 35.8825 -117.6874 7.33 1 0 0 0 193
ST0    8.16   1.00   P
ST0    13.65   1.00   S
ST1    2.50   1.00   P
ST1    4.15   1.00   S
ST2    7.24   1.00   P
ST4    7.09   1.00   P
ST5    4.80   1.00   P
ST6    6.05   1.00   P
ST6    10.16   1.00   S
ST7    4.10   1.00   P
ST7    6.99   1.00   S
ST9    5.93   1.00   P
ST9    10.09   1.00   S
ST10   3.30   1.00   P
ST10   5.54   1.00   S
ST11   5.20   1.00   P
ST11   9.01   1.00   S
ST12   2.07   1.00   P
ST13   10.22   1.00   S
ST14   5.13   1.00   P
ST15   5.15   1.00   P
ST15   8.86   1.00   S
ST17   8.08   1.00   P
ST18   5.98   1.00   P
ST19   5.41   1.00   P
ST19   9.18   1.00   S
ST20   2.39   1.00   S
ST21   3.00   1.00   P
ST23   6.45   1.00   S
ST24   6.95   1.00   P
ST24   11.74   1.00   S
ST26   6.97   1.00   P
# 2000 12 13 15 10 0.91 35.9763 -117.6559 4.89 1 0 0 0 194
ST0    9.50   1.00   P
ST1    5.97   1.00   S
ST2    5.87   1.00   P
ST3    4.56   1.00   S
ST4    8.84   1.00   P
ST4    15.20   1.00   S
ST5    3.64   1.00   P
ST6    5.99   1.00   P
ST6    9.96   1.00   S
ST9    7.71   1.00   P
ST10   2.40   1.00   P
ST11   4.41   1.00   P
ST13   6.78   1.00   P
ST13   11.36   1.00   S
ST14   5.50   1.00   P
ST14   9.04   1.00   S
ST15   6.74   1.00   P
ST16   9.15   1.00   P
ST16   15.57   1.00   S
ST17   9.16   1.00   P
ST18   7.47   1.00   P
ST18   12.69   1.00   S
ST19   6.81   1.00   P
ST19   11.46   1.00   S
ST20   2.49   1.00   P
ST21   4.49   1.00   P
ST22   2.10   1.00   P
ST22   3.40   1.00   S
ST23   8.78   1.00   S
ST24   8.20   1.00   P
ST24   13.79   1.00   S
ST25   5.55   1.00   P
ST25   9.47   1.00   S
ST26   13.97   1.00   S
# 2000 12 13 15 10 1.08 35.6846 -117.5112 6.47 1 0 0 0 195
ST0    4.19   1.00   P
ST0    7.05   1.00   S
ST1    5.59   1.00   S
ST2    10.32   1.00   P
ST2    17.49   1.00   S
ST3    6.83   1.00   P
ST4    4.61   1.00   P
ST4    8.09   1.00   S
ST5    6.85   1.00   P
ST7    4.01   1.00   P
ST8    5.12   1.00   P
ST8    8.78   1.00   S
ST9    5.96   1.00   P
ST9    10.36   1.00   S
ST10   7.04   1.00   P
ST11   8.94   1.00   P
ST11   15.53   1.00   S
ST12   5.32   1.00   P
ST12   8.95   1.00   S
ST13   2.14   1.00   P
ST13   3.32   1.00   S
ST14   3.83   1.00   P
ST15   3.45   1.00   S
ST16   4.16   1.00   P
ST16   6.97   1.00   S
ST17   4.36   1.00   P
ST17   7.41   1.00   S
ST18   2.14   1.00   P
ST19   1.69   1.00   P
ST20   8.62   1.00   S
ST21   4.48   1.00   S
ST22   8.96   1.00   S
ST23   1.87   1.00   P
ST23   3.22   1.00   S
ST25   2.09   1.00   P
ST25   3.48   1.00   S
ST26   5.16   1.00   S
# 2000 12 13 15 10 1.02 35.6716 -117.4604 6.20 1 0 0 0 196
ST1    3.86   1.00   P
ST2    10.76   1.00   P
ST2    18.03   1.00   S
ST3    12.86   1.00   S
ST4    4.97   1.00   P
ST4    8.29   1.00   S
ST5    7.17   1.00   P
ST6    4.91   1.00   P
ST6    8.21   1.00   S
ST9    6.76   1.00   P
ST10   7.78   1.00   P
ST11   9.65   1.00   P
ST11   16.72   1.00   S
ST12   9.96   1.00   S
ST15   3.88   1.00   S
ST16   5.02   1.00   P
ST16   6.94   1.00   S
ST19   2.18   1.00   S
ST20   5.80   1.00   P
ST21   3.36   1.00   P
ST22   5.94   1.00   P
ST23   2.55   1.00   P
ST24   2.33   1.00   P
ST24   4.10   1.00   S
ST25   2.72   1.00   P
ST25   4.60   1.00   S
ST26   2.43   1.00   P
# 2000 12 13 15 10 1.05 35.6316 -117.4715 4.88 1 0 0 0 197
ST0    3.23   1.00   P
ST0    5.42   1.00   S
ST1    7.20   1.00   S
ST2    11.39   1.00   P
ST2    19.16   1.00   S
ST3    8.04   1.00   P
ST4    4.45   1.00   P
ST4    7.52   1.00   S
ST5    7.84   1.00   P
ST6    5.57   1.00   P
ST6    9.38   1.00   S
ST7    8.42   1.00   S
ST8    6.24   1.00   P
ST8    10.65   1.00   S
ST9    6.64   1.00   P
ST9    11.26   1.00   S
ST10   14.05   1.00   S
ST11   10.16   1.00   P
ST11   17.68   1.00   S
ST12   6.54   1.00   P
ST13   1.51   1.00   P
ST13   2.65   1.00   S
ST14   4.84   1.00   P
ST15   1.89   1.00   P
ST15   3.30   1.00   S
ST16   3.52   1.00   P
ST17   3.58   1.00   P
ST19   1.01   1.00   P
ST19   1.88   1.00   S
ST21   3.73   1.00   P
ST22   10.91   1.00   S
ST23   2.75   1.00   P
ST23   4.75   1.00   S
ST24   3.54   1.00   S
ST25   2.82   1.00   P
ST25   4.85   1.00   S
ST26   1.92   1.00   P
ST26   3.23   1.00   S
