# 2000 12 13 15 10 0.92 35.7427 -117.5511 2.95 1 0 0 0 75
ST0    5.70   1.00   P
ST0    9.63   1.00   S
ST1    2.18   1.00   P
ST1    3.52   1.00   S
ST2    9.69   1.00   P
ST2    17.21   1.00   S
ST4    9.54   1.00   S
ST5    10.52   1.00   S
ST6    5.30   1.00   P
ST6    8.94   1.00   S
ST7    3.79   1.00   P
ST8    7.43   1.00   S
ST10   6.23   1.00   P
ST10   10.75   1.00   S
ST11   8.19   1.00   P
ST12   4.57   1.00   P
ST12   8.75   1.00   S
ST13   3.10   1.00   P
ST13   5.25   1.00   S
ST14   4.04   1.00   P
ST14   6.71   1.00   S
ST15   2.71   1.00   P
ST16   5.39   1.00   P
ST17   5.78   1.00   P
ST17   9.62   1.00   S
ST18   3.37   1.00   P
ST19   4.55   1.00   S
ST20   4.25   1.00   P
ST20   7.21   1.00   S
ST21   1.41   1.00   P
ST22   4.44   1.00   P
ST23   0.98   1.00   P
ST23   1.56   1.00   S
ST24   4.52   1.00   P
ST25   1.56   1.00   P
ST25   2.60   1.00   S
ST26   4.44   1.00   P
# 2000 12 13 15 10 1.1 35.5899 -117.4248 4.09 1 0 0 0 76
ST1    5.35   1.00   P
ST2    12.13   1.00   P
ST2    20.44   1.00   S
ST3    9.02   1.00   P
ST4    4.78   1.00   P
ST5    8.54   1.00   P
ST6    5.83   1.00   P
ST7    5.81   1.00   P
ST7    10.11   1.00   S
ST8    7.19   1.00   P
ST9    7.45   1.00   P
ST10   9.18   1.00   P
ST11   11.11   1.00   P
ST11   19.21   1.00   S
ST12   12.48   1.00   S
ST13   1.91   1.00   P
ST14   9.16   1.00   S
ST15   2.68   1.00   P
ST16   3.36   1.00   P
ST16   5.73   1.00   S
ST17   2.83   1.00   P
ST18   1.59   1.00   P
ST18   2.77   1.00   S
ST19   1.83   1.00   P
ST19   3.15   1.00   S
ST20   7.24   1.00   P
ST23   6.46   1.00   S
ST24   1.25   1.00   P
ST24   2.10   1.00   S
ST25   3.80   1.00   P
ST25   6.69   1.00   S
# 2000 12 13 15 10 0.88 35.9579 -117.6791 4.32 1 0 0 0 77
ST0    9.39   1.00   P
ST1    3.54   1.00   P
ST1    5.86   1.00   S
ST2    6.29   1.00   P
ST3    2.53   1.00   P
ST3    4.08   1.00   S
ST4    8.58   1.00   P
ST6    6.34   1.00   P
ST7    9.39   1.00   S
ST8    3.94   1.00   P
ST8    6.34   1.00   S
ST9    7.29   1.00   P
ST9    12.18   1.00   S
ST10   2.36   1.00   P
ST10   4.12   1.00   S
ST11   7.56   1.00   S
ST12   1.73   1.00   S
ST14   5.69   1.00   P
ST14   9.34   1.00   S
ST15   6.51   1.00   P
ST15   11.09   1.00   S
ST16   8.90   1.00   P
ST17   9.12   1.00   P
ST18   7.26   1.00   P
ST19   6.75   1.00   P
ST19   11.34   1.00   S
ST20   1.91   1.00   P
ST20   3.23   1.00   S
ST21   4.26   1.00   P
ST21   7.08   1.00   S
ST23   8.47   1.00   S
ST24   8.17   1.00   P
ST24   13.82   1.00   S
ST25   5.31   1.00   P
ST25   9.15   1.00   S
ST26   8.23   1.00   P
ST26   13.84   1.00   S
# 2000 12 13 15 10 0.95 35.9197 -117.7083 7.20 1 0 0 0 78
ST0    8.90   1.00   P
ST1    3.14   1.00   P
ST2    6.74   1.00   P
ST3    2.49   1.00   P
ST3    4.16   1.00   S
ST4    7.75   1.00   P
ST4    13.12   1.00   S
ST5    4.53   1.00   P
ST5    7.61   1.00   S
ST6    6.39   1.00   P
ST6    10.74   1.00   S
ST7    4.61   1.00   P
ST9    6.40   1.00   P
ST9    10.81   1.00   S
ST10   4.52   1.00   S
ST12   1.82   1.00   P
ST12   2.94   1.00   S
ST13   6.33   1.00   P
ST13   10.68   1.00   S
ST14   5.58   1.00   P
ST14   9.41   1.00   S
ST15   5.82   1.00   P
ST16   8.20   1.00   P
ST17   8.69   1.00   P
ST18   6.56   1.00   P
ST19   6.13   1.00   P
ST21   3.76   1.00   P
ST21   6.25   1.00   S
ST23   4.44   1.00   P
ST23   7.51   1.00   S
ST24   7.61   1.00   P
ST24   12.91   1.00   S
ST25   4.67   1.00   P
ST25   7.95   1.00   S
ST26   7.67   1.00   P
# 2000 12 13 15 10 0.94 35.9097 -117.6687 4.93 1 0 0 0 79
ST0    8.62   1.00   P
ST1    2.68   1.00   P
ST2    6.93   1.00   P
ST2    11.81   1.00   S
ST3    3.10   1.00   P
ST3    5.08   1.00   S
ST4    7.70   1.00   P
ST4    13.27   1.00   S
ST7    4.76   1.00   P
ST8    3.22   1.00   P
ST9    6.64   1.00   P
ST10   5.24   1.00   S
ST11   5.18   1.00   P
ST12   2.37   1.00   S
ST13   5.98   1.00   P
ST13   10.23   1.00   S
ST14   8.65   1.00   S
ST15   9.74   1.00   S
ST16   8.07   1.00   P
ST16   13.83   1.00   S
ST17   14.07   1.00   S
ST18   11.00   1.00   S
ST19   5.87   1.00   P
ST19   9.98   1.00   S
ST20   1.32   1.00   P
ST20   2.13   1.00   S
ST21   3.44   1.00   P
ST21   5.62   1.00   S
ST23   4.19   1.00   P
ST24   12.54   1.00   S
# 2000 12 13 15 10 1.05 35.6490 -117.4606 4.60 1 0 0 0 80
ST0    3.45   1.00   P
ST0    5.79   1.00   S
ST1    7.21   1.00   S
ST2    11.21   1.00   P
ST2    18.75   1.00   S
ST4    4.84   1.00   P
ST4    8.09   1.00   S
ST5    12.78   1.00   S
ST6    5.24   1.00   P
ST8    6.24   1.00   P
ST8    10.67   1.00   S
ST9    6.91   1.00   P
ST10   8.20   1.00   P
ST11   10.10   1.00   P
ST12   6.39   1.00   P
ST12   10.68   1.00   S
ST13   1.10   1.00   P
ST13   1.94   1.00   S
ST14   4.08   1.00   P
ST15   2.06   1.00   P
ST15   3.38   1.00   S
ST16   3.92   1.00   P
ST16   6.54   1.00   S
ST17   6.02   1.00   S
ST18   2.20   1.00   P
ST20   10.56   1.00   S
ST21   3.62   1.00   P
ST21   6.16   1.00   S
ST22   6.35   1.00   P
ST23   2.66   1.00   P
ST24   2.04   1.00   P
ST24   3.47   1.00   S
ST25   2.84   1.00   P
ST25   4.88   1.00   S
ST26   3.39   1.00   S
# 2000 12 13 15 10 1.04 35.6360 -117.4283 5.32 1 0 0 0 81
ST1    4.58   1.00   P
ST1    7.81   1.00   S
ST2    11.37   1.00   P
ST2    19.11   1.00   S
ST3    14.19   1.00   S
ST4    4.97   1.00   P
ST4    8.41   1.00   S
ST5    7.79   1.00   P
ST5    12.93   1.00   S
ST6    8.89   1.00   S
ST7    5.40   1.00   P
ST7    9.31   1.00   S
ST10   8.50   1.00   P
ST10   14.50   1.00   S
ST11   10.42   1.00   P
ST11   18.00   1.00   S
ST12   6.68   1.00   P
ST13   1.23   1.00   P
ST15   2.49   1.00   P
ST16   3.88   1.00   P
ST17   3.08   1.00   P
ST17   5.25   1.00   S
ST19   2.24   1.00   S
ST20   6.51   1.00   P
ST20   11.12   1.00   S
ST21   4.08   1.00   P
ST22   6.67   1.00   P
ST23   3.18   1.00   P
ST23   6.45   1.00   S
ST24   1.62   1.00   P
ST26   1.69   1.00   P
# 2000 12 13 15 10 1.04 35.6046 -117.4111 4.89 1 0 0 0 82
ST0    2.32   1.00   P
ST0    3.84   1.00   S
ST1    9.13   1.00   S
ST2    12.02   1.00   P
ST2    20.24   1.00   S
ST3    15.00   1.00   S
ST5    8.43   1.00   P
ST6    5.70   1.00   P
ST6    9.61   1.00   S
ST7    5.71   1.00   P
ST7    9.76   1.00   S
ST8    7.03   1.00   P
ST8    12.00   1.00   S
ST9    7.30   1.00   P
ST9    12.46   1.00   S
ST10   9.06   1.00   P
ST10   15.31   1.00   S
ST11   18.91   1.00   S
ST13   1.90   1.00   P
ST14   4.52   1.00   P
ST15   2.71   1.00   P
ST15   4.53   1.00   S
ST16   3.44   1.00   P
ST19   1.80   1.00   P
ST19   3.16   1.00   S
ST20   7.03   1.00   P
ST21   7.78   1.00   S
ST22   7.25   1.00   P
ST22   12.34   1.00   S
ST25   3.80   1.00   P
ST26   2.11   1.00   S
# 2000 12 13 15 10 0.94 35.6677 -117.4826 2.63 1 0 0 0 83
ST1    6.73   1.00   S
ST3    13.24   1.00   S
ST4    5.11   1.00   P
ST4    8.60   1.00   S
ST5    7.59   1.00   P
ST5    12.46   1.00   S
ST7    4.92   1.00   P
ST8    6.05   1.00   P
ST9    11.78   1.00   S
ST10   13.58   1.00   S
ST11   9.90   1.00   P
ST13   1.27   1.00   P
ST14   4.12   1.00   P
ST15   2.00   1.00   P
ST15   3.31   1.00   S
ST16   4.37   1.00   P
ST18   2.82   1.00   S
ST19   1.31   1.00   S
ST20   5.97   1.00   P
ST21   3.32   1.00   P
ST21   5.54   1.00   S
ST22   6.18   1.00   P
ST22   10.41   1.00   S
ST23   2.32   1.00   P
ST23   3.79   1.00   S
ST24   2.69   1.00   P
ST25   2.51   1.00   P
ST26   2.63   1.00   P
ST26   4.45   1.00   S
# 2000 12 13 15 10 0.96 35.6768 -117.4610 4.15 1 0 0 0 84
ST0    3.93   1.00   P
ST1    6.58   1.00   S
ST2    18.09   1.00   S
ST4    5.31   1.00   P
ST4    8.81   1.00   S
ST5    7.17   1.00   P
ST6    4.91   1.00   P
ST7    5.01   1.00   P
ST8    6.07   1.00   P
ST9    6.95   1.00   P
ST9    11.87   1.00   S
ST10   7.79   1.00   P
ST11   9.74   1.00   P
ST11   16.85   1.00   S
ST12   6.00   1.00   P
ST12   9.94   1.00   S
ST13   1.19   1.00   P
ST15   2.38   1.00   P
ST16   4.44   1.00   P
ST16   7.36   1.00   S
ST17   6.47   1.00   S
ST18   1.95   1.00   P
ST19   1.16   1.00   P
ST20   5.87   1.00   P
ST20   9.96   1.00   S
ST21   3.35   1.00   P
ST22   10.16   1.00   S
ST23   3.92   1.00   S
ST25   2.74   1.00   P
ST25   4.53   1.00   S
ST26   2.58   1.00   P
# 2000 12 13 15 10 1.05 35.8766 -117.6986 5.71 1 0 0 0 85
ST1    2.46   1.00   P
ST2    7.39   1.00   P
ST3    5.24   1.00   S
ST4    7.13   1.00   P
ST4    12.40   1.00   S
ST7    3.98   1.00   P
ST7    6.92   1.00   S
ST9    5.83   1.00   P
ST10   5.74   1.00   S
ST11   5.25   1.00   P
ST11   9.20   1.00   S
ST12   2.14   1.00   P
ST13   5.67   1.00   P
ST13   9.77   1.00   S
ST16   7.52   1.00   P
ST16   12.96   1.00   S
ST17   8.17   1.00   P
ST17   13.81   1.00   S
ST20   1.12   1.00   P
ST21   3.03   1.00   P
ST21   5.10   1.00   S
ST22   1.32   1.00   P
ST22   2.24   1.00   S
ST23   3.75   1.00   P
ST24   7.02   1.00   P
ST24   12.05   1.00   S
ST26   7.05   1.00   P
# 2000 12 13 15 10 0.95 35.6722 -117.4720 4.58 1 0 0 0 86
ST1    3.87   1.00   P
ST2    18.20   1.00   S
ST3    7.63   1.00   P
ST3    13.11   1.00   S
ST4    8.34   1.00   S
ST5    7.24   1.00   P
ST5    12.14   1.00   S
ST6    8.65   1.00   S
ST7    4.75   1.00   P
ST9    6.63   1.00   P
ST9    12.57   1.00   S
ST10   7.79   1.00   P
ST10   13.17   1.00   S
ST11   9.72   1.00   P
ST12   6.04   1.00   P
ST12   10.06   1.00   S
ST13   1.44   1.00   P
ST13   2.39   1.00   S
ST14   3.84   1.00   P
ST15   3.48   1.00   S
ST16   7.08   1.00   S
ST17   3.98   1.00   P
ST18   2.91   1.00   S
ST19   1.17   1.00   P
ST21   3.30   1.00   P
ST22   5.93   1.00   P
ST22   10.22   1.00   S
ST23   2.30   1.00   P
ST24   2.62   1.00   P
ST25   2.49   1.00   P
ST25   4.26   1.00   S
ST26   2.56   1.00   P
# 2000 12 13 15 10 0.91 35.7158 -117.5314 3.70 1 0 0 0 87
ST0    5.12   1.00   P
ST0    8.57   1.00   S
ST1    2.81   1.00   P
ST1    4.68   1.00   S
ST3    6.67   1.00   P
ST3    11.21   1.00   S
ST4    8.90   1.00   S
ST5    6.70   1.00   P
ST7    4.05   1.00   P
ST8    4.89   1.00   P
ST9    6.17   1.00   P
ST10   6.83   1.00   P
ST11   15.07   1.00   S
ST12   5.15   1.00   P
ST12   8.51   1.00   S
ST13   2.38   1.00   P
ST14   3.87   1.00   P
ST14   6.54   1.00   S
ST15   2.27   1.00   P
ST16   4.83   1.00   P
ST17   5.16   1.00   P
ST18   2.75   1.00   P
ST18   4.57   1.00   S
ST19   2.12   1.00   P
ST19   3.44   1.00   S
ST20   8.05   1.00   S
ST22   4.95   1.00   P
ST22   8.38   1.00   S
ST23   1.15   1.00   P
ST24   6.45   1.00   S
ST25   2.70   1.00   S
ST26   3.79   1.00   P
ST26   6.43   1.00   S
# 2000 12 13 15 10 0.96 35.9053 -117.6831 5.53 1 0 0 0 88
ST0    8.52   1.00   P
ST1    2.71   1.00   P
ST2    11.97   1.00   S
ST3    2.90   1.00   P
ST3    4.90   1.00   S
ST4    7.56   1.00   P
ST4    12.96   1.00   S
ST5    4.61   1.00   P
ST6    6.14   1.00   P
ST6    10.25   1.00   S
ST7    7.83   1.00   S
ST8    2.94   1.00   P
ST8    4.95   1.00   S
ST9    6.32   1.00   P
ST10   3.01   1.00   P
ST12   1.74   1.00   P
ST13   10.18   1.00   S
ST14   5.35   1.00   P
ST14   8.97   1.00   S
ST15   9.60   1.00   S
ST16   13.59   1.00   S
ST17   8.41   1.00   P
ST17   14.24   1.00   S
ST18   6.39   1.00   P
ST19   5.79   1.00   P
ST19   9.98   1.00   S
ST20   1.19   1.00   P
ST21   3.32   1.00   P
ST21   5.67   1.00   S
ST22   1.73   1.00   S
ST24   7.31   1.00   P
ST25   4.32   1.00   P
ST26   7.38   1.00   P
ST26   12.48   1.00   S
# 2000 12 13 15 10 1.06 35.8855 -117.7077 5.84 1 0 0 0 89
ST1    2.68   1.00   P
ST2    7.29   1.00   P
ST2    12.56   1.00   S
ST3    4.83   1.00   S
ST4    7.22   1.00   P
ST6    10.79   1.00   S
ST7    7.21   1.00   S
ST8    4.19   1.00   S
ST10   5.38   1.00   S
ST11   4.97   1.00   P
ST11   8.85   1.00   S
ST12   2.06   1.00   P
ST12   4.05   1.00   S
ST13   5.93   1.00   P
ST13   10.17   1.00   S
ST14   5.43   1.00   P
ST15   5.32   1.00   P
ST16   7.68   1.00   P
ST17   14.14   1.00   S
ST20   1.66   1.00   S
ST21   5.50   1.00   S
ST22   1.94   1.00   S
ST24   7.27   1.00   P
ST24   12.32   1.00   S
ST25   4.15   1.00   P
ST25   7.16   1.00   S
ST26   7.24   1.00   P
# 2000 12 13 15 10 1.03 35.6293 -117.4273 4.28 1 0 0 0 90
ST0    2.80   1.00   P
ST1    4.79   1.00   P
ST2    11.59   1.00   P
ST2    19.45   1.00   S
ST3    8.53   1.00   P
ST4    8.12   1.00   S
ST6    5.37   1.00   P
ST7    5.41   1.00   P
ST7    9.45   1.00   S
ST8    11.53   1.00   S
ST9    7.19   1.00   P
ST9    12.33   1.00   S
ST10   14.65   1.00   S
ST12   6.90   1.00   P
ST13   1.45   1.00   P
ST14   4.24   1.00   P
ST15   4.15   1.00   S
ST16   3.60   1.00   P
ST16   7.62   1.00   S
ST17   3.01   1.00   P
ST18   1.57   1.00   P
ST19   1.40   1.00   P
ST19   2.35   1.00   S
ST20   6.71   1.00   P
ST20   11.36   1.00   S
ST21   4.29   1.00   P
ST21   7.17   1.00   S
ST22   6.84   1.00   P
ST23   3.26   1.00   P
ST23   5.99   1.00   S
ST25   3.41   1.00   P
ST25   5.75   1.00   S
ST26   1.52   1.00   P
# 2000 12 13 15 10 0.96 35.9086 -117.6778 4.98 1 0 0 0 91
ST0    8.62   1.00   P
ST1    2.64   1.00   P
ST1    4.40   1.00   S
ST2    6.90   1.00   P
ST2    11.66   1.00   S
ST3    3.07   1.00   P
ST3    5.02   1.00   S
ST4    7.69   1.00   P
ST4    13.27   1.00   S
ST5    4.48   1.00   P
ST5    7.41   1.00   S
ST6    5.97   1.00   P
ST7    4.70   1.00   P
ST9    6.58   1.00   P
ST9    11.24   1.00   S
ST10   3.11   1.00   P
ST11   5.08   1.00   P
ST12   1.52   1.00   P
ST13   5.96   1.00   P
ST13   11.40   1.00   S
ST15   5.62   1.00   P
ST16   8.04   1.00   P
ST17   8.39   1.00   P
ST17   14.14   1.00   S
ST18   10.94   1.00   S
ST19   5.82   1.00   P
ST19   9.94   1.00   S
ST21   5.65   1.00   S
ST22   1.23   1.00   P
ST22   1.85   1.00   S
ST23   4.14   1.00   P
ST23   7.04   1.00   S
ST24   12.45   1.00   S
ST26   7.41   1.00   P
# 2000 12 13 15 10 0.89 35.6750 -117.4846 1.60 1 0 0 0 92
ST0    4.37   1.00   P
ST0    7.21   1.00   S
ST1    4.09   1.00   P
ST1    6.68   1.00   S
ST2    11.16   1.00   P
ST3    7.90   1.00   P
ST4    5.26   1.00   P
ST5    7.68   1.00   P
ST6    9.30   1.00   S
ST7    5.00   1.00   P
ST7    8.55   1.00   S
ST9    6.94   1.00   P
ST10   13.67   1.00   S
ST11   17.18   1.00   S
ST12   6.29   1.00   P
ST14   7.11   1.00   S
ST15   1.97   1.00   P
ST16   4.46   1.00   P
ST17   4.40   1.00   P
ST17   7.43   1.00   S
ST18   2.85   1.00   S
ST19   0.90   1.00   P
ST19   1.29   1.00   S
ST20   10.24   1.00   S
ST22   10.33   1.00   S
ST23   2.18   1.00   P
ST24   2.87   1.00   P
ST26   2.81   1.00   P
# 2000 12 13 15 10 0.88 35.9520 -117.6881 4.21 1 0 0 0 93
ST1    3.49   1.00   P
ST2    10.95   1.00   S
ST3    2.42   1.00   P
ST3    4.00   1.00   S
ST4    8.42   1.00   P
ST7    5.88   1.00   P
ST7    8.93   1.00   S
ST8    3.71   1.00   P
ST9    7.08   1.00   P
ST11   4.45   1.00   P
ST12   1.31   1.00   P
ST14   5.78   1.00   P
ST14   9.51   1.00   S
ST15   10.96   1.00   S
ST16   8.79   1.00   P
ST16   15.90   1.00   S
ST17   15.23   1.00   S
ST18   7.21   1.00   P
ST19   6.65   1.00   P
ST19   11.10   1.00   S
ST20   1.79   1.00   P
ST20   2.91   1.00   S
ST21   4.20   1.00   P
ST21   6.99   1.00   S
ST22   2.30   1.00   S
ST23   4.99   1.00   P
ST24   8.12   1.00   P
ST24   13.73   1.00   S
ST25   5.25   1.00   P
ST26   13.81   1.00   S
# 2000 12 13 15 10 0.95 35.6526 -117.4484 2.49 1 0 0 0 94
ST0    3.56   1.00   P
ST2    19.17   1.00   S
ST4    5.21   1.00   P
ST5    7.92   1.00   P
ST5    13.12   1.00   S
ST6    5.46   1.00   P
ST6    9.19   1.00   S
ST7    5.50   1.00   P
ST8    11.53   1.00   S
ST9    7.36   1.00   P
ST9    12.48   1.00   S
ST10   8.56   1.00   P
ST11   10.48   1.00   P
ST13   0.90   1.00   P
ST13   1.49   1.00   S
ST14   4.25   1.00   P
ST14   7.11   1.00   S
ST15   2.32   1.00   P
ST16   4.26   1.00   P
ST16   7.10   1.00   S
ST17   6.31   1.00   S
ST18   1.50   1.00   P
ST18   2.57   1.00   S
ST20   6.57   1.00   P
ST21   3.90   1.00   P
ST21   6.55   1.00   S
ST23   2.91   1.00   P
ST23   4.79   1.00   S
ST25   3.14   1.00   P
ST26   2.02   1.00   P
# 2000 12 13 15 10 1.02 35.9034 -117.7001 7.06 1 0 0 0 95
ST0    8.55   1.00   P
ST1    2.84   1.00   P
ST2    6.98   1.00   P
ST4    7.42   1.00   P
ST4    12.65   1.00   S
ST5    4.64   1.00   P
ST7    7.48   1.00   S
ST8    2.77   1.00   P
ST8    4.68   1.00   S
ST9    6.10   1.00   P
ST10   2.90   1.00   P
ST10   4.86   1.00   S
ST11   4.81   1.00   P
ST11   8.28   1.00   S
ST12   3.16   1.00   S
ST14   5.39   1.00   P
ST14   9.26   1.00   S
ST15   9.48   1.00   S
ST17   8.45   1.00   P
ST17   14.26   1.00   S
ST18   6.37   1.00   P
ST19   5.82   1.00   P
ST19   9.90   1.00   S
ST20   1.44   1.00   P
ST20   2.27   1.00   S
ST21   3.40   1.00   P
ST21   5.70   1.00   S
ST22   1.39   1.00   P
ST24   7.35   1.00   P
ST25   4.27   1.00   P
ST25   7.39   1.00   S
ST26   7.30   1.00   P
# 2000 12 13 15 10 0.84 35.7199 -117.4770 3.45 1 0 0 0 96
ST0    7.90   1.00   S
ST1    3.22   1.00   P
ST1    5.31   1.00   S
ST2    10.19   1.00   P
ST3    7.10   1.00   P
ST5    6.61   1.00   P
ST6    4.74   1.00   P
ST8    5.48   1.00   P
ST8    9.28   1.00   S
ST9    6.81   1.00   P
ST9    11.85   1.00   S
ST10   7.13   1.00   P
ST11   9.10   1.00   P
ST12   5.35   1.00   P
ST13   1.99   1.00   P
ST14   3.40   1.00   P
ST14   5.41   1.00   S
ST16   5.04   1.00   P
ST16   8.35   1.00   S
ST17   4.64   1.00   P
ST19   1.90   1.00   P
ST19   3.05   1.00   S
ST20   5.21   1.00   P
ST21   2.69   1.00   P
ST22   5.38   1.00   P
ST23   1.95   1.00   P
ST23   3.13   1.00   S
ST24   3.46   1.00   P
ST24   5.53   1.00   S
ST25   2.44   1.00   P
ST26   3.54   1.00   P
ST26   5.73   1.00   S
# 2000 12 13 15 10 0.91 35.6763 -117.4680 2.28 1 0 0 0 97
ST0    4.17   1.00   P
ST2    11.02   1.00   P
ST2    18.42   1.00   S
ST3    7.95   1.00   P
ST4    5.34   1.00   P
ST4    8.84   1.00   S
ST5    7.51   1.00   P
ST5    12.52   1.00   S
ST6    8.86   1.00   S
ST7    5.16   1.00   P
ST7    8.80   1.00   S
ST8    6.17   1.00   P
ST8    10.65   1.00   S
ST9    12.16   1.00   S
ST11   9.98   1.00   P
ST11   17.16   1.00   S
ST12   6.19   1.00   P
ST12   10.38   1.00   S
ST13   1.10   1.00   P
ST13   1.76   1.00   S
ST15   2.26   1.00   P
ST15   3.75   1.00   S
ST16   4.52   1.00   P
ST17   4.18   1.00   P
ST17   6.91   1.00   S
ST19   0.91   1.00   P
ST19   1.48   1.00   S
ST20   6.03   1.00   P
ST24   4.35   1.00   S
# 2000 12 13 15 10 0.95 35.8932 -117.6833 7.82 1 0 0 0 98
ST0    8.31   1.00   P
ST0    13.99   1.00   S
ST3    3.05   1.00   P
ST3    5.01   1.00   S
ST4    12.41   1.00   S
ST6    6.10   1.00   P
ST6    10.24   1.00   S
ST7    4.29   1.00   P
ST8    2.82   1.00   P
ST9    6.09   1.00   P
ST10   3.19   1.00   P
ST11   5.08   1.00   P
ST12   1.97   1.00   P
ST12   3.18   1.00   S
ST13   5.74   1.00   P
ST14   8.78   1.00   S
ST15   9.07   1.00   S
ST16   7.64   1.00   P
ST17   8.15   1.00   P
ST17   13.74   1.00   S
ST19   5.55   1.00   P
ST19   9.44   1.00   S
ST20   1.55   1.00   P
ST21   3.11   1.00   P
ST21   5.24   1.00   S
ST23   3.89   1.00   P
ST23   6.54   1.00   S
ST24   7.06   1.00   P
ST24   11.95   1.00   S
ST25   7.03   1.00   S
ST26   7.12   1.00   P
ST26   12.00   1.00   S
# 2000 12 13 15 10 0.89 35.9441 -117.7018 5.32 1 0 0 0 99
ST0    15.84   1.00   S
ST1    3.40   1.00   P
ST1    5.67   1.00   S
ST2    11.19   1.00   S
ST3    2.27   1.00   P
ST3    3.75   1.00   S
ST4    8.06   1.00   P
ST4    15.15   1.00   S
ST5    4.42   1.00   P
ST6    10.86   1.00   S
ST7    5.01   1.00   P
ST8    3.36   1.00   P
ST8    5.52   1.00   S
ST9    6.68   1.00   P
ST10   2.44   1.00   P
ST10   3.99   1.00   S
ST11   4.35   1.00   P
ST11   7.54   1.00   S
ST13   6.61   1.00   P
ST14   5.79   1.00   P
ST14   9.68   1.00   S
ST15   6.20   1.00   P
ST15   10.52   1.00   S
ST16   8.56   1.00   P
ST17   9.02   1.00   P
ST17   15.19   1.00   S
ST19   6.46   1.00   P
ST19   11.02   1.00   S
ST20   1.81   1.00   P
ST20   3.03   1.00   S
