# 2000 12 13 15 10 0.98 35.9690 -117.6712 4.45 1 0 0 0 1
ST0    10.09   1.00   P
ST0    15.92   1.00   S
ST1    3.64   1.00   P
ST1    6.05   1.00   S
ST2    10.25   1.00   S
ST3    2.38   1.00   P
ST4    14.88   1.00   S
ST5    6.37   1.00   S
ST6    10.38   1.00   S
ST7    5.69   1.00   P
ST8    6.78   1.00   S
ST9    12.57   1.00   S
ST10   2.19   1.00   P
ST10   4.63   1.00   S
ST11   4.16   1.00   P
ST11   7.31   1.00   S
ST12   1.07   1.00   P
ST12   1.72   1.00   S
ST13   6.82   1.00   P
ST15   11.30   1.00   S
ST16   9.00   1.00   P
ST16   15.42   1.00   S
ST18   12.52   1.00   S
ST19   6.81   1.00   P
ST20   2.19   1.00   P
ST21   4.35   1.00   P
ST22   1.77   1.00   P
ST23   8.78   1.00   S
ST24   8.26   1.00   P
ST25   5.44   1.00   P
ST26   8.34   1.00   P
# 2000 12 13 15 10 0.97 36.0739 -117.8310 3.15 1 0 0 0 2
ST0    20.87   1.00   S
ST1    6.40   1.00   P
ST2    9.68   1.00   S
ST4    10.66   1.00   P
ST5    5.75   1.00   P
ST6    8.88   1.00   P
ST6    15.13   1.00   S
ST8    5.77   1.00   P
ST9    8.73   1.00   P
ST9    14.98   1.00   S
ST10   3.26   1.00   S
ST11   2.31   1.00   S
ST12   4.13   1.00   P
ST12   7.18   1.00   S
ST13   9.56   1.00   P
ST14   8.42   1.00   P
ST15   8.99   1.00   P
ST15   15.58   1.00   S
ST16   11.27   1.00   P
ST16   19.26   1.00   S
ST18   16.90   1.00   S
ST20   4.69   1.00   P
ST20   7.86   1.00   S
ST21   6.99   1.00   P
ST21   12.01   1.00   S
ST22   4.34   1.00   P
ST22   7.45   1.00   S
ST23   7.65   1.00   P
ST23   13.26   1.00   S
ST26   18.64   1.00   S
# 2000 12 13 15 10 0.98 35.9023 -117.7185 6.20 1 0 0 0 3
ST0    8.73   1.00   P
ST0    14.76   1.00   S
ST1    5.09   1.00   S
ST2    7.04   1.00   P
ST2    12.02   1.00   S
ST3    4.34   1.00   S
ST6    6.47   1.00   P
ST9    6.13   1.00   P
ST9    10.37   1.00   S
ST10   2.85   1.00   P
ST11   8.20   1.00   S
ST14   5.61   1.00   P
ST18   6.45   1.00   P
ST18   10.99   1.00   S
ST19   6.02   1.00   P
ST20   1.31   1.00   P
ST20   2.14   1.00   S
ST21   3.58   1.00   P
ST21   5.94   1.00   S
ST22   1.31   1.00   P
ST22   2.16   1.00   S
ST23   4.27   1.00   P
ST24   7.50   1.00   P
ST25   4.42   1.00   P
ST25   7.62   1.00   S
ST26   7.52   1.00   P
# 2000 12 13 15 10 0.98 35.9060 -117.7125 6.45 1 0 0 0 4
ST0    8.76   1.00   P
ST1    5.05   1.00   S
ST2    7.05   1.00   P
ST3    4.22   1.00   S
ST4    7.53   1.00   P
ST5    7.98   1.00   S
ST6    6.54   1.00   P
ST7    4.42   1.00   P
ST7    7.45   1.00   S
ST8    4.59   1.00   S
ST10   2.85   1.00   P
ST11   4.69   1.00   P
ST12   1.93   1.00   P
ST12   3.25   1.00   S
ST13   6.24   1.00   P
ST13   10.65   1.00   S
ST14   5.67   1.00   P
ST14   9.52   1.00   S
ST15   9.67   1.00   S
ST16   7.95   1.00   P
ST18   6.49   1.00   P
ST19   5.98   1.00   P
ST19   10.16   1.00   S
ST20   1.25   1.00   P
ST20   2.16   1.00   S
ST21   3.55   1.00   P
ST22   1.31   1.00   P
ST23   4.30   1.00   P
ST24   7.57   1.00   P
ST25   7.58   1.00   S
ST26   7.57   1.00   P
# 2000 12 13 15 10 1.0 35.9087 -117.6940 6.51 1 0 0 0 5
ST1    2.85   1.00   P
ST1    4.81   1.00   S
ST2    6.86   1.00   P
ST3    2.62   1.00   P
ST4    7.54   1.00   P
ST5    4.58   1.00   P
ST5    7.63   1.00   S
ST7    7.74   1.00   S
ST8    2.90   1.00   P
ST9    10.59   1.00   S
ST12   1.71   1.00   P
ST12   2.81   1.00   S
ST13   6.10   1.00   P
ST14   5.38   1.00   P
ST14   9.06   1.00   S
ST15   5.60   1.00   P
ST17   8.55   1.00   P
ST18   6.41   1.00   P
ST18   10.97   1.00   S
ST19   5.95   1.00   P
ST20   1.39   1.00   P
ST20   2.25   1.00   S
ST21   5.83   1.00   S
ST22   1.31   1.00   P
ST23   4.20   1.00   P
ST24   7.37   1.00   P
ST26   7.38   1.00   P
# 2000 12 13 15 10 1.05 35.6725 -117.5121 5.90 1 0 0 0 6
ST0    4.11   1.00   P
ST0    6.96   1.00   S
ST1    3.41   1.00   P
ST2    10.55   1.00   P
ST2    17.84   1.00   S
ST3    7.02   1.00   P
ST4    4.49   1.00   P
ST5    7.04   1.00   P
ST5    11.89   1.00   S
ST6    5.22   1.00   P
ST6    9.40   1.00   S
ST8    5.19   1.00   P
ST10   7.25   1.00   P
ST11   15.78   1.00   S
ST12   5.51   1.00   P
ST12   9.31   1.00   S
ST13   1.99   1.00   P
ST13   3.41   1.00   S
ST14   3.93   1.00   P
ST15   3.10   1.00   S
ST16   6.69   1.00   S
ST17   4.35   1.00   P
ST18   1.92   1.00   P
ST18   3.33   1.00   S
ST19   1.48   1.00   P
ST19   2.74   1.00   S
ST20   5.17   1.00   P
ST20   8.94   1.00   S
ST21   2.77   1.00   P
ST22   10.48   1.00   S
ST23   1.87   1.00   P
ST24   4.87   1.00   S
ST26   2.90   1.00   P
ST26   4.91   1.00   S
# 2000 12 13 15 10 0.98 35.5505 -117.3059 6.22 1 0 0 0 7
ST0    1.68   1.00   P
ST0    2.82   1.00   S
ST1    6.58   1.00   P
ST1    11.14   1.00   S
ST2    12.96   1.00   P
ST3    10.36   1.00   P
ST4    6.01   1.00   P
ST4    10.16   1.00   S
ST5    9.34   1.00   P
ST6    6.21   1.00   P
ST6    10.63   1.00   S
ST8    8.63   1.00   P
ST10   10.50   1.00   P
ST11   12.43   1.00   P
ST12   8.68   1.00   P
ST12   15.71   1.00   S
ST13   5.30   1.00   S
ST14   5.18   1.00   P
ST15   4.39   1.00   P
ST16   4.48   1.00   P
ST17   1.60   1.00   P
ST17   2.76   1.00   S
ST20   14.42   1.00   S
ST21   6.11   1.00   P
ST21   10.26   1.00   S
ST22   8.76   1.00   P
ST22   14.71   1.00   S
ST23   5.27   1.00   P
ST23   8.79   1.00   S
ST24   1.96   1.00   P
ST25   5.40   1.00   P
ST25   9.05   1.00   S
ST26   2.31   1.00   P
# 2000 12 13 15 10 1.0 36.0472 -117.8515 3.66 1 0 0 0 8
ST0    19.93   1.00   S
ST1    10.45   1.00   S
ST2    6.03   1.00   P
ST3    3.24   1.00   S
ST4    10.27   1.00   P
ST4    17.58   1.00   S
ST5    5.91   1.00   P
ST5    10.28   1.00   S
ST6    8.93   1.00   P
ST6    15.14   1.00   S
ST7    7.12   1.00   P
ST7    12.26   1.00   S
ST8    5.43   1.00   P
ST9    8.27   1.00   P
ST11   1.75   1.00   P
ST11   3.15   1.00   S
ST13   9.34   1.00   P
ST14   8.39   1.00   P
ST14   14.25   1.00   S
ST15   8.64   1.00   P
ST16   10.92   1.00   P
ST16   18.78   1.00   S
ST17   11.66   1.00   P
ST17   19.93   1.00   S
ST18   9.54   1.00   P
ST18   16.43   1.00   S
ST19   15.55   1.00   S
ST20   4.44   1.00   P
ST20   7.61   1.00   S
ST21   6.60   1.00   P
ST21   11.42   1.00   S
ST22   7.00   1.00   S
ST23   7.39   1.00   P
ST23   12.64   1.00   S
ST24   10.61   1.00   P
ST25   7.50   1.00   P
ST25   12.83   1.00   S
ST26   10.67   1.00   P
# 2000 12 13 15 10 0.94 35.9519 -117.6869 4.63 1 0 0 0 9
ST0    9.33   1.00   P
ST0    15.66   1.00   S
ST1    3.48   1.00   P
ST1    5.57   1.00   S
ST2    6.34   1.00   P
ST2    10.66   1.00   S
ST3    2.42   1.00   P
ST6    6.32   1.00   P
ST6    10.61   1.00   S
ST7    5.40   1.00   P
ST8    3.71   1.00   P
ST9    7.10   1.00   P
ST9    12.03   1.00   S
ST10   2.34   1.00   P
ST10   3.94   1.00   S
ST11   7.63   1.00   S
ST12   1.26   1.00   P
ST13   6.70   1.00   P
ST15   6.37   1.00   P
ST15   10.81   1.00   S
ST16   14.98   1.00   S
ST17   9.05   1.00   P
ST17   15.17   1.00   S
ST18   7.17   1.00   P
ST19   6.50   1.00   P
ST21   4.13   1.00   P
ST21   6.99   1.00   S
ST22   1.41   1.00   P
ST23   4.92   1.00   P
ST25   8.94   1.00   S
ST26   8.20   1.00   P
ST26   13.80   1.00   S
# 2000 12 13 15 10 1.04 35.5820 -117.6008 4.79 1 0 0 0 10
ST0    4.41   1.00   P
ST1    8.14   1.00   S
ST2    11.95   1.00   P
ST2    20.44   1.00   S
ST3    7.80   1.00   P
ST4    4.49   1.00   S
ST5    8.76   1.00   P
ST6    7.13   1.00   P
ST7    3.64   1.00   P
ST8    5.66   1.00   P
ST9    4.83   1.00   P
ST11   10.51   1.00   P
ST12   6.80   1.00   P
ST13   5.98   1.00   S
ST14   5.83   1.00   P
ST14   9.94   1.00   S
ST15   1.62   1.00   P
ST16   2.52   1.00   P
ST17   5.34   1.00   P
ST17   9.02   1.00   S
ST18   2.27   1.00   P
ST20   10.53   1.00   S
ST21   6.89   1.00   S
ST23   3.14   1.00   P
ST24   3.94   1.00   P
ST24   6.79   1.00   S
ST25   4.64   1.00   S
ST26   3.41   1.00   P
# 2000 12 13 15 10 0.93 35.9439 -117.6713 4.76 1 0 0 0 11
ST0    15.27   1.00   S
ST1    3.23   1.00   P
ST2    10.90   1.00   S
ST4    8.29   1.00   P
ST5    4.09   1.00   P
ST5    6.73   1.00   S
ST6    6.15   1.00   P
ST7    5.29   1.00   P
ST9    7.15   1.00   P
ST9    11.98   1.00   S
ST10   4.46   1.00   S
ST11   4.56   1.00   P
ST11   7.99   1.00   S
ST13   6.45   1.00   P
ST14   9.02   1.00   S
ST15   10.71   1.00   S
ST16   14.83   1.00   S
ST17   8.87   1.00   P
ST17   14.58   1.00   S
ST18   6.98   1.00   P
ST19   10.85   1.00   S
ST20   1.77   1.00   P
ST20   2.86   1.00   S
ST21   6.59   1.00   S
ST22   1.43   1.00   P
ST23   4.73   1.00   P
ST24   7.80   1.00   P
ST24   13.22   1.00   S
ST25   5.06   1.00   P
ST25   8.59   1.00   S
ST26   7.96   1.00   P
# 2000 12 13 15 10 1.14 35.5914 -117.6129 4.77 1 0 0 0 12
ST0    4.50   1.00   P
ST0    7.69   1.00   S
ST2    20.37   1.00   S
ST3    13.15   1.00   S
ST4    2.41   1.00   P
ST5    14.85   1.00   S
ST6    7.18   1.00   P
ST6    12.30   1.00   S
ST7    3.40   1.00   P
ST8    5.44   1.00   P
ST10   8.04   1.00   P
ST11   9.77   1.00   P
ST11   17.13   1.00   S
ST12   6.65   1.00   P
ST13   3.54   1.00   P
ST15   1.42   1.00   P
ST16   5.38   1.00   S
ST17   5.34   1.00   P
ST18   3.91   1.00   S
ST19   2.73   1.00   P
ST19   4.82   1.00   S
ST20   6.02   1.00   P
ST21   6.67   1.00   S
ST22   6.29   1.00   P
ST23   5.31   1.00   S
ST24   4.08   1.00   P
ST24   6.98   1.00   S
ST25   2.56   1.00   P
ST25   4.54   1.00   S
ST26   3.53   1.00   P
# 2000 12 13 15 10 1.01 35.9160 -117.6710 4.35 1 0 0 0 13
ST1    2.80   1.00   P
ST1    4.68   1.00   S
ST2    11.51   1.00   S
ST3    2.94   1.00   P
ST4    7.91   1.00   P
ST5    4.91   1.00   P
ST5    7.22   1.00   S
ST6    10.06   1.00   S
ST7    4.86   1.00   P
ST9    6.74   1.00   P
ST9    11.55   1.00   S
ST11   8.74   1.00   S
ST12   1.26   1.00   P
ST12   1.98   1.00   S
ST13   6.12   1.00   P
ST14   5.25   1.00   P
ST16   8.19   1.00   P
ST16   13.90   1.00   S
ST17   8.50   1.00   P
ST17   14.34   1.00   S
ST18   6.58   1.00   P
ST19   5.98   1.00   P
ST21   3.58   1.00   P
ST21   5.93   1.00   S
ST22   1.02   1.00   P
ST23   4.37   1.00   P
ST23   7.46   1.00   S
ST24   7.50   1.00   P
ST24   12.67   1.00   S
ST25   7.91   1.00   S
# 2000 12 13 15 10 0.94 35.6750 -117.4712 4.83 1 0 0 0 14
ST0    3.94   1.00   P
ST0    6.45   1.00   S
ST1    6.56   1.00   S
ST2    10.77   1.00   P
ST2    17.93   1.00   S
ST3    7.65   1.00   P
ST3    12.95   1.00   S
ST4    5.08   1.00   P
ST4    8.61   1.00   S
ST5    11.87   1.00   S
ST7    4.81   1.00   P
ST10   7.79   1.00   P
ST13   2.23   1.00   S
ST14   6.29   1.00   S
ST15   2.19   1.00   P
ST15   3.76   1.00   S
ST16   4.28   1.00   P
ST17   3.87   1.00   P
ST18   1.98   1.00   P
ST19   2.01   1.00   S
ST20   5.81   1.00   P
ST21   3.31   1.00   P
ST21   5.48   1.00   S
ST22   10.15   1.00   S
ST23   3.87   1.00   S
ST24   2.58   1.00   P
ST25   2.62   1.00   P
ST26   2.62   1.00   P
# 2000 12 13 15 10 0.92 35.7167 -117.4937 5.03 1 0 0 0 15
ST0    4.61   1.00   P
ST0    7.73   1.00   S
ST1    3.08   1.00   P
ST1    5.11   1.00   S
ST2    16.98   1.00   S
ST4    5.19   1.00   P
ST5    10.92   1.00   S
ST6    4.83   1.00   P
ST6    8.21   1.00   S
ST7    4.36   1.00   P
ST8    5.16   1.00   P
ST8    8.85   1.00   S
ST9    6.39   1.00   P
ST10   11.79   1.00   S
ST11   8.85   1.00   P
ST11   15.34   1.00   S
ST12   5.13   1.00   P
ST12   8.59   1.00   S
ST13   3.53   1.00   S
ST15   4.13   1.00   S
ST17   7.66   1.00   S
ST19   3.26   1.00   S
ST20   4.92   1.00   P
ST20   8.31   1.00   S
ST21   2.50   1.00   P
ST23   1.92   1.00   P
ST24   5.56   1.00   S
ST25   2.22   1.00   P
ST25   3.75   1.00   S
ST26   3.47   1.00   P
# 2000 12 13 15 10 1.01 35.6774 -117.4868 3.51 1 0 0 0 16
ST0    4.24   1.00   P
ST1    3.81   1.00   P
ST2    10.86   1.00   P
ST3    12.93   1.00   S
ST4    5.15   1.00   P
ST4    8.61   1.00   S
ST5    7.27   1.00   P
ST5    12.16   1.00   S
ST6    5.19   1.00   P
ST6    8.83   1.00   S
ST7    4.81   1.00   P
ST9    6.75   1.00   P
ST10   13.23   1.00   S
ST12   10.12   1.00   S
ST13   1.29   1.00   P
ST14   3.91   1.00   P
ST15   2.08   1.00   P
ST15   3.48   1.00   S
ST16   7.47   1.00   S
ST17   4.28   1.00   P
ST17   7.16   1.00   S
ST18   1.81   1.00   P
ST18   3.08   1.00   S
ST19   1.77   1.00   P
ST19   1.51   1.00   S
ST20   5.78   1.00   P
ST20   9.81   1.00   S
ST21   3.04   1.00   P
ST21   5.15   1.00   S
ST22   5.93   1.00   P
ST23   2.00   1.00   P
ST24   4.72   1.00   S
ST25   2.36   1.00   P
ST25   3.81   1.00   S
ST26   4.67   1.00   S
# 2000 12 13 15 10 0.97 35.8771 -117.6913 8.57 1 0 0 0 17
ST0    8.14   1.00   P
ST1    2.42   1.00   P
ST1    4.08   1.00   S
ST2    7.33   1.00   P
ST3    3.18   1.00   P
ST4    12.09   1.00   S
ST5    4.84   1.00   P
ST6    10.14   1.00   S
ST7    4.03   1.00   P
ST8    2.81   1.00   P
ST9    5.93   1.00   P
ST10   3.40   1.00   P
ST10   5.69   1.00   S
ST11   5.25   1.00   P
ST12   2.11   1.00   P
ST13   5.58   1.00   P
ST14   9.99   1.00   S
ST15   5.08   1.00   P
ST16   7.40   1.00   P
ST17   8.00   1.00   P
ST19   5.33   1.00   P
ST20   1.60   1.00   P
ST21   5.00   1.00   S
ST22   1.68   1.00   P
ST22   2.78   1.00   S
ST23   3.69   1.00   P
ST26   6.87   1.00   P
ST26   11.61   1.00   S
# 2000 12 13 15 10 1.12 35.6581 -117.5365 8.38 1 0 0 0 18
ST0    4.07   1.00   P
ST0    6.90   1.00   S
ST1    3.45   1.00   P
ST2    18.07   1.00   S
ST3    6.92   1.00   P
ST4    4.13   1.00   P
ST5    7.21   1.00   P
ST5    12.30   1.00   S
ST7    3.79   1.00   P
ST8    5.08   1.00   P
ST9    9.62   1.00   S
ST10   7.17   1.00   P
ST11   9.11   1.00   P
ST12   9.49   1.00   S
ST13   2.26   1.00   P
ST13   3.96   1.00   S
ST15   1.65   1.00   P
ST15   2.95   1.00   S
ST16   3.72   1.00   P
ST16   6.28   1.00   S
ST17   4.45   1.00   P
ST18   1.94   1.00   P
ST19   1.73   1.00   P
ST19   3.51   1.00   S
ST20   9.94   1.00   S
ST21   2.82   1.00   P
ST21   4.88   1.00   S
ST22   5.32   1.00   P
ST22   9.13   1.00   S
ST23   2.00   1.00   P
ST23   3.45   1.00   S
ST24   5.42   1.00   S
ST25   1.94   1.00   P
ST25   3.55   1.00   S
ST26   2.98   1.00   P
ST26   5.04   1.00   S
# 2000 12 13 15 10 1.02 35.6336 -117.4199 5.71 1 0 0 0 19
ST0    2.89   1.00   P
ST1    4.71   1.00   P
ST1    7.84   1.00   S
ST2    11.42   1.00   P
ST3    8.43   1.00   P
ST3    14.30   1.00   S
ST4    4.97   1.00   P
ST4    8.39   1.00   S
ST6    5.24   1.00   P
ST6    8.84   1.00   S
ST7    9.39   1.00   S
ST8    6.68   1.00   P
ST8    11.42   1.00   S
ST9    7.15   1.00   P
ST9    12.30   1.00   S
ST10   8.56   1.00   P
ST11   10.38   1.00   P
ST11   18.11   1.00   S
ST12   6.73   1.00   P
ST12   11.27   1.00   S
ST13   1.38   1.00   P
ST14   4.04   1.00   P
ST15   2.50   1.00   P
ST15   4.36   1.00   S
ST16   6.58   1.00   S
ST17   2.97   1.00   P
ST17   4.96   1.00   S
ST18   1.67   1.00   P
ST18   3.87   1.00   S
ST19   1.44   1.00   P
ST19   2.45   1.00   S
ST20   11.25   1.00   S
ST21   4.17   1.00   P
ST22   6.77   1.00   P
ST22   11.44   1.00   S
ST23   3.24   1.00   P
ST23   5.48   1.00   S
ST24   1.53   1.00   P
ST24   2.50   1.00   S
ST26   1.70   1.00   P
ST26   2.85   1.00   S
# 2000 12 13 15 10 0.97 35.8965 -117.6855 5.96 1 0 0 0 20
ST0    8.40   1.00   P
ST0    14.10   1.00   S
ST1    2.54   1.00   P
ST2    12.04   1.00   S
ST3    3.00   1.00   P
ST3    5.00   1.00   S
ST6    6.03   1.00   P
ST6    10.06   1.00   S
ST7    4.36   1.00   P
ST9    6.32   1.00   P
ST11   5.11   1.00   P
ST13   9.84   1.00   S
ST14   5.16   1.00   P
ST14   9.84   1.00   S
ST15   5.40   1.00   P
ST15   9.31   1.00   S
ST16   7.81   1.00   P
ST17   13.95   1.00   S
ST18   10.54   1.00   S
ST19   5.67   1.00   P
ST20   1.27   1.00   P
ST21   3.17   1.00   P
ST22   1.25   1.00   P
ST23   3.96   1.00   P
ST24   12.17   1.00   S
ST26   7.26   1.00   P
# 2000 12 13 15 10 0.91 35.5917 -117.4032 4.19 1 0 0 0 21
ST1    5.55   1.00   P
ST1    9.23   1.00   S
ST2    20.57   1.00   S
ST3    9.20   1.00   P
ST4    4.92   1.00   P
ST5    8.71   1.00   P
ST6    5.96   1.00   P
ST6    9.99   1.00   S
ST7    5.97   1.00   P
ST7    11.59   1.00   S
ST8    7.36   1.00   P
ST8    12.49   1.00   S
ST9    7.58   1.00   P
ST9    12.88   1.00   S
ST10   9.39   1.00   P
ST10   15.75   1.00   S
ST11   19.29   1.00   S
ST12   7.60   1.00   P
ST13   2.08   1.00   P
ST14   4.85   1.00   P
ST14   8.13   1.00   S
ST15   2.91   1.00   P
ST15   4.83   1.00   S
ST16   3.57   1.00   P
ST16   5.90   1.00   S
ST18   1.76   1.00   P
ST18   2.92   1.00   S
ST19   2.08   1.00   P
ST19   3.32   1.00   S
ST20   7.40   1.00   P
ST20   12.46   1.00   S
ST21   4.96   1.00   P
ST21   8.22   1.00   S
ST23   6.66   1.00   S
ST24   1.46   1.00   P
ST25   4.10   1.00   P
ST26   1.17   1.00   P
# 2000 12 13 15 10 1.1 35.5841 -117.5775 6.04 1 0 0 0 22
ST0    6.86   1.00   S
ST1    4.62   1.00   P
ST2    11.83   1.00   P
ST2    20.18   1.00   S
ST3    7.76   1.00   P
ST3    13.20   1.00   S
ST4    4.81   1.00   S
ST5    8.52   1.00   P
ST6    6.86   1.00   P
ST7    3.80   1.00   P
ST7    6.70   1.00   S
ST8    9.71   1.00   S
ST9    8.73   1.00   S
ST11   17.23   1.00   S
ST12   6.66   1.00   P
ST12   11.37   1.00   S
ST13   3.21   1.00   P
ST14   9.46   1.00   S
ST15   1.52   1.00   P
ST16   2.49   1.00   P
ST16   4.22   1.00   S
ST17   8.41   1.00   S
ST18   1.94   1.00   P
ST18   3.49   1.00   S
ST19   4.18   1.00   S
ST20   10.45   1.00   S
ST21   3.86   1.00   P
ST21   6.67   1.00   S
ST22   6.35   1.00   P
ST22   10.65   1.00   S
ST23   2.97   1.00   P
ST23   5.15   1.00   S
ST24   5.97   1.00   S
ST25   4.59   1.00   S
# 2000 12 13 15 10 1.0 35.7047 -117.5001 5.96 1 0 0 0 23
ST0    4.46   1.00   P
ST0    7.47   1.00   S
ST1    3.05   1.00   P
ST2    17.08   1.00   S
ST3    6.74   1.00   P
ST4    4.98   1.00   P
ST4    8.52   1.00   S
ST5    6.62   1.00   P
ST6    8.32   1.00   S
ST7    4.18   1.00   P
ST7    7.23   1.00   S
ST8    5.09   1.00   P
ST8    8.68   1.00   S
ST10   11.75   1.00   S
ST11   8.84   1.00   P
ST11   15.35   1.00   S
ST12   5.20   1.00   P
ST14   3.57   1.00   P
ST15   2.24   1.00   P
ST15   3.86   1.00   S
ST18   2.44   1.00   P
ST18   4.78   1.00   S
ST19   1.86   1.00   P
ST19   3.12   1.00   S
ST20   4.87   1.00   P
ST21   2.53   1.00   P
ST21   4.33   1.00   S
ST22   8.75   1.00   S
ST23   1.83   1.00   P
ST23   3.06   1.00   S
ST25   3.53   1.00   S
# 2000 12 13 15 10 0.94 35.9297 -117.7053 6.71 1 0 0 0 24
ST0    15.06   1.00   S
ST1    3.21   1.00   P
ST1    5.31   1.00   S
ST2    6.57   1.00   P
ST3    2.45   1.00   P
ST4    7.87   1.00   P
ST4    13.47   1.00   S
ST5    4.51   1.00   P
ST5    7.34   1.00   S
ST8    5.29   1.00   S
ST10   2.60   1.00   P
ST10   4.25   1.00   S
ST12   1.70   1.00   P
ST12   2.85   1.00   S
ST13   6.40   1.00   P
ST13   10.80   1.00   S
ST14   5.59   1.00   P
ST14   9.41   1.00   S
ST15   5.96   1.00   P
ST15   10.23   1.00   S
ST16   14.10   1.00   S
ST17   14.89   1.00   S
ST18   6.79   1.00   P
ST18   11.49   1.00   S
ST19   6.19   1.00   P
ST20   1.67   1.00   P
ST20   2.56   1.00   S
ST21   3.79   1.00   P
ST21   6.23   1.00   S
ST22   1.46   1.00   P
ST22   2.42   1.00   S
ST23   9.01   1.00   S
ST25   4.76   1.00   P
ST25   8.14   1.00   S
ST26   7.78   1.00   P
# 2000 12 13 15 10 1.02 35.8917 -117.6767 7.60 1 0 0 0 25
ST0    13.90   1.00   S
ST1    2.50   1.00   P
ST2    7.83   1.00   P
ST3    4.96   1.00   S
ST4    7.23   1.00   P
ST5    4.59   1.00   P
ST6    5.91   1.00   P
ST7    4.23   1.00   P
ST7    7.30   1.00   S
ST8    2.84   1.00   P
ST8    4.80   1.00   S
ST9    6.15   1.00   P
ST9    10.34   1.00   S
ST10   3.16   1.00   P
ST10   5.26   1.00   S
ST11   5.00   1.00   P
ST11   8.90   1.00   S
ST12   1.86   1.00   P
ST13   9.58   1.00   S
ST14   5.04   1.00   P
ST14   8.51   1.00   S
ST15   5.22   1.00   P
ST15   8.97   1.00   S
ST17   13.67   1.00   S
ST18   6.04   1.00   P
ST18   11.10   1.00   S
ST19   5.47   1.00   P
ST19   9.28   1.00   S
ST20   1.51   1.00   P
ST21   3.03   1.00   P
ST21   5.06   1.00   S
ST22   1.50   1.00   P
ST23   3.79   1.00   P
ST23   6.48   1.00   S
ST24   11.76   1.00   S
ST25   4.07   1.00   P
ST25   6.99   1.00   S
ST26   7.04   1.00   P
