# 2000 12 13 15 10 1.07 35.7217 -117.5410 5.86 1 0 0 0 124
ST0    4.90   1.00   P
ST0    8.28   1.00   S
ST1    2.55   1.00   P
ST2    9.70   1.00   P
ST3    10.52   1.00   S
ST5    6.25   1.00   P
ST6    4.98   1.00   P
ST6    9.66   1.00   S
ST7    3.69   1.00   P
ST8    4.47   1.00   P
ST8    7.80   1.00   S
ST9    5.78   1.00   P
ST10   6.36   1.00   P
ST10   10.89   1.00   S
ST11   8.22   1.00   P
ST11   14.32   1.00   S
ST12   4.69   1.00   P
ST12   7.91   1.00   S
ST14   6.41   1.00   S
ST15   3.98   1.00   S
ST17   4.97   1.00   P
ST17   8.41   1.00   S
ST18   4.73   1.00   S
ST19   2.23   1.00   P
ST20   7.52   1.00   S
ST21   2.01   1.00   P
ST22   7.71   1.00   S
ST23   1.48   1.00   P
ST24   3.76   1.00   P
ST26   3.69   1.00   P
# 2000 12 13 15 10 0.96 35.8989 -117.6763 5.64 1 0 0 0 125
ST1    4.29   1.00   S
ST2    7.06   1.00   P
ST3    2.97   1.00   P
ST4    7.53   1.00   P
ST4    13.41   1.00   S
ST5    4.63   1.00   P
ST5    7.73   1.00   S
ST6    10.18   1.00   S
ST7    4.45   1.00   P
ST7    7.58   1.00   S
ST8    2.90   1.00   P
ST8    4.79   1.00   S
ST9    10.60   1.00   S
ST10   3.10   1.00   P
ST10   5.25   1.00   S
ST11   5.07   1.00   P
ST11   9.04   1.00   S
ST12   1.78   1.00   P
ST13   5.88   1.00   P
ST14   5.22   1.00   P
ST14   8.79   1.00   S
ST15   9.26   1.00   S
ST16   7.84   1.00   P
ST17   13.98   1.00   S
ST18   6.27   1.00   P
ST18   10.65   1.00   S
ST19   9.85   1.00   S
ST20   1.24   1.00   P
ST20   2.02   1.00   S
ST21   3.28   1.00   P
ST22   1.21   1.00   P
ST23   4.05   1.00   P
ST23   6.82   1.00   S
ST25   4.28   1.00   P
ST25   7.27   1.00   S
# 2000 12 13 15 10 1.09 35.6015 -117.4227 3.28 1 0 0 0 126
ST0    2.32   1.00   P
ST1    5.24   1.00   P
ST3    8.93   1.00   P
ST3    15.25   1.00   S
ST4    4.81   1.00   P
ST5    8.48   1.00   P
ST5    14.19   1.00   S
ST7    5.81   1.00   P
ST7    10.00   1.00   S
ST8    7.11   1.00   P
ST8    12.23   1.00   S
ST9    7.41   1.00   P
ST9    12.73   1.00   S
ST11   11.07   1.00   P
ST11   19.57   1.00   S
ST12   7.38   1.00   P
ST14   4.65   1.00   P
ST16   3.40   1.00   P
ST17   4.86   1.00   S
ST19   1.70   1.00   P
ST19   2.94   1.00   S
ST20   12.30   1.00   S
ST21   4.67   1.00   P
ST23   3.72   1.00   P
ST23   6.23   1.00   S
ST24   1.21   1.00   P
ST25   3.86   1.00   P
ST25   6.50   1.00   S
ST26   0.96   1.00   P
# 2000 12 13 15 10 0.98 35.8909 -117.6758 9.80 1 0 0 0 127
ST0    8.24   1.00   P
ST0    13.84   1.00   S
ST1    2.52   1.00   P
ST2    12.07   1.00   S
ST4    12.47   1.00   S
ST5    4.67   1.00   P
ST6    5.97   1.00   P
ST7    4.24   1.00   P
ST8    2.92   1.00   P
ST8    4.75   1.00   S
ST9    6.11   1.00   P
ST11   8.87   1.00   S
ST12   1.96   1.00   P
ST12   3.28   1.00   S
ST13   9.79   1.00   S
ST15   5.23   1.00   P
ST16   7.59   1.00   P
ST16   13.00   1.00   S
ST17   13.69   1.00   S
ST19   9.35   1.00   S
ST21   3.10   1.00   P
ST22   1.62   1.00   P
ST22   3.47   1.00   S
ST24   7.01   1.00   P
ST24   11.83   1.00   S
ST25   6.98   1.00   S
# 2000 12 13 15 10 1.03 35.9332 -117.6707 3.72 1 0 0 0 128
ST0    9.08   1.00   P
ST0    15.26   1.00   S
ST2    6.49   1.00   P
ST3    2.72   1.00   P
ST4    8.28   1.00   P
ST4    14.25   1.00   S
ST5    4.06   1.00   P
ST5    8.13   1.00   S
ST6    6.06   1.00   P
ST7    9.09   1.00   S
ST8    3.74   1.00   P
ST9    7.04   1.00   P
ST9    12.01   1.00   S
ST10   2.67   1.00   P
ST13   6.36   1.00   P
ST13   10.80   1.00   S
ST14   5.35   1.00   P
ST14   8.96   1.00   S
ST15   6.18   1.00   P
ST16   8.47   1.00   P
ST17   8.75   1.00   P
ST17   14.83   1.00   S
ST18   6.91   1.00   P
ST19   6.27   1.00   P
ST19   10.67   1.00   S
ST20   1.61   1.00   P
ST22   1.21   1.00   P
ST25   5.01   1.00   P
ST26   7.86   1.00   P
# 2000 12 13 15 10 0.96 35.7238 -117.5209 5.87 1 0 0 0 129
ST1    2.68   1.00   P
ST3    6.43   1.00   P
ST3    10.88   1.00   S
ST4    5.26   1.00   P
ST4    8.96   1.00   S
ST5    6.31   1.00   P
ST5    10.58   1.00   S
ST7    4.07   1.00   P
ST9    6.18   1.00   P
ST10   11.17   1.00   S
ST12   4.83   1.00   P
ST12   8.11   1.00   S
ST13   2.49   1.00   P
ST13   4.09   1.00   S
ST14   5.99   1.00   S
ST15   2.40   1.00   P
ST15   4.14   1.00   S
ST17   4.87   1.00   P
ST17   8.15   1.00   S
ST18   4.66   1.00   S
ST19   2.12   1.00   P
ST20   4.59   1.00   P
ST20   7.79   1.00   S
ST22   4.75   1.00   P
ST23   2.48   1.00   S
ST25   1.90   1.00   P
ST25   3.69   1.00   S
ST26   6.26   1.00   S
# 2000 12 13 15 10 1.07 35.5607 -117.3136 5.52 1 0 0 0 130
ST0    1.62   1.00   P
ST0    2.46   1.00   S
ST1    6.53   1.00   P
ST1    10.99   1.00   S
ST3    17.36   1.00   S
ST4    5.94   1.00   P
ST4    10.09   1.00   S
ST6    6.09   1.00   P
ST6    10.49   1.00   S
ST7    7.21   1.00   P
ST7    12.41   1.00   S
ST8    14.51   1.00   S
ST9    8.75   1.00   P
ST9    15.03   1.00   S
ST11   12.29   1.00   P
ST12   14.31   1.00   S
ST13   3.07   1.00   P
ST14   5.15   1.00   P
ST14   8.69   1.00   S
ST15   4.23   1.00   P
ST15   7.27   1.00   S
ST16   4.40   1.00   P
ST17   1.57   1.00   P
ST17   2.65   1.00   S
ST18   3.24   1.00   P
ST18   5.49   1.00   S
ST19   3.32   1.00   P
ST21   6.03   1.00   P
ST21   10.55   1.00   S
ST23   5.22   1.00   P
ST23   8.77   1.00   S
ST24   3.03   1.00   S
ST25   5.27   1.00   P
ST25   8.94   1.00   S
ST26   2.13   1.00   P
ST26   3.63   1.00   S
# 2000 12 13 15 10 0.88 35.7154 -117.4979 3.39 1 0 0 0 131
ST1    3.09   1.00   P
ST1    5.17   1.00   S
ST2    10.20   1.00   P
ST3    6.95   1.00   P
ST4    5.29   1.00   P
ST6    4.94   1.00   P
ST7    4.44   1.00   P
ST7    7.57   1.00   S
ST8    5.27   1.00   P
ST8    9.03   1.00   S
ST9    6.56   1.00   P
ST10   7.09   1.00   P
ST10   11.90   1.00   S
ST11   9.03   1.00   P
ST12   5.28   1.00   P
ST13   2.09   1.00   P
ST17   4.68   1.00   P
ST17   8.33   1.00   S
ST19   1.70   1.00   P
ST19   2.96   1.00   S
ST20   5.08   1.00   P
ST20   8.54   1.00   S
ST21   2.58   1.00   P
ST23   1.67   1.00   P
ST23   2.81   1.00   S
ST24   3.49   1.00   P
ST24   5.74   1.00   S
ST25   2.16   1.00   P
ST25   3.65   1.00   S
ST26   3.49   1.00   P
ST26   5.86   1.00   S
# 2000 12 13 15 10 0.94 35.8983 -117.7233 9.33 1 0 0 0 132
ST0    8.69   1.00   P
ST0    14.69   1.00   S
ST1    3.10   1.00   P
ST1    5.12   1.00   S
ST3    4.31   1.00   S
ST4    12.52   1.00   S
ST5    5.04   1.00   P
ST5    8.34   1.00   S
ST6    6.56   1.00   P
ST6    11.12   1.00   S
ST7    4.36   1.00   P
ST7    7.27   1.00   S
ST8    2.67   1.00   P
ST8    4.29   1.00   S
ST9    5.95   1.00   P
ST9    10.12   1.00   S
ST10   2.98   1.00   P
ST11   8.37   1.00   S
ST12   3.69   1.00   S
ST13   10.40   1.00   S
ST14   5.65   1.00   P
ST15   9.58   1.00   S
ST16   7.91   1.00   P
ST16   13.43   1.00   S
ST17   8.56   1.00   P
ST18   6.45   1.00   P
ST18   10.96   1.00   S
ST19   5.98   1.00   P
ST19   10.20   1.00   S
ST20   1.51   1.00   P
ST20   2.48   1.00   S
ST21   3.56   1.00   P
ST22   1.54   1.00   P
ST22   3.69   1.00   S
ST23   4.26   1.00   P
ST25   8.28   1.00   S
ST26   12.73   1.00   S
# 2000 12 13 15 10 0.93 35.6284 -117.4103 3.83 1 0 0 0 133
ST0    2.72   1.00   P
ST0    4.51   1.00   S
ST4    5.12   1.00   P
ST5    8.21   1.00   P
ST5    13.61   1.00   S
ST7    5.83   1.00   P
ST7    9.92   1.00   S
ST9    7.54   1.00   P
ST10   15.18   1.00   S
ST11   10.87   1.00   P
ST11   18.74   1.00   S
ST12   7.12   1.00   P
ST14   4.32   1.00   P
ST14   7.21   1.00   S
ST15   2.85   1.00   P
ST16   3.95   1.00   P
ST18   1.85   1.00   P
ST20   6.95   1.00   P
ST21   4.55   1.00   P
ST22   7.16   1.00   P
ST23   3.62   1.00   P
ST23   6.03   1.00   S
ST25   3.78   1.00   P
ST25   6.32   1.00   S
ST26   2.53   1.00   S
# 2000 12 13 15 10 1.02 36.0571 -117.8382 3.01 1 0 0 0 134
ST0    11.93   1.00   P
ST1    6.27   1.00   P
ST1    10.55   1.00   S
ST2    5.92   1.00   P
ST2    10.11   1.00   S
ST3    1.87   1.00   P
ST3    3.25   1.00   S
ST4    10.40   1.00   P
ST5    5.80   1.00   P
ST5    10.04   1.00   S
ST6    8.83   1.00   P
ST6    15.04   1.00   S
ST8    5.60   1.00   P
ST8    9.53   1.00   S
ST9    8.50   1.00   P
ST9    14.58   1.00   S
ST10   1.74   1.00   P
ST10   3.10   1.00   S
ST11   1.56   1.00   P
ST11   2.77   1.00   S
ST13   9.42   1.00   P
ST15   8.83   1.00   P
ST16   18.93   1.00   S
ST17   11.79   1.00   P
ST18   9.66   1.00   P
ST20   4.38   1.00   P
ST20   7.56   1.00   S
ST21   6.79   1.00   P
ST22   4.19   1.00   P
ST22   7.06   1.00   S
ST23   7.50   1.00   P
ST24   10.74   1.00   P
ST25   7.52   1.00   P
# 2000 12 13 15 10 1.08 35.6245 -117.4383 5.77 1 0 0 0 135
ST0    2.81   1.00   P
ST2    19.20   1.00   S
ST4    4.66   1.00   P
ST4    7.91   1.00   S
ST5    13.09   1.00   S
ST7    5.21   1.00   P
ST7    9.10   1.00   S
ST8    6.50   1.00   P
ST8    11.19   1.00   S
ST9    11.89   1.00   S
ST10   14.28   1.00   S
ST11   17.98   1.00   S
ST12   6.67   1.00   P
ST15   4.01   1.00   S
ST16   3.58   1.00   P
ST17   3.05   1.00   P
ST19   1.43   1.00   P
ST19   2.47   1.00   S
ST20   6.51   1.00   P
ST21   4.06   1.00   P
ST22   6.63   1.00   P
ST24   1.74   1.00   P
ST25   3.16   1.00   P
ST26   1.65   1.00   P
# 2000 12 13 15 10 1.08 35.5668 -117.5878 5.08 1 0 0 0 136
ST1    4.90   1.00   P
ST1    8.47   1.00   S
ST2    12.10   1.00   P
ST3    7.97   1.00   P
ST4    2.42   1.00   P
ST5    8.90   1.00   P
ST5    15.09   1.00   S
ST6    7.29   1.00   P
ST6    12.38   1.00   S
ST7    3.77   1.00   P
ST7    6.69   1.00   S
ST8    5.74   1.00   P
ST8    10.01   1.00   S
ST9    4.89   1.00   P
ST9    9.61   1.00   S
ST10   8.38   1.00   P
ST11   10.14   1.00   P
ST12   6.94   1.00   P
ST12   11.93   1.00   S
ST13   3.54   1.00   P
ST14   5.93   1.00   P
ST15   2.93   1.00   S
ST16   2.24   1.00   P
ST16   3.79   1.00   S
ST17   5.30   1.00   P
ST17   9.02   1.00   S
ST18   2.10   1.00   P
ST18   3.72   1.00   S
ST19   4.72   1.00   S
ST20   6.34   1.00   P
ST20   10.83   1.00   S
ST22   6.53   1.00   P
ST22   11.10   1.00   S
ST23   3.22   1.00   P
ST23   5.68   1.00   S
ST24   6.67   1.00   S
ST25   2.83   1.00   P
ST25   6.10   1.00   S
ST26   3.31   1.00   P
# 2000 12 13 15 10 0.91 35.5974 -117.4033 6.76 1 0 0 0 137
ST0    2.57   1.00   P
ST1    5.26   1.00   P
ST1    8.78   1.00   S
ST2    20.21   1.00   S
ST3    8.92   1.00   P
ST4    4.73   1.00   P
ST4    8.08   1.00   S
ST5    14.00   1.00   S
ST6    5.78   1.00   P
ST6    9.81   1.00   S
ST7    11.18   1.00   S
ST8    12.09   1.00   S
ST9    7.35   1.00   P
ST9    12.51   1.00   S
ST10   9.11   1.00   P
ST11   11.07   1.00   P
ST11   18.84   1.00   S
ST12   12.20   1.00   S
ST14   7.70   1.00   S
ST15   2.78   1.00   P
ST16   3.55   1.00   P
ST16   5.73   1.00   S
ST18   1.85   1.00   P
ST19   1.87   1.00   P
ST19   3.10   1.00   S
ST20   7.12   1.00   P
ST20   11.99   1.00   S
ST21   4.66   1.00   P
ST22   7.28   1.00   P
ST22   12.20   1.00   S
ST23   3.73   1.00   P
ST23   6.21   1.00   S
ST24   1.60   1.00   P
ST25   6.47   1.00   S
ST26   2.40   1.00   S
# 2000 12 13 15 10 1.17 35.8337 -117.6481 6.45 1 0 0 0 138
ST0    7.28   1.00   P
ST0    12.44   1.00   S
ST1    1.48   1.00   P
ST2    7.83   1.00   P
ST2    13.38   1.00   S
ST3    6.60   1.00   S
ST4    11.06   1.00   S
ST5    8.60   1.00   S
ST6    5.53   1.00   P
ST6    9.63   1.00   S
ST7    3.44   1.00   P
ST7    6.05   1.00   S
ST8    2.49   1.00   P
ST8    4.21   1.00   S
ST9    9.54   1.00   S
ST10   4.10   1.00   P
ST11   6.05   1.00   P
ST11   10.52   1.00   S
ST12   2.54   1.00   P
ST12   5.68   1.00   S
ST13   4.73   1.00   P
ST14   7.86   1.00   S
ST15   7.40   1.00   S
ST16   7.41   1.00   P
ST16   11.48   1.00   S
ST18   5.00   1.00   P
ST18   8.74   1.00   S
ST19   4.48   1.00   P
ST20   1.92   1.00   P
ST20   3.28   1.00   S
ST21   1.89   1.00   P
ST21   3.38   1.00   S
ST22   2.10   1.00   P
ST23   2.72   1.00   P
ST24   6.10   1.00   P
ST25   2.93   1.00   P
ST25   5.27   1.00   S
ST26   6.04   1.00   P
ST26   10.42   1.00   S
# 2000 12 13 15 10 1.06 35.6241 -117.4193 6.33 1 0 0 0 139
ST1    4.78   1.00   P
ST2    11.49   1.00   P
ST3    8.49   1.00   P
ST3    14.37   1.00   S
ST4    4.89   1.00   P
ST4    8.17   1.00   S
ST5    7.92   1.00   P
ST5    13.17   1.00   S
ST6    5.25   1.00   P
ST6    8.98   1.00   S
ST7    5.47   1.00   P
ST8    6.70   1.00   P
ST8    11.54   1.00   S
ST9    7.19   1.00   P
ST9    12.22   1.00   S
ST10   8.63   1.00   P
ST11   10.55   1.00   P
ST12   6.82   1.00   P
ST12   11.48   1.00   S
ST13   1.53   1.00   P
ST14   4.08   1.00   P
ST15   2.61   1.00   P
ST15   4.44   1.00   S
ST16   3.70   1.00   P
ST17   2.81   1.00   P
ST17   4.78   1.00   S
ST18   1.76   1.00   P
ST18   3.01   1.00   S
ST19   1.60   1.00   P
ST20   6.66   1.00   P
ST20   11.34   1.00   S
ST22   6.89   1.00   P
ST22   11.61   1.00   S
ST23   3.33   1.00   P
ST24   1.62   1.00   P
ST24   2.65   1.00   S
ST26   1.60   1.00   P
ST26   2.79   1.00   S
# 2000 12 13 15 10 0.95 35.8864 -117.6868 10.41 1 0 0 0 140
ST0    8.29   1.00   P
ST1    2.61   1.00   P
ST1    4.34   1.00   S
ST2    7.63   1.00   P
ST2    12.16   1.00   S
ST3    3.02   1.00   P
ST4    7.23   1.00   P
ST4    12.45   1.00   S
ST5    4.70   1.00   P
ST6    6.11   1.00   P
ST6    10.03   1.00   S
ST7    4.23   1.00   P
ST8    2.80   1.00   P
ST8    4.66   1.00   S
ST9    10.24   1.00   S
ST10   3.22   1.00   P
ST11   5.13   1.00   P
ST11   8.99   1.00   S
ST12   2.01   1.00   P
ST13   9.76   1.00   S
ST14   5.15   1.00   P
ST14   9.86   1.00   S
ST16   7.65   1.00   P
ST16   12.98   1.00   S
ST17   8.15   1.00   P
ST19   5.53   1.00   P
ST20   3.89   1.00   S
ST21   3.15   1.00   P
ST22   2.64   1.00   S
ST23   6.66   1.00   S
ST25   4.10   1.00   P
ST25   7.03   1.00   S
ST26   7.11   1.00   P
# 2000 12 13 15 10 0.99 35.7215 -117.5480 5.36 1 0 0 0 141
ST0    5.12   1.00   P
ST1    4.27   1.00   S
ST2    9.77   1.00   P
ST2    16.70   1.00   S
ST3    6.18   1.00   P
ST4    5.00   1.00   P
ST5    6.50   1.00   P
ST5    10.95   1.00   S
ST6    8.80   1.00   S
ST7    6.21   1.00   S
ST8    4.43   1.00   P
ST8    7.59   1.00   S
ST9    5.74   1.00   P
ST10   10.88   1.00   S
ST11   8.28   1.00   P
ST12   4.71   1.00   P
ST12   8.00   1.00   S
ST13   2.69   1.00   P
ST13   4.64   1.00   S
ST14   3.90   1.00   P
ST15   2.23   1.00   P
ST16   8.04   1.00   S
ST17   5.29   1.00   P
ST17   8.76   1.00   S
ST18   2.86   1.00   P
ST18   4.84   1.00   S
ST21   3.19   1.00   S
ST22   4.50   1.00   P
ST23   2.08   1.00   S
ST24   3.98   1.00   P
ST24   6.71   1.00   S
ST25   1.55   1.00   P
ST26   3.92   1.00   P
ST26   6.64   1.00   S
# 2000 12 13 15 10 0.96 35.6536 -117.4644 2.12 1 0 0 0 142
ST0    3.85   1.00   P
ST2    11.42   1.00   P
ST3    8.18   1.00   P
ST3    13.93   1.00   S
ST4    5.12   1.00   P
ST4    8.46   1.00   S
ST6    5.50   1.00   P
ST6    9.34   1.00   S
ST7    5.25   1.00   P
ST8    6.46   1.00   P
ST9    7.12   1.00   P
ST9    12.24   1.00   S
ST10   8.40   1.00   P
ST11   10.31   1.00   P
ST11   18.69   1.00   S
ST12   11.04   1.00   S
ST13   1.04   1.00   P
ST13   1.73   1.00   S
ST14   4.26   1.00   P
ST15   2.08   1.00   P
ST17   6.63   1.00   S
ST18   1.41   1.00   P
ST19   0.56   1.00   P
ST20   6.41   1.00   P
ST21   3.77   1.00   P
ST22   6.56   1.00   P
ST23   2.66   1.00   P
ST24   2.21   1.00   P
ST25   2.89   1.00   P
ST26   2.14   1.00   P
ST26   3.55   1.00   S
# 2000 12 13 15 10 1.05 35.7040 -117.5871 8.12 1 0 0 0 143
ST0    5.10   1.00   P
ST0    8.64   1.00   S
ST3    5.99   1.00   P
ST3    10.18   1.00   S
ST4    4.48   1.00   P
ST5    6.68   1.00   P
ST5    11.30   1.00   S
ST6    5.60   1.00   P
ST7    3.06   1.00   P
ST8    4.13   1.00   P
ST9    5.14   1.00   P
ST10   6.32   1.00   P
ST12   8.12   1.00   S
ST13   3.02   1.00   P
ST15   2.00   1.00   P
ST16   4.37   1.00   P
ST16   7.62   1.00   S
ST20   4.31   1.00   P
ST20   7.32   1.00   S
ST21   2.01   1.00   P
ST21   3.43   1.00   S
ST22   7.72   1.00   S
ST23   2.70   1.00   S
ST24   4.16   1.00   P
ST26   3.97   1.00   P
ST26   6.69   1.00   S
# 2000 12 13 15 10 0.98 35.9120 -117.7044 8.30 1 0 0 0 144
ST1    5.07   1.00   S
ST2    6.90   1.00   P
ST3    2.63   1.00   P
ST4    7.57   1.00   P
ST4    12.83   1.00   S
ST6    10.74   1.00   S
ST7    7.82   1.00   S
ST8    2.95   1.00   P
ST9    6.25   1.00   P
ST10   2.83   1.00   P
ST12   3.23   1.00   S
ST13   6.19   1.00   P
ST14   9.44   1.00   S
ST15   5.68   1.00   P
ST16   8.04   1.00   P
ST16   13.76   1.00   S
ST17   8.62   1.00   P
ST18   6.54   1.00   P
ST18   11.16   1.00   S
ST19   10.26   1.00   S
ST20   1.67   1.00   P
ST20   2.75   1.00   S
ST21   6.15   1.00   S
ST22   1.51   1.00   P
ST22   2.55   1.00   S
ST23   4.29   1.00   P
ST24   7.45   1.00   P
ST24   12.79   1.00   S
ST26   7.53   1.00   P
# 2000 12 13 15 10 1.07 35.7136 -117.5672 7.19 1 0 0 0 145
ST0    8.44   1.00   S
ST1    2.62   1.00   P
ST2    9.83   1.00   P
ST3    5.97   1.00   P
ST3    10.23   1.00   S
ST4    4.66   1.00   P
ST5    6.54   1.00   P
ST5    11.08   1.00   S
ST6    5.35   1.00   P
ST7    3.16   1.00   P
ST8    4.15   1.00   P
ST8    7.20   1.00   S
ST9    5.35   1.00   P
ST9    9.28   1.00   S
ST10   10.66   1.00   S
ST11   8.15   1.00   P
ST11   14.16   1.00   S
ST12   4.67   1.00   P
ST12   7.94   1.00   S
ST13   2.86   1.00   P
ST14   4.10   1.00   P
ST14   7.06   1.00   S
ST15   2.14   1.00   P
ST15   3.74   1.00   S
ST16   7.76   1.00   S
ST17   5.27   1.00   P
ST18   2.79   1.00   P
ST18   5.60   1.00   S
ST19   2.40   1.00   P
ST20   7.41   1.00   S
ST22   4.36   1.00   P
ST22   7.67   1.00   S
ST23   1.42   1.00   P
ST23   2.42   1.00   S
ST25   1.47   1.00   P
ST25   2.59   1.00   S
ST26   3.89   1.00   P
# 2000 12 13 15 10 0.99 35.9268 -117.7231 5.16 1 0 0 0 146
ST0    9.19   1.00   P
ST1    3.46   1.00   P
ST2    6.80   1.00   P
ST2    11.66   1.00   S
ST3    2.19   1.00   P
ST4    13.58   1.00   S
ST5    4.77   1.00   P
ST5    7.92   1.00   S
ST6    6.71   1.00   P
ST6    11.25   1.00   S
ST7    4.82   1.00   P
ST8    3.17   1.00   P
ST9    6.49   1.00   P
ST10   2.44   1.00   P
ST10   4.16   1.00   S
ST11   4.39   1.00   P
ST12   3.00   1.00   S
ST13   6.68   1.00   P
ST13   11.28   1.00   S
ST15   6.10   1.00   P
ST16   8.42   1.00   P
ST17   9.05   1.00   P
ST18   11.90   1.00   S
ST19   6.47   1.00   P
ST19   10.99   1.00   S
ST20   2.40   1.00   S
ST21   3.99   1.00   P
ST21   6.83   1.00   S
ST22   1.25   1.00   P
ST22   1.94   1.00   S
ST23   4.70   1.00   P
ST24   8.00   1.00   P
ST24   13.45   1.00   S
ST25   4.89   1.00   P
ST25   8.42   1.00   S
ST26   7.96   1.00   P
ST26   13.54   1.00   S
# 2000 12 13 15 10 1.03 35.6108 -117.4621 4.31 1 0 0 0 147
ST0    2.93   1.00   P
ST2    19.89   1.00   S
ST3    8.51   1.00   P
ST4    4.53   1.00   P
ST4    7.62   1.00   S
ST5    8.28   1.00   P
ST5    13.83   1.00   S
ST6    5.85   1.00   P
ST7    5.28   1.00   P
ST8    6.67   1.00   P
ST10   14.90   1.00   S
ST11   18.38   1.00   S
ST14   4.65   1.00   P
ST14   7.97   1.00   S
ST15   3.61   1.00   S
ST16   3.39   1.00   P
ST16   5.67   1.00   S
ST17   3.42   1.00   P
ST18   1.05   1.00   P
ST18   1.76   1.00   S
ST19   1.18   1.00   P
ST21   4.23   1.00   P
ST22   6.88   1.00   P
ST23   5.40   1.00   S
ST24   3.01   1.00   S
ST25   5.55   1.00   S
ST26   1.43   1.00   P
ST26   2.51   1.00   S
