# 2000 12 13 15 10 0.99 35.9972 -117.6625 4.78 1 0 0 0 51
ST0    9.72   1.00   P
ST0    16.42   1.00   S
ST1    6.51   1.00   S
ST2    5.65   1.00   P
ST3    2.64   1.00   P
ST4    9.07   1.00   P
ST5    3.67   1.00   P
ST6    6.25   1.00   P
ST7    6.06   1.00   P
ST7    10.27   1.00   S
ST8    4.44   1.00   P
ST9    14.62   1.00   S
ST10   2.12   1.00   P
ST12   3.09   1.00   S
ST13   7.11   1.00   P
ST15   6.96   1.00   P
ST16   9.37   1.00   P
ST17   15.70   1.00   S
ST18   13.26   1.00   S
ST19   6.99   1.00   P
ST19   11.92   1.00   S
ST20   2.56   1.00   P
ST21   4.68   1.00   P
ST21   7.82   1.00   S
ST22   2.17   1.00   P
ST24   8.45   1.00   P
ST24   14.20   1.00   S
ST25   5.79   1.00   P
ST25   9.97   1.00   S
# 2000 12 13 15 10 0.92 35.6650 -117.4977 5.27 1 0 0 0 52
ST2    10.89   1.00   P
ST2    18.21   1.00   S
ST3    7.46   1.00   P
ST4    4.68   1.00   P
ST4    7.94   1.00   S
ST5    7.37   1.00   P
ST5    12.23   1.00   S
ST6    5.40   1.00   P
ST7    4.47   1.00   P
ST9    10.80   1.00   S
ST10   7.67   1.00   P
ST12   10.05   1.00   S
ST14   4.06   1.00   P
ST14   6.93   1.00   S
ST15   1.81   1.00   P
ST16   4.07   1.00   P
ST16   6.72   1.00   S
ST18   1.76   1.00   P
ST18   3.00   1.00   S
ST19   1.88   1.00   S
ST20   9.56   1.00   S
ST21   3.12   1.00   P
ST21   5.23   1.00   S
ST23   2.11   1.00   P
ST23   3.50   1.00   S
ST24   2.89   1.00   P
ST24   4.77   1.00   S
ST25   2.29   1.00   P
ST25   3.86   1.00   S
ST26   4.67   1.00   S
# 2000 12 13 15 10 0.91 35.9523 -117.6904 4.41 1 0 0 0 53
ST0    15.77   1.00   S
ST2    6.35   1.00   P
ST3    3.89   1.00   S
ST4    14.47   1.00   S
ST5    4.23   1.00   P
ST5    6.94   1.00   S
ST6    10.61   1.00   S
ST7    5.44   1.00   P
ST7    9.22   1.00   S
ST9    7.09   1.00   P
ST9    12.14   1.00   S
ST10   2.37   1.00   P
ST11   7.64   1.00   S
ST12   1.27   1.00   P
ST13   6.73   1.00   P
ST14   5.79   1.00   P
ST15   6.44   1.00   P
ST16   8.88   1.00   P
ST16   15.04   1.00   S
ST17   9.16   1.00   P
ST17   15.34   1.00   S
ST18   7.18   1.00   P
ST18   12.28   1.00   S
ST19   6.65   1.00   P
ST19   11.26   1.00   S
ST21   4.27   1.00   P
ST22   1.48   1.00   P
ST22   2.32   1.00   S
ST23   8.40   1.00   S
ST24   8.09   1.00   P
ST24   13.67   1.00   S
ST25   8.92   1.00   S
ST26   8.26   1.00   P
# 2000 12 13 15 10 1.03 35.7043 -117.5374 5.92 1 0 0 0 54
ST0    4.72   1.00   P
ST0    7.91   1.00   S
ST1    2.84   1.00   P
ST1    4.83   1.00   S
ST2    9.99   1.00   P
ST2    17.02   1.00   S
ST3    6.38   1.00   P
ST4    4.73   1.00   P
ST5    6.64   1.00   P
ST7    6.50   1.00   S
ST8    4.67   1.00   P
ST8    8.00   1.00   S
ST9    5.74   1.00   P
ST9    9.87   1.00   S
ST10   6.65   1.00   P
ST10   11.37   1.00   S
ST11   8.51   1.00   P
ST12   8.31   1.00   S
ST13   2.50   1.00   P
ST14   3.92   1.00   P
ST14   6.70   1.00   S
ST15   2.08   1.00   P
ST15   3.48   1.00   S
ST16   4.43   1.00   P
ST16   7.51   1.00   S
ST18   4.25   1.00   S
ST19   3.50   1.00   S
ST20   4.65   1.00   P
ST21   2.26   1.00   P
ST22   4.79   1.00   P
ST23   1.52   1.00   P
ST24   3.60   1.00   P
ST24   6.53   1.00   S
ST25   1.72   1.00   P
ST25   2.82   1.00   S
ST26   3.50   1.00   P
ST26   5.90   1.00   S
# 2000 12 13 15 10 0.92 35.9572 -117.6878 4.78 1 0 0 0 55
ST0    9.35   1.00   P
ST0    15.80   1.00   S
ST1    3.54   1.00   P
ST1    5.84   1.00   S
ST2    6.25   1.00   P
ST2    10.70   1.00   S
ST3    2.34   1.00   P
ST4    8.48   1.00   P
ST4    14.45   1.00   S
ST5    4.21   1.00   P
ST6    6.41   1.00   P
ST6    10.58   1.00   S
ST7    5.44   1.00   P
ST8    3.78   1.00   P
ST8    6.43   1.00   S
ST9    7.12   1.00   P
ST9    12.07   1.00   S
ST10   2.19   1.00   P
ST10   3.72   1.00   S
ST11   4.27   1.00   P
ST12   1.31   1.00   P
ST12   1.96   1.00   S
ST13   6.79   1.00   P
ST14   5.75   1.00   P
ST14   9.55   1.00   S
ST15   6.49   1.00   P
ST16   8.88   1.00   P
ST17   9.17   1.00   P
ST18   12.24   1.00   S
ST19   6.65   1.00   P
ST20   1.96   1.00   P
ST22   1.60   1.00   P
ST22   2.51   1.00   S
ST23   5.03   1.00   P
ST24   8.16   1.00   P
ST26   8.24   1.00   P
ST26   13.76   1.00   S
# 2000 12 13 15 10 0.85 35.7508 -117.5178 4.68 1 0 0 0 56
ST0    5.41   1.00   P
ST1    3.92   1.00   S
ST2    9.50   1.00   P
ST2    15.83   1.00   S
ST3    6.18   1.00   P
ST4    9.62   1.00   S
ST5    6.08   1.00   P
ST6    8.10   1.00   S
ST7    4.12   1.00   P
ST7    8.30   1.00   S
ST8    4.61   1.00   P
ST9    6.28   1.00   P
ST9    10.76   1.00   S
ST10   6.34   1.00   P
ST10   10.65   1.00   S
ST11   8.25   1.00   P
ST11   14.30   1.00   S
ST12   4.54   1.00   P
ST13   4.69   1.00   S
ST14   3.43   1.00   P
ST14   5.85   1.00   S
ST15   2.90   1.00   P
ST15   4.83   1.00   S
ST16   5.37   1.00   P
ST16   9.08   1.00   S
ST17   8.74   1.00   S
ST19   2.61   1.00   P
ST20   7.28   1.00   S
ST21   1.95   1.00   P
ST22   4.51   1.00   P
ST23   2.57   1.00   S
ST24   4.17   1.00   P
ST25   2.14   1.00   P
ST26   6.94   1.00   S
# 2000 12 13 15 10 0.91 35.9900 -117.6712 3.48 1 0 0 0 57
ST0    9.91   1.00   P
ST0    16.54   1.00   S
ST1    4.11   1.00   P
ST2    5.75   1.00   P
ST2    9.86   1.00   S
ST3    2.59   1.00   P
ST4    9.20   1.00   P
ST4    15.65   1.00   S
ST5    3.85   1.00   P
ST5    6.36   1.00   S
ST6    10.76   1.00   S
ST7    6.18   1.00   P
ST7    10.49   1.00   S
ST8    4.55   1.00   P
ST10   2.12   1.00   P
ST10   3.45   1.00   S
ST11   4.17   1.00   P
ST11   7.22   1.00   S
ST12   2.01   1.00   S
ST13   7.18   1.00   P
ST14   5.91   1.00   P
ST14   9.74   1.00   S
ST15   7.11   1.00   P
ST15   12.13   1.00   S
ST16   9.51   1.00   P
ST17   15.95   1.00   S
ST19   7.20   1.00   P
ST20   2.64   1.00   P
ST21   8.09   1.00   S
ST22   3.73   1.00   S
ST24   8.63   1.00   P
ST26   8.72   1.00   P
ST26   14.71   1.00   S
# 2000 12 13 15 10 0.97 35.7650 -117.5744 9.19 1 0 0 0 58
ST0    5.83   1.00   P
ST1    2.04   1.00   P
ST2    9.09   1.00   P
ST3    9.20   1.00   S
ST4    5.53   1.00   P
ST6    5.04   1.00   P
ST7    3.55   1.00   P
ST9    9.88   1.00   S
ST10   5.65   1.00   P
ST10   9.53   1.00   S
ST11   7.53   1.00   P
ST13   3.31   1.00   P
ST13   5.73   1.00   S
ST14   3.84   1.00   P
ST14   6.60   1.00   S
ST15   3.01   1.00   P
ST15   5.12   1.00   S
ST16   5.45   1.00   P
ST16   9.25   1.00   S
ST17   5.78   1.00   P
ST18   3.68   1.00   P
ST19   3.08   1.00   P
ST19   6.22   1.00   S
ST20   6.22   1.00   S
ST21   1.63   1.00   P
ST22   3.82   1.00   P
ST22   6.43   1.00   S
ST24   7.77   1.00   S
ST25   2.00   1.00   P
ST26   4.59   1.00   P
# 2000 12 13 15 10 1.05 35.9356 -117.6931 7.20 1 0 0 0 59
ST0    8.98   1.00   P
ST1    3.11   1.00   P
ST1    5.17   1.00   S
ST2    6.53   1.00   P
ST4    7.94   1.00   P
ST4    13.73   1.00   S
ST5    4.32   1.00   P
ST6    6.30   1.00   P
ST6    10.53   1.00   S
ST7    4.86   1.00   P
ST7    8.37   1.00   S
ST8    5.45   1.00   S
ST9    6.58   1.00   P
ST9    11.23   1.00   S
ST10   2.43   1.00   P
ST10   4.16   1.00   S
ST11   7.75   1.00   S
ST12   1.39   1.00   P
ST13   6.37   1.00   P
ST14   5.52   1.00   P
ST14   9.21   1.00   S
ST15   5.98   1.00   P
ST15   10.29   1.00   S
ST16   8.33   1.00   P
ST16   14.26   1.00   S
ST17   8.76   1.00   P
ST17   14.84   1.00   S
ST19   6.21   1.00   P
ST20   2.03   1.00   P
ST21   3.77   1.00   P
ST21   6.37   1.00   S
ST23   4.55   1.00   P
ST24   7.71   1.00   P
ST25   4.79   1.00   P
ST26   7.78   1.00   P
ST26   13.17   1.00   S
# 2000 12 13 15 10 1.07 35.8803 -117.6889 5.63 1 0 0 0 60
ST0    8.20   1.00   P
ST1    2.47   1.00   P
ST2    7.33   1.00   P
ST2    12.74   1.00   S
ST3    5.17   1.00   S
ST4    7.04   1.00   P
ST5    8.39   1.00   S
ST6    6.17   1.00   P
ST6    10.48   1.00   S
ST7    3.92   1.00   P
ST7    6.78   1.00   S
ST9    11.15   1.00   S
ST10   3.39   1.00   P
ST10   5.72   1.00   S
ST11   5.18   1.00   P
ST12   2.14   1.00   P
ST16   7.51   1.00   P
ST16   12.69   1.00   S
ST17   8.10   1.00   P
ST18   5.94   1.00   P
ST19   5.42   1.00   P
ST20   1.16   1.00   P
ST21   2.93   1.00   P
ST21   5.10   1.00   S
ST22   1.32   1.00   P
ST24   6.98   1.00   P
ST25   3.85   1.00   P
ST25   7.35   1.00   S
# 2000 12 13 15 10 1.0 35.9049 -117.7217 7.41 1 0 0 0 61
ST0    8.70   1.00   P
ST0    14.68   1.00   S
ST1    3.69   1.00   P
ST1    5.02   1.00   S
ST2    7.01   1.00   P
ST3    2.50   1.00   P
ST4    7.42   1.00   P
ST4    12.86   1.00   S
ST5    4.78   1.00   P
ST5    8.03   1.00   S
ST7    4.35   1.00   P
ST8    2.77   1.00   P
ST10   2.84   1.00   P
ST10   4.78   1.00   S
ST11   4.62   1.00   P
ST11   8.12   1.00   S
ST13   6.17   1.00   P
ST13   10.64   1.00   S
ST14   5.59   1.00   P
ST16   7.97   1.00   P
ST18   6.46   1.00   P
ST19   6.02   1.00   P
ST20   1.49   1.00   P
ST20   2.47   1.00   S
ST21   3.54   1.00   P
ST23   4.23   1.00   P
ST23   7.42   1.00   S
ST24   7.49   1.00   P
ST25   4.42   1.00   P
ST26   7.47   1.00   P
ST26   12.92   1.00   S
# 2000 12 13 15 10 1.02 35.6340 -117.4294 2.82 1 0 0 0 62
ST1    9.50   1.00   S
ST2    11.75   1.00   P
ST3    8.67   1.00   P
ST3    14.67   1.00   S
ST4    5.20   1.00   P
ST5    8.12   1.00   P
ST5    13.55   1.00   S
ST6    5.56   1.00   P
ST6    9.46   1.00   S
ST7    5.77   1.00   P
ST8    6.90   1.00   P
ST9    7.48   1.00   P
ST10   14.96   1.00   S
ST12   6.99   1.00   P
ST13   1.05   1.00   P
ST14   4.28   1.00   P
ST14   7.31   1.00   S
ST15   4.35   1.00   S
ST16   6.78   1.00   S
ST17   3.33   1.00   P
ST18   1.51   1.00   P
ST18   2.59   1.00   S
ST19   1.14   1.00   P
ST19   2.06   1.00   S
ST21   4.35   1.00   P
ST21   7.33   1.00   S
ST22   7.00   1.00   P
ST23   5.58   1.00   S
ST24   1.40   1.00   P
ST25   3.49   1.00   P
ST26   1.55   1.00   P
ST26   2.55   1.00   S
# 2000 12 13 15 10 1.0 35.8804 -117.6616 9.19 1 0 0 0 63
ST0    8.00   1.00   P
ST0    13.41   1.00   S
ST1    2.39   1.00   P
ST2    7.27   1.00   P
ST3    5.60   1.00   S
ST4    7.12   1.00   P
ST5    4.70   1.00   P
ST5    7.81   1.00   S
ST6    5.76   1.00   P
ST6    9.73   1.00   S
ST7    4.26   1.00   P
ST7    7.19   1.00   S
ST8    2.95   1.00   P
ST9    6.11   1.00   P
ST9    10.24   1.00   S
ST10   3.50   1.00   P
ST10   5.81   1.00   S
ST11   9.38   1.00   S
ST12   2.14   1.00   P
ST12   3.51   1.00   S
ST13   5.36   1.00   P
ST13   9.23   1.00   S
ST14   4.87   1.00   P
ST16   12.61   1.00   S
ST18   5.81   1.00   P
ST18   9.88   1.00   S
ST19   5.26   1.00   P
ST20   1.84   1.00   P
ST22   1.86   1.00   P
ST23   3.61   1.00   P
ST23   6.17   1.00   S
ST24   6.72   1.00   P
ST25   3.91   1.00   P
ST25   6.65   1.00   S
ST26   6.84   1.00   P
# 2000 12 13 15 10 1.12 35.6198 -117.5894 5.86 1 0 0 0 64
ST0    4.37   1.00   P
ST0    7.38   1.00   S
ST1    4.07   1.00   P
ST1    6.99   1.00   S
ST2    11.27   1.00   P
ST3    12.27   1.00   S
ST4    3.11   1.00   P
ST5    7.95   1.00   P
ST5    13.58   1.00   S
ST6    11.18   1.00   S
ST7    3.31   1.00   P
ST7    5.91   1.00   S
ST8    8.77   1.00   S
ST9    4.81   1.00   P
ST9    8.42   1.00   S
ST10   7.58   1.00   P
ST11   9.30   1.00   P
ST11   16.25   1.00   S
ST12   6.10   1.00   P
ST12   10.40   1.00   S
ST14   5.22   1.00   P
ST15   1.30   1.00   P
ST15   2.15   1.00   S
ST16   2.97   1.00   P
ST17   8.68   1.00   S
ST18   2.04   1.00   P
ST18   3.58   1.00   S
ST19   3.93   1.00   S
ST20   5.52   1.00   P
ST20   9.56   1.00   S
ST21   3.30   1.00   P
ST21   5.78   1.00   S
ST23   2.43   1.00   P
ST23   4.29   1.00   S
ST24   3.72   1.00   P
ST24   6.35   1.00   S
ST25   2.09   1.00   P
ST25   3.67   1.00   S
ST26   3.31   1.00   P
ST26   5.68   1.00   S
# 2000 12 13 15 10 1.01 36.0534 -117.8329 3.38 1 0 0 0 65
ST0    20.06   1.00   S
ST1    6.13   1.00   P
ST2    5.83   1.00   P
ST2    10.11   1.00   S
ST3    1.85   1.00   P
ST4    10.42   1.00   P
ST4    17.68   1.00   S
ST5    5.66   1.00   P
ST6    8.77   1.00   P
ST6    14.94   1.00   S
ST7    7.19   1.00   P
ST8    5.48   1.00   P
ST9    8.44   1.00   P
ST10   1.72   1.00   P
ST11   2.84   1.00   S
ST12   6.73   1.00   S
ST13   9.30   1.00   P
ST13   16.00   1.00   S
ST14   8.24   1.00   P
ST14   14.03   1.00   S
ST15   14.92   1.00   S
ST16   10.98   1.00   P
ST17   19.99   1.00   S
ST18   9.53   1.00   P
ST18   16.41   1.00   S
ST19   9.13   1.00   P
ST21   6.67   1.00   P
ST22   4.07   1.00   P
ST22   6.99   1.00   S
ST23   7.33   1.00   P
ST24   10.62   1.00   P
ST25   7.52   1.00   P
ST26   10.58   1.00   P
ST26   18.17   1.00   S
# 2000 12 13 15 10 0.91 35.6077 -117.5952 3.75 1 0 0 0 66
ST0    4.59   1.00   P
ST1    4.49   1.00   P
ST2    11.72   1.00   P
ST2    19.99   1.00   S
ST3    13.01   1.00   S
ST4    3.13   1.00   P
ST6    6.98   1.00   P
ST6    11.79   1.00   S
ST7    3.64   1.00   P
ST9    5.06   1.00   P
ST9    8.75   1.00   S
ST10   8.01   1.00   P
ST11   9.77   1.00   P
ST11   17.06   1.00   S
ST12   6.55   1.00   P
ST14   5.65   1.00   P
ST16   2.94   1.00   P
ST16   4.93   1.00   S
ST17   5.41   1.00   P
ST18   2.09   1.00   P
ST19   2.48   1.00   P
ST20   5.97   1.00   P
ST21   3.71   1.00   P
ST21   6.22   1.00   S
ST22   10.57   1.00   S
ST24   3.99   1.00   P
ST24   6.74   1.00   S
ST26   3.47   1.00   P
ST26   5.90   1.00   S
# 2000 12 13 15 10 0.98 35.6565 -117.4479 2.68 1 0 0 0 67
ST0    3.45   1.00   P
ST0    5.74   1.00   S
ST2    11.34   1.00   P
ST2    19.00   1.00   S
ST3    8.23   1.00   P
ST3    13.94   1.00   S
ST5    7.75   1.00   P
ST5    12.91   1.00   S
ST6    5.39   1.00   P
ST7    5.28   1.00   P
ST8    6.52   1.00   P
ST8    11.09   1.00   S
ST9    11.93   1.00   S
ST10   8.32   1.00   P
ST11   10.26   1.00   P
ST11   17.81   1.00   S
ST12   10.94   1.00   S
ST16   4.05   1.00   P
ST17   3.53   1.00   P
ST17   6.48   1.00   S
ST19   0.93   1.00   P
ST19   1.54   1.00   S
ST20   6.39   1.00   P
ST21   3.88   1.00   P
ST22   6.60   1.00   P
ST22   11.27   1.00   S
ST23   2.92   1.00   P
ST23   4.82   1.00   S
ST25   3.10   1.00   P
ST26   1.92   1.00   P
# 2000 12 13 15 10 1.01 35.9261 -117.7017 5.50 1 0 0 0 68
ST0    8.92   1.00   P
ST1    5.15   1.00   S
ST2    6.66   1.00   P
ST4    7.85   1.00   P
ST4    13.43   1.00   S
ST5    4.50   1.00   P
ST5    7.47   1.00   S
ST6    6.35   1.00   P
ST6    10.67   1.00   S
ST7    4.76   1.00   P
ST7    8.61   1.00   S
ST8    3.09   1.00   P
ST8    5.11   1.00   S
ST9    10.95   1.00   S
ST11   4.43   1.00   P
ST11   7.82   1.00   S
ST12   1.63   1.00   P
ST12   2.63   1.00   S
ST13   10.85   1.00   S
ST16   8.24   1.00   P
ST16   14.36   1.00   S
ST17   8.76   1.00   P
ST17   14.85   1.00   S
ST19   6.19   1.00   P
ST20   1.36   1.00   P
ST21   4.70   1.00   P
ST21   6.24   1.00   S
ST22   1.14   1.00   P
ST22   1.87   1.00   S
ST23   4.46   1.00   P
ST23   7.60   1.00   S
ST24   7.70   1.00   P
ST25   4.73   1.00   P
ST25   8.11   1.00   S
ST26   7.74   1.00   P
ST26   13.12   1.00   S
# 2000 12 13 15 10 1.0 35.6457 -117.4375 4.60 1 0 0 0 69
ST0    3.33   1.00   P
ST2    11.32   1.00   P
ST2    18.87   1.00   S
ST4    5.03   1.00   P
ST4    8.47   1.00   S
ST5    7.70   1.00   P
ST6    8.84   1.00   S
ST7    5.32   1.00   P
ST7    9.24   1.00   S
ST8    11.17   1.00   S
ST9    7.17   1.00   P
ST10   14.20   1.00   S
ST11   10.30   1.00   P
ST12   6.59   1.00   P
ST13   1.10   1.00   P
ST13   1.82   1.00   S
ST14   4.02   1.00   P
ST14   6.75   1.00   S
ST15   4.07   1.00   S
ST16   4.04   1.00   P
ST16   6.76   1.00   S
ST17   5.57   1.00   S
ST18   1.61   1.00   P
ST19   1.92   1.00   S
ST20   6.38   1.00   P
ST20   10.87   1.00   S
ST21   3.95   1.00   P
ST22   6.57   1.00   P
ST24   1.85   1.00   P
ST25   3.19   1.00   P
ST26   1.89   1.00   P
# 2000 12 13 15 10 1.03 35.7213 -117.5195 5.76 1 0 0 0 70
ST0    4.84   1.00   P
ST1    2.69   1.00   P
ST1    4.47   1.00   S
ST2    9.69   1.00   P
ST3    6.31   1.00   P
ST4    5.06   1.00   P
ST5    10.64   1.00   S
ST6    8.09   1.00   S
ST8    4.63   1.00   P
ST9    5.98   1.00   P
ST9    10.34   1.00   S
ST11   8.42   1.00   P
ST14   3.60   1.00   P
ST14   6.16   1.00   S
ST15   4.02   1.00   S
ST17   4.83   1.00   P
ST17   8.17   1.00   S
ST18   2.71   1.00   P
ST19   2.16   1.00   P
ST19   3.61   1.00   S
ST20   4.50   1.00   P
ST21   2.14   1.00   P
ST22   5.63   1.00   P
ST22   7.91   1.00   S
ST23   1.54   1.00   P
ST23   2.56   1.00   S
ST24   3.64   1.00   P
ST25   3.26   1.00   S
# 2000 12 13 15 10 0.92 35.7220 -117.5179 4.71 1 0 0 0 71
ST0    5.01   1.00   P
ST1    4.59   1.00   S
ST2    9.90   1.00   P
ST2    16.63   1.00   S
ST4    5.32   1.00   P
ST4    8.95   1.00   S
ST5    6.45   1.00   P
ST5    10.79   1.00   S
ST6    4.98   1.00   P
ST6    8.43   1.00   S
ST7    4.16   1.00   P
ST7    7.13   1.00   S
ST8    4.91   1.00   P
ST9    6.30   1.00   P
ST10   11.39   1.00   S
ST12   4.99   1.00   P
ST12   8.30   1.00   S
ST14   3.60   1.00   P
ST15   2.41   1.00   P
ST15   4.10   1.00   S
ST16   4.88   1.00   P
ST17   4.98   1.00   P
ST17   8.33   1.00   S
ST18   2.78   1.00   P
ST19   2.04   1.00   P
ST19   3.42   1.00   S
ST21   2.16   1.00   P
ST21   3.71   1.00   S
ST22   4.93   1.00   P
ST22   8.21   1.00   S
ST23   2.38   1.00   S
ST24   3.71   1.00   P
ST24   6.23   1.00   S
ST25   1.88   1.00   P
ST25   3.14   1.00   S
ST26   3.74   1.00   P
# 2000 12 13 15 10 1.05 35.6694 -117.5146 6.57 1 0 0 0 72
ST0    4.04   1.00   P
ST0    6.82   1.00   S
ST2    10.49   1.00   P
ST3    7.01   1.00   P
ST3    12.06   1.00   S
ST4    4.46   1.00   P
ST4    7.64   1.00   S
ST5    7.10   1.00   P
ST6    5.28   1.00   P
ST7    4.06   1.00   P
ST8    5.23   1.00   P
ST8    9.04   1.00   S
ST10   7.25   1.00   P
ST11   9.16   1.00   P
ST12   5.57   1.00   P
ST12   9.29   1.00   S
ST13   2.00   1.00   P
ST13   3.64   1.00   S
ST14   3.97   1.00   P
ST15   1.78   1.00   P
ST15   3.15   1.00   S
ST16   6.60   1.00   S
ST17   7.21   1.00   S
ST18   1.95   1.00   P
ST18   3.32   1.00   S
ST19   1.55   1.00   P
ST19   2.66   1.00   S
ST20   8.97   1.00   S
ST22   5.44   1.00   P
ST22   9.19   1.00   S
ST23   1.93   1.00   P
ST23   3.35   1.00   S
ST24   2.99   1.00   P
ST25   2.05   1.00   P
# 2000 12 13 15 10 1.01 35.9206 -117.6811 4.54 1 0 0 0 73
ST0    8.90   1.00   P
ST0    14.99   1.00   S
ST2    6.66   1.00   P
ST2    12.27   1.00   S
ST3    2.58   1.00   P
ST4    13.50   1.00   S
ST5    4.33   1.00   P
ST6    6.19   1.00   P
ST6    10.32   1.00   S
ST7    4.86   1.00   P
ST7    8.34   1.00   S
ST8    3.84   1.00   P
ST9    6.58   1.00   P
ST9    11.32   1.00   S
ST10   5.11   1.00   S
ST11   4.63   1.00   P
ST11   8.19   1.00   S
ST12   1.35   1.00   P
ST12   2.17   1.00   S
ST13   6.26   1.00   P
ST13   10.65   1.00   S
ST14   5.38   1.00   P
ST14   9.07   1.00   S
ST15   5.90   1.00   P
ST16   8.27   1.00   P
ST16   14.16   1.00   S
ST17   8.75   1.00   P
ST19   6.11   1.00   P
ST20   1.26   1.00   P
ST20   2.02   1.00   S
ST21   3.65   1.00   P
ST22   1.06   1.00   P
ST22   1.64   1.00   S
ST23   4.42   1.00   P
ST24   7.60   1.00   P
ST24   12.90   1.00   S
ST26   13.02   1.00   S
# 2000 12 13 15 10 0.96 35.9311 -117.7207 4.69 1 0 0 0 74
ST1    3.43   1.00   P
ST2    6.76   1.00   P
ST2    11.65   1.00   S
ST3    2.24   1.00   P
ST3    3.69   1.00   S
ST4    8.00   1.00   P
ST5    4.67   1.00   P
ST6    11.14   1.00   S
ST7    4.95   1.00   P
ST7    8.36   1.00   S
ST8    3.23   1.00   P
ST9    11.12   1.00   S
ST10   2.42   1.00   P
ST10   4.12   1.00   S
ST11   7.74   1.00   S
ST12   1.76   1.00   P
ST13   6.64   1.00   P
ST14   5.91   1.00   P
ST15   6.08   1.00   P
ST16   14.44   1.00   S
ST18   6.91   1.00   P
ST18   11.87   1.00   S
ST19   6.43   1.00   P
ST19   12.25   1.00   S
ST20   1.47   1.00   P
ST20   2.45   1.00   S
ST21   4.00   1.00   P
ST22   1.99   1.00   S
ST23   9.07   1.00   S
ST24   7.94   1.00   P
ST25   4.93   1.00   P
ST25   8.42   1.00   S
ST26   13.84   1.00   S
